{"type":"FeatureCollection","features":[{"type":"Feature","properties":{"name":"Assiniboia Regional Park Campground","routes":["C2"],"provs":["SK"],"desc":"description: Details from Google Maps<br>SK-2, Assiniboia, SK S0H 0B0<br>https://www.assiniboia.net/visit_us/accommodation_camping.html<br>+1 306-642-3382<br>Type: Municipal Campground<br>ID: 221.0","sym":"Campground"},"geometry":{"type":"Point","coordinates":[-105.99089,49.6261]}},{"type":"Feature","properties":{"name":"Bassano Homecoming Campground","routes":["C1","CA"],"provs":["AB"],"desc":"description: Approved Accommodation #11<br>Details from Google Maps<br>601-605 2 Ave, Bassano, AB T0J 0B0<br>https://bassano.ca/campground-accommodations/<br>+1 403-641-3788<br>Type: Municipal Campground<br>ID: 11.0","sym":"Campground"},"geometry":{"type":"Point","coordinates":[-112.46398,50.78621]}},{"type":"Feature","properties":{"name":"Beiseker Municipal Campground","routes":["C3","CA"],"provs":["AB"],"desc":"description: <br>Type: Municipal Campground<br>ID:","sym":"Campground"},"geometry":{"type":"Point","coordinates":[-113.52738,51.38643]}},{"type":"Feature","properties":{"name":"Bluewater Park Campground1","routes":["C2","C3"],"provs":["ON"],"desc":"description: \"Bluewater Park Campground is a municipally-owned campground located in Bluewater Park on Colpoy's Bay along the Niagara Escarpment. This cozy campground offers 40 seasonal sites, 54 serviced sites and non-serviced tent camping sites.\"<br>https://www.southbrucepeninsula.com/en/explore-and-play/bluewater-park-campground.aspx<br>Details from Google Maps<br>400 William St, Wiarton, ON N0H 2T0<br>www.southbrucepeninsula.com<br>+1 519-534-1400 ext. 316<br>Type: Municipal Campground<br>ID: 311.0","sym":"Campground"},"geometry":{"type":"Point","coordinates":[-81.13655,44.74387]}},{"type":"Feature","properties":{"name":"Bow Island Centennial Park & Campground","routes":["C2","CA"],"provs":["AB"],"desc":"description: Details from Google Maps<br>1121 Centre St, Bow Island, AB T0K 0G0<br>www.bowisland.com<br>+1 403-545-2522<br>Type: Municipal Campground<br>ID: 40.0","sym":"Campground"},"geometry":{"type":"Point","coordinates":[-111.37974,49.86224]}},{"type":"Feature","properties":{"name":"Broughton Strait Campground1","routes":["C3","CA"],"provs":["BC"],"desc":"description: Details from Google Maps<br>Broughton Blvd, Port McNeill, BC V0N 2R0<br>https://portmcneill.ca/residents/broughton-straight-campground/<br>+1 250-230-1526<br>Type: Municipal Campground<br>ID: 153.0","sym":"Campground"},"geometry":{"type":"Point","coordinates":[-127.09129,50.58569]}},{"type":"Feature","properties":{"name":"Bruce Mines Campground","routes":["C1","C2","C3"],"provs":["ON"],"desc":"description: <br>Type: Municipal Campground<br>ID:","sym":"Campground"},"geometry":{"type":"Point","coordinates":[-83.7832,46.30045]}},{"type":"Feature","properties":{"name":"Bunnell Park Campground","routes":["C2","CA"],"provs":["ON"],"desc":"description: Approved Accommodation #19<br>Details from Google Maps<br>ON-622, Atikokan, ON P0T 1C0<br>https://visitatikokan.com/experiences/bunnell-park-campground/<br>+1 807-597-1234<br>Type: Municipal Campground<br>ID: 19.0","sym":"Campground"},"geometry":{"type":"Point","coordinates":[-91.58742,48.75622]}},{"type":"Feature","properties":{"name":"Burns Lake Village Campground","routes":["C3","CA"],"provs":["BC"],"desc":"description: (free, no showers) Approved Accommodation #27<br>Details from Google Maps<br># South, BC-35, Burns Lake, BC V0J 1E0<br>visitburnslake.ca<br>+1 250-692-7587<br>Type: Municipal Campground<br>ID:","sym":"Campground"},"geometry":{"type":"Point","coordinates":[-125.76278,54.22263]}},{"type":"Feature","properties":{"name":"Cadillac Campground1","routes":["C2"],"provs":["SK"],"desc":"description: Details from Google Maps<br>Dedion, Cadillac, SK S0N 0K0<br>https://thecadillac.ca/cadillac-campground<br>+1 306-785-2100<br>Type: Municipal Campground<br>ID: 220.0","sym":"Campground"},"geometry":{"type":"Point","coordinates":[-107.73597,49.72582]}},{"type":"Feature","properties":{"name":"Camping municipal de la Pointe","routes":["C1","C2","C3","CA"],"provs":["QC"],"desc":"description: Affiliated with 'V\u00e9loroute Le Saint-Laurent \u00e0 v\u00e9lo' / The St. Lawrence by bike<br>https://campingmunicipaldelapointe.ca/en/<br>Type: Municipal Campground<br>ID:","sym":"Campground"},"geometry":{"type":"Point","coordinates":[-69.55128,47.86032]}},{"type":"Feature","properties":{"name":"Camping municipal Parc de l'\u00efle de Leclercville","routes":["C1","C2","C3"],"provs":["QC"],"desc":"description: Details from Google Maps<br>8000 Rte Marie-Victorin, Leclercville, QC G0S 2K0<br>www.munleclercville.qc.ca<br>+1 819-292-2331<br>Type: Municipal Campground<br>ID: 346.0","sym":"Campground"},"geometry":{"type":"Point","coordinates":[-71.99574,46.57238]}},{"type":"Feature","properties":{"name":"Camping Municipal Rocher Panet","routes":["C1","C2","C3"],"provs":["QC"],"desc":"description: <br>Type: Municipal Campground<br>ID:","sym":"Campground"},"geometry":{"type":"Point","coordinates":[-70.36968,47.13293]}},{"type":"Feature","properties":{"name":"Camping Plage Beaubassin","routes":["C3"],"provs":["QC"],"desc":"description: <br>Type: Municipal Campground<br>ID:","sym":"Campground"},"geometry":{"type":"Point","coordinates":[-65.48492,48.03936]}},{"type":"Feature","properties":{"name":"Cereal Campground","routes":["C3"],"provs":["AB"],"desc":"description: It indicated tenting here<br>https://www.travelalberta.com/listings/cereal-board-of-trade-campground-12774<br>Type: Municipal Campground<br>ID:","sym":"Campground"},"geometry":{"type":"Point","coordinates":[-110.80443,51.41712]}},{"type":"Feature","properties":{"name":"Chaplin Village Campground","routes":["C1","CA"],"provs":["SK"],"desc":"description: Details from Google Maps<br>150 1st Ave, Chaplin, SK S0H 0V0<br>+1 306-395-2221<br>https://www.tourismsaskatchewan.com/listings/124/chaplin-campground<br>Type: Municipal Campground<br>ID: 54.0","sym":"Campground"},"geometry":{"type":"Point","coordinates":[-106.66172,50.45784]}},{"type":"Feature","properties":{"name":"Churchbridge CampgroundA","routes":["C3"],"provs":["SK"],"desc":"description: <br>Type: Municipal Campground<br>ID:","sym":"Campground"},"geometry":{"type":"Point","coordinates":[-101.89531,50.89342]}},{"type":"Feature","properties":{"name":"Coalhurst Miners Memorial Campground1","routes":["C2","CA"],"provs":["AB"],"desc":"description: \"Overnight camping is available at a charge of $25.00 per night (self registration at the campground). The campground contains a wide range of amenities including, pay showers, picnic shelter, sani station and flush toilets. There are 14 camping stalls, available on a first come, first serve basis.'<br>http://coalhurst.ca/services/facilities-parks/<br>Details from Google Maps<br>Lethbridge County, AB T0L 0V0<br>coalhurst.ca<br>+1 403-381-3033<br>Type: Municipal Campground<br>ID: 297.0","sym":"Campground"},"geometry":{"type":"Point","coordinates":[-112.94037,49.74979]}},{"type":"Feature","properties":{"name":"Cottonwood Campground","routes":["C2"],"provs":["MB"],"desc":"description: <br>Type: Municipal Campground<br>ID:","sym":"Campground"},"geometry":{"type":"Point","coordinates":[-98.70248,49.62566]}},{"type":"Feature","properties":{"name":"David Smallwood Municipal Park campground","routes":["C3"],"provs":["NL"],"desc":"description: David Smallwood Municipal Park campground<br>For reservations please call 674-0122.<br><br>Indicates tenting available<br>https://www.campendium.com/david-smallwood-rv-park<br><br>Details from Google Maps<br>344 NL-320, Gambo, NL A0G 1T0<br>+1 709-674-0122<br>Type: Municipal Campground<br>ID: 299.0","sym":"Campground"},"geometry":{"type":"Point","coordinates":[-54.21933,48.80433]}},{"type":"Feature","properties":{"name":"Deer Lake RV Park & Campgrounds","routes":["C3","CA"],"provs":["NL"],"desc":"description: <br>Type: Municipal Campground<br>ID:","sym":"Campground"},"geometry":{"type":"Point","coordinates":[-57.45095,49.18074]}},{"type":"Feature","properties":{"name":"Deleau - Sifton Centennial Park","routes":["C2"],"provs":["MB"],"desc":"description: Details from Google Maps<br>209 1 Ave, Deleau, MB R0M 0L0<br>https://www.facebook.com/profile.php?id=100080637593647<br>+1 204-761-0168<br>Type: Municipal Campground<br>ID: 230.0","sym":"Campground"},"geometry":{"type":"Point","coordinates":[-100.56801,49.5814]}},{"type":"Feature","properties":{"name":"Delia Diamond Anniversary Campground","routes":["C3"],"provs":["AB"],"desc":"description: Tenting yes<br>https://delia.ca/<br>(click on camping, links to<br>https://www.campreservations.ca/campground/delia-diamond-anniversary-campgorund-201)<br>Type: Municipal Campground<br>ID:","sym":"Campground"},"geometry":{"type":"Point","coordinates":[-112.37044,51.63227]}},{"type":"Feature","properties":{"name":"D\u00e9gelis Camping - Municipal Beach","routes":["C2"],"provs":["QC"],"desc":"description: <br>Type: Municipal Campground<br>ID:","sym":"Campground"},"geometry":{"type":"Point","coordinates":[-68.63276,47.57879]}},{"type":"Feature","properties":{"name":"Elkhorn Campground","routes":["C1","CA"],"provs":["MB"],"desc":"description: Open from May 1st to September 30th<br>Details from Google Maps<br>202 Cavendish St, Elkhorn, MB R0M 0N0<br>www.elkhorn.mb.ca<br>+1 204-845-2161<br>Type: Municipal Campground<br>ID: 229.0","sym":"Campground"},"geometry":{"type":"Point","coordinates":[-101.24242,49.97985]}},{"type":"Feature","properties":{"name":"Falls and Gorge Camping Chutes and Gorge","routes":["C2","CA"],"provs":["NB"],"desc":"description: Details from Google Maps<br>120 Manse Rd, Grand Falls, NB E3Z 2X4<br>www.grandfallsnb.com<br>+1 877-475-7769<br>Type: Municipal Campground<br>ID: 43.0","sym":"Campground"},"geometry":{"type":"Point","coordinates":[-67.73277,47.04509]}},{"type":"Feature","properties":{"name":"Fallsview Municipal Park1","routes":["C3"],"provs":["NL"],"desc":"description: Fallsview Municipal Park campground (showers, washrooms)<br>Details from Google Maps<br>20 E Trailer Ct, Bishop's Falls, NL A0H 1C0https://www.bishopsfalls.ca/visitors/camping_attractions<br>Type: Municipal Campground<br>ID: 308.0","sym":"Campground"},"geometry":{"type":"Point","coordinates":[-55.47501,49.01735]}},{"type":"Feature","properties":{"name":"Ferry Island Municipal Campground","routes":["C3","CA"],"provs":["BC"],"desc":"description: Details from Google Maps<br>4301 BC-16, Terrace, BC V8G 1J7<br>www.terrace.ca<br>+1 250-615-9657<br>Type: Municipal Campground<br>ID: 100.0","sym":"Campground"},"geometry":{"type":"Point","coordinates":[-128.57088,54.51148]}},{"type":"Feature","properties":{"name":"Foam Lake Campground","routes":["C3","CA"],"provs":["SK"],"desc":"description: Details from Google Maps<br>529 SK-16, Foam Lake, SK S0A 1A0<br>https://foamlake.com/discover-foam-lake/foam-lake-tourism/foam-lake-campground/<br>+1 306-272-3714<br>Type: Municipal Campground<br>ID: 115.0","sym":"Campground"},"geometry":{"type":"Point","coordinates":[-103.53725,51.63683]}},{"type":"Feature","properties":{"name":"Fox Lake Campground","routes":["C3","CA"],"provs":["AB"],"desc":"description: Details from Google Maps<br>31267 Range Road 145A 3 km west of, Hanna, AB T0J 1P0<br>hanna.ca<br>+1 403-854-4433<br>Type: Municipal Campground<br>ID: 185.0","sym":"Campground"},"geometry":{"type":"Point","coordinates":[-111.97579,51.65633]}},{"type":"Feature","properties":{"name":"Frank Carpenter Memorial Campground","routes":["C2","CA"],"provs":["BC"],"desc":"description: (flush toilets, $showers)<br>Cyclist shelter<br>Details from Google Maps<br>Fifth Ave, Midway, BC V0H 1M0<br>midwaybc.ca<br>+1 250-449-2467<br>Type: Municipal Campground<br>ID: 160.0","sym":"Campground"},"geometry":{"type":"Point","coordinates":[-118.7771,49.00562]}},{"type":"Feature","properties":{"name":"George Huxter Memorial Park","routes":["C3"],"provs":["NL"],"desc":"description: <br>Type: Municipal Campground<br>ID:","sym":"Campground"},"geometry":{"type":"Point","coordinates":[-56.10988,49.51168]}},{"type":"Feature","properties":{"name":"Gleichen Campground","routes":["C1"],"provs":["AB"],"desc":"description: no official information online about it https://www.campendium.com/gleichen-campground https://www.ioverlander.com/places/179951-gleichen-campground<br>from email \"The Beaupre Memorial Campground in Gleichen is seasonal and is opened from mid May-Sept. There is a pit toilet, fire pits, picnic tables, RV dump and water. The campsite is free and no booking are required, first come. There are 7 campsites. No power.\"<br>Type: Municipal Campground<br>ID: 322.0","sym":"Campground"},"geometry":{"type":"Point","coordinates":[-113.05247,50.86839]}},{"type":"Feature","properties":{"name":"Golden Municipal Campground & RV Park","routes":["C1","CN","CA"],"provs":["BC"],"desc":"description: (water, store, showers, wifi, laundry)<br>Details from Google Maps<br>1411 9 St S, Golden, BC V0A 1H0<br>www.goldenmunicipalcampground.com<br>+1 250-344-5412<br>Type: Municipal Campground<br>ID: 53.0","sym":"Campground"},"geometry":{"type":"Point","coordinates":[-116.95177,51.2974]}},{"type":"Feature","properties":{"name":"Gordon Howe Campground","routes":["C3","CA"],"provs":["SK"],"desc":"description: Details from Google Maps<br>1640 Avenue P S, Saskatoon, SK S7M 2X8<br>https://www.saskatoon.ca/parks-recreation-attractions/recreational-facilities-sport-fields/gordon-howe-campground<br>+1 306-975-3328<br>Type: Municipal Campground<br>ID: 61.0","sym":"Campground"},"geometry":{"type":"Point","coordinates":[-106.69725,52.11002]}},{"type":"Feature","properties":{"name":"Grand Forks Municipal Campground","routes":["C2"],"provs":["BC"],"desc":"description: <br>Type: Municipal Campground<br>ID:","sym":"Campground"},"geometry":{"type":"Point","coordinates":[-118.44125,49.02967]}},{"type":"Feature","properties":{"name":"Grand Valley Campground","routes":["C1","CA"],"provs":["MB"],"desc":"description: <br>Type: Municipal Campground<br>ID:","sym":"Campground"},"geometry":{"type":"Point","coordinates":[-100.08376,49.87362]}},{"type":"Feature","properties":{"name":"Grassy Lake Municipal Campground","routes":["C2"],"provs":["AB"],"desc":"description: <br>Type: Municipal Campground<br>ID:","sym":"Campground"},"geometry":{"type":"Point","coordinates":[-111.70407,49.82239]}},{"type":"Feature","properties":{"name":"Greenwood City Campground","routes":["C2"],"provs":["BC"],"desc":"description: (no washroom facilities)<br>Type: Municipal Campground<br>ID:","sym":"Campground"},"geometry":{"type":"Point","coordinates":[-118.67808,49.09138]}},{"type":"Feature","properties":{"name":"Grenfell Recreational Park Campground","routes":["C1","CA"],"provs":["SK"],"desc":"description: Details from Google Maps<br>Lake St, Grenfell, SK S0G 2B0<br>https://letscamp.ca/camps/grenfell-recreational-park<br>+1 306-697-2815<br>Type: Municipal Campground<br>ID: 168.0","sym":"Campground"},"geometry":{"type":"Point","coordinates":[-102.93856,50.41366]}},{"type":"Feature","properties":{"name":"Gull Lake Campground","routes":["C1","CA"],"provs":["SK"],"desc":"description: Well treed setting.<br> Modern washroom and free shower facilities.<br> Free WiFi.<br> Close to downtown services.<br> Picnic tables and firewood available.<br>Details from Google Maps<br>7563 Lake Ave, Gull Lake, SK S0N 1A0<br>https://www.gulllakesk.com/recreation/campground<br>+1 306-672-3447<br>Type: Municipal Campground<br>ID: 132.0","sym":"Campground"},"geometry":{"type":"Point","coordinates":[-108.47658,50.09736]}},{"type":"Feature","properties":{"name":"Harrison Park CAMPGROUND","routes":["C2","C3"],"provs":["ON"],"desc":"description: <br>Type: Municipal Campground<br>ID:","sym":"Campground"},"geometry":{"type":"Point","coordinates":[-80.93766,44.54404]}},{"type":"Feature","properties":{"name":"Highpoint Campground","routes":["C2"],"provs":["ON"],"desc":"description: <br>Type: Municipal Campground<br>ID:","sym":"Campground"},"geometry":{"type":"Point","coordinates":[-80.39038,44.17207]}},{"type":"Feature","properties":{"name":"Holland Agricultural Grounds & Campground","routes":["C2"],"provs":["MB"],"desc":"description: Details from Google Maps<br>Park, Holland, MB R0G 0X0<br>+1 204-526-2263<br>https://rmofvictoria.com/p/holland-agriculture-society<br>Type: Municipal Campground<br>ID: 232.0","sym":"Campground"},"geometry":{"type":"Point","coordinates":[-98.87482,49.59889]}},{"type":"Feature","properties":{"name":"Inch Arran Park","routes":["C1","C3"],"provs":["NB"],"desc":"description: Details from Google Maps<br>125 Inch Arran Ave, Dalhousie, NB E8C 3C5<br>https://www.heron-bay.ca/incharran<br>https://www.bookyoursite.com/campgrounds/inch-arran-campground#sites<br>+1 506-684-7363<br>Type: Municipal Campground<br>ID: 320.0","sym":"Campground"},"geometry":{"type":"Point","coordinates":[-66.35323,48.05902]}},{"type":"Feature","properties":{"name":"Irricana Campground","routes":["C3","CA","CL"],"provs":["AB"],"desc":"description: Approved Accommodation #30<br>Details from Google Maps<br>1 St, Irricana, AB T0M 1B0<br>townofirricana.ca<br>+1 403-371-7376<br>Type: Municipal Campground<br>ID: 30.0","sym":"Campground"},"geometry":{"type":"Point","coordinates":[-113.60589,51.32415]}},{"type":"Feature","properties":{"name":"Jardine Municipal Park","routes":["C1","C3"],"provs":["NB"],"desc":"description: <br>Type: Municipal Campground<br>ID:","sym":"Campground"},"geometry":{"type":"Point","coordinates":[-64.86426,46.66501]}},{"type":"Feature","properties":{"name":"John Woodward Campground","routes":["C1"],"provs":["SK"],"desc":"description: <br>Type: Municipal Campground<br>ID:","sym":"Campground"},"geometry":{"type":"Point","coordinates":[-108.79931,50.06351]}},{"type":"Feature","properties":{"name":"Kelso Beach at Nawash Park","routes":["C2","C3"],"provs":["ON"],"desc":"description: Details from Google Maps<br>2nd Avenue West, Owen Sound, ON N4K 2H4<br>https://www.owensoundtourism.ca/en/explore-owen-sound/parks-recreation/camping-and-rv<br>+1 519-371-9734<br>Type: Municipal Campground<br>ID: 187.0","sym":"Campground"},"geometry":{"type":"Point","coordinates":[-80.94642,44.57969]}},{"type":"Feature","properties":{"name":"Kindersley Regional Park Campground1","routes":["C3","CA"],"provs":["SK"],"desc":"description: Details from Google Maps<br>1S1 Ditson Dr, Kindersley, SK S0L 1S1<br>https://kindersleyregionalpark.ca/#park-camping<br>+1 306-463-2788<br>Type: Municipal Campground<br>ID: 67.0","sym":"Campground"},"geometry":{"type":"Point","coordinates":[-109.14464,51.46018]}},{"type":"Feature","properties":{"name":"Kitwanga Municipal Campground","routes":["C3","CA"],"provs":["BC"],"desc":"description: Indicates its free<br>https://www.allstays.com/Campgrounds-details/45402.htm<br>Campground Details:<br>free, 8 sites, May-Sep, All ages, Tents, 745 ft elev, tables, grill, toilets, firewood, (C)<br>Type: Municipal Campground<br>ID: 167.0","sym":"Campground"},"geometry":{"type":"Point","coordinates":[-128.02282,55.11329]}},{"type":"Feature","properties":{"name":"Lanigan Campground","routes":["C3","CA"],"provs":["SK"],"desc":"description: Details from Google Maps<br>East end of Downing Dr, Lanigan, SK S0K 2M0<br>http://lanigan.ca/recreation/campground/<br>+1 306-365-0000<br>Type: Municipal Campground<br>ID: 158.0","sym":"Campground"},"geometry":{"type":"Point","coordinates":[-105.02106,51.85137]}},{"type":"Feature","properties":{"name":"Lion's Head Beach Park Campground","routes":["C2","C3"],"provs":["ON"],"desc":"description: <br>Type: Municipal Campground<br>ID:","sym":"Campground"},"geometry":{"type":"Point","coordinates":[-81.25169,44.98804]}},{"type":"Feature","properties":{"name":"Lorne Calvert Campground","routes":["C1","CA"],"provs":["SK"],"desc":"description: (formerly River Park Campground)<br>Type: Municipal Campground<br>ID:","sym":"Campground"},"geometry":{"type":"Point","coordinates":[-105.52176,50.38389]}},{"type":"Feature","properties":{"name":"Mile 60 Park Campground1","routes":["C2"],"provs":["MB"],"desc":"description: https://www.facebook.com/mile60park/<br>https://letscamp.ca/camps/mile60park<br>https://www.rmofgrey.ca/p/mile-60-park-campground-bookings<br>Details from Google Maps<br>Grey, MB R0G 1Z0<br>www.rmofgrey.ca<br>Type: Municipal Campground<br>ID: 233.0","sym":"Campground"},"geometry":{"type":"Point","coordinates":[-98.33805,49.66175]}},{"type":"Feature","properties":{"name":"Minnedosa Beach Campground","routes":["C3"],"provs":["MB"],"desc":"description: <br>Type: Municipal Campground<br>ID:","sym":"Campground"},"geometry":{"type":"Point","coordinates":[-99.82037,50.26042]}},{"type":"Feature","properties":{"name":"Mount Baker RV Park","routes":["C2","CN"],"provs":["BC"],"desc":"description: Details from Google Maps<br>1501 1st St S, Cranbrook, BC V1C 1B7<br>cranbrooktourism.com<br>+1 778-687-4833<br>Type: Municipal Campground<br>ID: 55.0","sym":"Campground"},"geometry":{"type":"Point","coordinates":[-115.76067,49.51005]}},{"type":"Feature","properties":{"name":"Nelson City Campground","routes":["C2"],"provs":["BC"],"desc":"description: <br>Type: Municipal Campground<br>ID:","sym":"Campground"},"geometry":{"type":"Point","coordinates":[-117.28666,49.49764]}},{"type":"Feature","properties":{"name":"Nipigon Marina Campground","routes":["C1","C2","C3","CA"],"provs":["ON"],"desc":"description: Details from Google Maps<br>Nipigon, ON P0T 2J0<br>https://www.nipigon.net/play-explore/facilities/nipigon-marina<br>+1 807-887-3040<br>Type: Municipal Campground<br>ID: 174.0","sym":"Campground"},"geometry":{"type":"Point","coordinates":[-88.25737,49.00843]}},{"type":"Feature","properties":{"name":"Ogema Regional Park & Campground","routes":["C2"],"provs":["SK"],"desc":"description: <br>Type: Municipal Campground<br>ID:","sym":"Campground"},"geometry":{"type":"Point","coordinates":[-104.91529,49.57194]}},{"type":"Feature","properties":{"name":"Pangman Campground and RV Park","routes":["C2"],"provs":["SK"],"desc":"description: Confirmed on facebook - does have an outhouse<br>Details from Google Maps<br>309 Mergens St, Pangman, SK S0C 2C0<br>www.tourismsaskatchewan.com<br>+1 403-415-5030<br>Municipal Campground<br>iOverlander has a review for it, so it might not be closed https://www.ioverlander.com/places/278235-pangman-camping<br>Type: Municipal Campground<br>ID: 223.0","sym":"Campground"},"geometry":{"type":"Point","coordinates":[-104.66216,49.64426]}},{"type":"Feature","properties":{"name":"PassCreek Campground","routes":["C2","CA"],"provs":["BC"],"desc":"description: (flush toilets, showers, UV treated water) (1090 Parkside Rd, Castlegar, BC V1N 4T7) Approved Accommodation #3<br>Details from Google Maps<br>1090 Parkside Rd, Castlegar, BC V1N 4T7<br>passcreekcampground.weebly.com<br>+1 250-304-4602<br>Type: Municipal Campground<br>ID: 35.0","sym":"Campground"},"geometry":{"type":"Point","coordinates":[-117.66261,49.33794]}},{"type":"Feature","properties":{"name":"Peach Orchard Campsite","routes":["C1"],"provs":["BC"],"desc":"description: yes tenting - asked on Google Maps<br>Details from Google Maps<br>6321 Peach Orchard Rd, Summerland, BC V0H 1Z6<br>www.summerland.ca<br>+1 250-494-9649<br>Type: Municipal Campground<br>ID: 370.0","sym":"Campground"},"geometry":{"type":"Point","coordinates":[-119.65886,49.60982]}},{"type":"Feature","properties":{"name":"Penn Lake Park And Campground1","routes":["C1","C2","C3","CA"],"provs":["ON"],"desc":"description: Details from Google Maps<br>61 Penn Lake Rd, Marathon, ON P0T 2E0<br>https://www.marathon.ca/en/explore-and-play/camping-at-penn-lake-park.aspx<br>+1 807-229-1340<br>Type: Municipal Campground<br>ID: 122.0","sym":"Campground"},"geometry":{"type":"Point","coordinates":[-86.3637,48.71659]}},{"type":"Feature","properties":{"name":"Pipestone Community Campground","routes":["C2"],"provs":["MB"],"desc":"description: <br>Type: Municipal Campground<br>ID:","sym":"Campground"},"geometry":{"type":"Point","coordinates":[-100.94716,49.55998]}},{"type":"Feature","properties":{"name":"Point Park Tenting Area","routes":["C2","CA"],"provs":["ON"],"desc":"description: Details from Google Maps<br>Agency Indian Reserve No. 1, Rainy Lake, ON P0W 1C0<br>http://www.fortfrances.ca/experience/activities-amenities/pithers-point-park/camping<br>+1 807-274-5323<br>Type: Municipal Campground<br>ID: 147.0","sym":"Campground"},"geometry":{"type":"Point","coordinates":[-93.35933,48.61782]}},{"type":"Feature","properties":{"name":"Prairie View Park Mobile Home and Campground","routes":["C3","CA"],"provs":["SK"],"desc":"description: Barrier-free, modern washrooms/showers<br> Children\u2019s playground <br> Picnic shelter <br> Picnic tables <br> Fire pits <br> All sites full-service (30 amp/water/sewer) <br> 14 pull-through sites<br> Tenting area <br> Group camping available <br> Seasonal rates available <br> Sewage disposal<br>Details from Google Maps<br>601 Jubilee Ave #603, Rosetown, SK S0L 2V0<br>https://wheatlandregionalcentre.com/campground<br>+1 306-882-4257<br>Type: Municipal Campground<br>ID: 171.0","sym":"Campground"},"geometry":{"type":"Point","coordinates":[-107.98069,51.56094]}},{"type":"Feature","properties":{"name":"Princeton Municipal Campground","routes":["C1","C2","CA"],"provs":["BC"],"desc":"description: (water, shower, flush toilets, wifi) Approved Accommodation #24<br>Details from Google Maps<br>365 BC-3, Princeton, BC V0X 1W0<br>discoverprinceton.ca<br>+1 250-295-7355<br>Type: Municipal Campground<br>ID: 24.0","sym":"Campground"},"geometry":{"type":"Point","coordinates":[-120.4772,49.46235]}},{"type":"Feature","properties":{"name":"Redcliff Municipal Campground","routes":["C1","C2","CA"],"provs":["AB"],"desc":"description: <br>Type: Municipal Campground<br>ID:","sym":"Campground"},"geometry":{"type":"Point","coordinates":[-110.79394,50.07676]}},{"type":"Feature","properties":{"name":"Redvers Tourism Log Cabin Campground1","routes":["C2"],"provs":["SK"],"desc":"description: Book online or call: During open season (May-Sept) (306)452-3276<br>Details from Google Maps<br>SK-13, Redvers, SK S0C 2H0<br>https://redvers.ca/redvers-tourism-log-cabin/<br>+1 306-452-3276<br>Type: Municipal Campground<br>ID: 227.0","sym":"Campground"},"geometry":{"type":"Point","coordinates":[-101.70441,49.57682]}},{"type":"Feature","properties":{"name":"Reston Campground1","routes":["C2"],"provs":["MB"],"desc":"description: Details from Google Maps<br>301 1st St W, Reston, MB R0M 1X0<br>https://www.rmofpipestone.com/p/accomodations<br>+1 204-851-7326<br>Type: Municipal Campground<br>ID: 228.0","sym":"Campground"},"geometry":{"type":"Point","coordinates":[-101.10036,49.56034]}},{"type":"Feature","properties":{"name":"River Park Campground1","routes":["C2"],"provs":["SK"],"desc":"description: May long weekend \u2013 September 30<br>Details from Google Maps<br>403 Confederation Dr, Weyburn, SK S4H 2G9<br>https://weyburn.ca/river-park-campground/<br>+1 306-897-7877<br>Type: Municipal Campground<br>ID: 224.0","sym":"Campground"},"geometry":{"type":"Point","coordinates":[-103.85148,49.6574]}},{"type":"Feature","properties":{"name":"Riverbend Campground (formerly Lions Riverbend Campground)","routes":["C3","CA"],"provs":["MB"],"desc":"description: Details from Google Maps<br>Broadway Ave, Neepawa, MB R0J 1H0<br>https://www.neepawa.ca/campground/<br>+1 204-476-7676<br>more details<br>https://www.campreservations.ca/campground/riverbend-campground--2751<br>Type: Municipal Campground<br>ID: 152.0","sym":"Campground"},"geometry":{"type":"Point","coordinates":[-99.45479,50.2288]}},{"type":"Feature","properties":{"name":"Riverside Municipal Campground","routes":["C3","CA"],"provs":["BC"],"desc":"description: (wifi, pit toilets, $Showers)<br>Details from Google Maps<br>3843 19 Ave, Smithers, BC V0J 2N0<br>www.smithers.ca<br>+1 250-847-1600<br>Type: Municipal Campground<br>ID: 94.0","sym":"Campground"},"geometry":{"type":"Point","coordinates":[-127.14909,54.78497]}},{"type":"Feature","properties":{"name":"Riverside Park Campground (Pembroke, ON)","routes":["C1","CA"],"provs":["ON","QC"],"desc":"description: Open seasonally from Victoria Day weekend (May)-Thanksgiving weekend (October)<br>Mentioned in video https://www.youtube.com/watch?v=7jruPfK_ejo<br>Details from Google Maps<br>961 Pembroke St W, Pembroke, ON K8A<br>www.pembrokeontario.com<br>+1 613-735-6821 ext. 1504<br>Type: Municipal Campground<br>ID: 145.0","sym":"Campground"},"geometry":{"type":"Point","coordinates":[-77.13505,45.82964]}},{"type":"Feature","properties":{"name":"Riverside Park Campground (Vanderhoof, BC)","routes":["C3","CA"],"provs":["BC"],"desc":"description: Details from Google Maps<br>3100 Burrard Ave, Vanderhoof, BC V0J 3A0<br>https://vanderhoof.ca/visit/camping/+1 250-567-4710<br>Type: Municipal Campground<br>ID: 88.0","sym":"Campground"},"geometry":{"type":"Point","coordinates":[-124.01081,54.02517]}},{"type":"Feature","properties":{"name":"Shawnee Campground and Play Park","routes":["C2"],"provs":["SK"],"desc":"description: https://www.shaunavon.com/page/campground-information/<br>Details from Google Maps<br>Shaunavon, SK S0N 2M0<br>+1 306-297-2605<br>Type: Municipal Campground<br>ID: 219.0","sym":"Campground"},"geometry":{"type":"Point","coordinates":[-108.40739,49.64906]}},{"type":"Feature","properties":{"name":"Strathmore AG Campground","routes":["C1","CA"],"provs":["AB"],"desc":"description: Details from Google Maps<br>33 Wheatland Trail, Strathmore, AB T1P 1K1<br>https://strathmoreag.com/camping<br>+1 403-325-0794<br>Type: Municipal Campground<br>ID: 91.0","sym":"Campground"},"geometry":{"type":"Point","coordinates":[-113.39545,51.06277]}},{"type":"Feature","properties":{"name":"Sunnyside Campground","routes":["C2","CA","CL"],"provs":["BC"],"desc":"description: <br>Type: Municipal Campground<br>ID:","sym":"Campground"},"geometry":{"type":"Point","coordinates":[-121.96436,49.06578]}},{"type":"Feature","properties":{"name":"Taber Municipal Park","routes":["C2"],"provs":["AB"],"desc":"description: <br>Type: Municipal Campground<br>ID:","sym":"Campground"},"geometry":{"type":"Point","coordinates":[-112.16977,49.81203]}},{"type":"Feature","properties":{"name":"The Stoughton Campground1","routes":["C2"],"provs":["SK"],"desc":"description: open May \u2013 September (weather permitting)<br>Details from Google Maps<br>Elizabeth Ave, Stoughton, SK S0G 4T0<br>https://stoughtonsk.ca/stoughton-campground/<br>+1 306-457-2413<br>Type: Municipal Campground<br>ID: 225.0","sym":"Campground"},"geometry":{"type":"Point","coordinates":[-103.03405,49.67818]}},{"type":"Feature","properties":{"name":"Thessalon Lakeside Park Campground1","routes":["C1","C2","C3","CA"],"provs":["ON"],"desc":"description: Approved Accommodation #33<br>Details from Google Maps<br>110 Lakeside Dr #100, Thessalon, ON P0R 1L0<br>https://thessalon.ca/explore/accommodations/<br>+1 705-842-2523<br>Type: Municipal Campground<br>ID: 33.0","sym":"Campground"},"geometry":{"type":"Point","coordinates":[-83.56659,46.26092]}},{"type":"Feature","properties":{"name":"Three Creeks Campground","routes":["C1","CA"],"provs":["MB"],"desc":"description: <br>Type: Municipal Campground<br>ID:","sym":"Campground"},"geometry":{"type":"Point","coordinates":[-98.94903,49.92224]}},{"type":"Feature","properties":{"name":"Town Of Eastend Campground","routes":["C2"],"provs":["SK"],"desc":"description: On site washrooms, shower facilities, and sewage disposal available, along with barbecues, picnic tables, and sheltered cook area. Located next to a well-equipped playground, ball diamonds, Swimming Pool &amp; Splash Park and the Streambank Golf Course.<br>Details from Google Maps<br>Unnamed Road, Eastend, SK S0N 0T0<br>https://townofeastend.com/p/camping---eastend-campground<br>+1 306-295-3322<br>Type: Municipal Campground<br>ID: 217.0","sym":"Campground"},"geometry":{"type":"Point","coordinates":[-108.82822,49.51767]}},{"type":"Feature","properties":{"name":"Town Of Morse Campground","routes":["C1"],"provs":["SK"],"desc":"description: <br>Type: Municipal Campground<br>ID:","sym":"Campground"},"geometry":{"type":"Point","coordinates":[-107.03498,50.41383]}},{"type":"Feature","properties":{"name":"Town of Taber Trout Pond Campground","routes":["C2"],"provs":["AB"],"desc":"description: <br>Type: Municipal Campground<br>ID:","sym":"Campground"},"geometry":{"type":"Point","coordinates":[-112.18673,49.7944]}},{"type":"Feature","properties":{"name":"Trowbridge Falls Municipal Campground","routes":["C1","C2","C3"],"provs":["ON"],"desc":"description: <br>Type: Municipal Campground<br>ID:","sym":"Campground"},"geometry":{"type":"Point","coordinates":[-89.18624,48.49052]}},{"type":"Feature","properties":{"name":"Vedder River Campground (open March 28 - Nov 1, 2024)","routes":["C2","CA","CL"],"provs":["BC"],"desc":"description: Details from Google Maps<br>5355 Giesbrecht Rd, Chilliwack, BC V2R 4R1<br>www.fvrd.ca<br>+1 604-823-6012<br>Type: Municipal Campground<br>ID: 113.0","sym":"Campground"},"geometry":{"type":"Point","coordinates":[-122.00683,49.09638]}},{"type":"Feature","properties":{"name":"Victoria Park Campground (Souris, MB)","routes":["C2"],"provs":["MB"],"desc":"description: (might be closed 1april2024)<br>It isn't listed on the accommodation page https://sourismanitoba.com/accommodations <br>The link to the camping is broken on the page <br>https://sourismanitoba.com/victoria-park<br>Type: Municipal Campground<br>ID:","sym":"Campground"},"geometry":{"type":"Point","coordinates":[-100.26273,49.61338]}},{"type":"Feature","properties":{"name":"Victoria Park Campgrounds (Cobourg, ON)","routes":["C2","C3","CA","CL"],"provs":["ON"],"desc":"description: Details from Google Maps<br>138 Division St, Cobourg, ON K9A 3P3<br>https://www.cobourg.ca/en/parks-recreation-community/victoria-park-campground.aspx<br>+1 905-373-7321<br>Type: Municipal Campground<br>ID: 51.0","sym":"Campground"},"geometry":{"type":"Point","coordinates":[-78.16419,43.95784]}},{"type":"Feature","properties":{"name":"Wawanesa Community Park / Camping1","routes":["C2"],"provs":["MB"],"desc":"description: Open from May 13th to Oct 6th<br>Details from Google Maps<br>303 Water St, Wawanesa, MB R0K 2G0<br>www.oakland-wawanesa.ca<br>+1 204-824-2223<br>more details<br>https://www.campreservations.ca/campground/wawanesa-community-park-2578<br>Type: Municipal Campground<br>ID: 231.0","sym":"Campground"},"geometry":{"type":"Point","coordinates":[-99.68413,49.59892]}},{"type":"Feature","properties":{"name":"Wesley Clover Parks Campground","routes":["C1","C3"],"provs":["ON"],"desc":"description: indicates tent camping<br>https://campgrounds.rvlife.com/regions/ontario/ottawa/wesley-clover-parks-campground-5318<br>Details from Google Maps<br>411 Corkstown Rd, Ottawa, ON K2K 0J5<br>wesleycloverparks.com<br>+1 613-828-6632<br>Type: Municipal Campground<br>ID:","sym":"Campground"},"geometry":{"type":"Point","coordinates":[-75.86776,45.32986]}},{"type":"Feature","properties":{"name":"White Swan Park - Municipal Campground","routes":["C3"],"provs":["BC"],"desc":"description: Yes tents<br>https://www.campendium.com/white-swan-park-campground<br>Details from Google Maps<br>Park Dr, Fraser Lake, BC V0J<br>www.fraserlake.ca<br>+1 250-699-1723<br>Type: Municipal Campground<br>ID: 293.0","sym":"Campground"},"geometry":{"type":"Point","coordinates":[-124.84566,54.06288]}},{"type":"Feature","properties":{"name":"Whitewood Campground","routes":["C1","CA"],"provs":["SK"],"desc":"description: Details from Google Maps<br>212 Lalonde St, Whitewood, SK S0G 5C0<br>townofwhitewood.ca<br>+1 306-735-2210<br>Type: Municipal Campground<br>ID: 72.0","sym":"Campground"},"geometry":{"type":"Point","coordinates":[-102.26804,50.33438]}},{"type":"Feature","properties":{"name":"Williams Park","routes":["C3"],"provs":["MB"],"desc":"description: <br>Type: Municipal Campground<br>ID:","sym":"Campground"},"geometry":{"type":"Point","coordinates":[-98.95435,50.2294]}},{"type":"Feature","properties":{"name":"Witset RV Park and Campground","routes":["C3"],"provs":["BC"],"desc":"description: (Washrooms, laundry, internet)<br>Type: Municipal Campground<br>ID:","sym":"Campground"},"geometry":{"type":"Point","coordinates":[-127.32534,55.01381]}},{"type":"Feature","properties":{"name":"Yorkton City Campground","routes":["C3","CA"],"provs":["SK"],"desc":"description: Details from Google Maps<br>320 York Rd W, Yorkton, SK S3N 3N5<br>www.yorkton.ca<br>+1 306-786-1757<br>Type: Municipal Campground<br>ID: 151.0","sym":"Campground"},"geometry":{"type":"Point","coordinates":[-102.48377,51.22421]}}]}