{"type":"FeatureCollection","features":[{"type":"Feature","properties":{"name":"**Camping Annie","routes":["C3"],"provs":["QC"],"desc":"description: *A pump and basic tools for minor repairs, A sheltered location where you can eat during inclement weather, *A camping space, even without a reservation, if you are travelling exclusively by bicycle, Information about local bicycle networks and cycling services in the area, Privately Owned Campground<br>Type: Approved Accommodation (campground)<br>ID:","sym":"Flag, Blue"},"geometry":{"type":"Point","coordinates":[-68.03578,48.67118]}},{"type":"Feature","properties":{"name":"**Camping Au Bonnet Rouge","routes":["C1","C2","C3","CA"],"provs":["QC"],"desc":"description: This campground offers<br>71 sites<br>Cycling packages<br>Bike washing station<br>Laundry room<br>Secure food storage area<br><br>In addition, as a Bienvenue cyclistes!-certified campground, it offers<br>*A pump and basic tools for minor repairs<br>*A camping space, even without a reservation, if you are travelling exclusively by bicycle<br>A sheltered location where you can eat during inclement weather<br>Information about local bicycle networks and cycling services in the area<br><br>https://www.routeverte.com/en/hebergements/camping-bonnet-rouge-2/<br>Privately Owned Campground\u2026","sym":"Flag, Blue"},"geometry":{"type":"Point","coordinates":[-70.2651,47.21775]}},{"type":"Feature","properties":{"name":"**Camping Brownsburg-Chatham","routes":["C1","C3","CA"],"provs":["ON","QC"],"desc":"description: In addition, as a Bienvenue cyclistes!-certified campground, it offers<br>*A pump and basic tools for minor repairs<br>*A camping space, even without a reservation, if you are travelling exclusively by bicycle<br>A sheltered location where you can eat during inclement weather<br>Information about local bicycle networks and cycling services in the area, <br>This campground offers<br>256 sites<br>Bike washing station<br>Laundry room<br>https://www.routeverte.com/en/hebergements/camping-municipal-brownsburg-chatham-2/<br>,Municipal Campground<br>Type: Approved Accommodation (campgrou\u2026","sym":"Flag, Blue"},"geometry":{"type":"Point","coordinates":[-74.44661,45.58547]}},{"type":"Feature","properties":{"name":"**Camping des Aulnaies Inc","routes":["C1","C2","C3"],"provs":["QC"],"desc":"description: This campground offers<br>515 sites<br>Laundry room<br>Breakfast / Lunch / Dinner<br><br>In addition, as a Bienvenue cyclistes!-certified campground, it offers<br>*A pump and basic tools for minor repairs<br>*A camping space, even without a reservation, if you are travelling exclusively by bicycle<br>A sheltered location where you can eat during inclement weather<br>Information about local bicycle networks and cycling services in the area<br>https://www.routeverte.com/en/hebergements/camping-des-aulnaies-2/<br>Type: Approved Accommodation (campground)<br>ID:","sym":"Flag, Blue"},"geometry":{"type":"Point","coordinates":[-70.21409,47.28014]}},{"type":"Feature","properties":{"name":"**Camping et chalets de la Demi-Lieue","routes":["C1","C2","C3","CA"],"provs":["QC"],"desc":"description: This campground offers<br>351 sites<br>Laundry room<br>Secure food storage area<br>Breakfast / Lunch / Dinner<br>In addition, as a Bienvenue cyclistes!-certified campground, it offers<br>*A pump and basic tools for minor repairs<br>*A camping space, even without a reservation, if you are travelling exclusively by bicycle<br>A sheltered location where you can eat during inclement weather<br>Information about local bicycle networks and cycling services in the area<br>https://www.routeverte.com/en/hebergements/camping-la-demi-lieue-2/<br>Type: Approved Accommodation (campground)<br>I\u2026","sym":"Flag, Blue"},"geometry":{"type":"Point","coordinates":[-70.23267,47.24549]}},{"type":"Feature","properties":{"name":"**Camping Municipal De Trois Pistoles","routes":["C1","C3"],"provs":["QC"],"desc":"description: This campground offers<br>181 sites<br>Bike washing station<br>Laundry room<br><br>In addition, as a Bienvenue cyclistes!-certified campground, it offers<br>*A pump and basic tools for minor repairs<br>*A camping space, even without a reservation, if you are travelling exclusively by bicycle<br>A sheltered location where you can eat during inclement weather<br>Information about local bicycle networks and cycling services in the area<br>https://www.routeverte.com/en/hebergements/camping-municipal-de-trois-pistoles-2/ Municipal Campground<br>Type: Approved Accommodation (campground)\u2026","sym":"Flag, Blue"},"geometry":{"type":"Point","coordinates":[-69.18948,48.12648]}},{"type":"Feature","properties":{"name":"**Camping Oka1","routes":["C1","C2","C3","CN","CW"],"provs":["QC"],"desc":"description: In addition, as a Bienvenue cyclistes!-certified campground, it offers<br>*A pump and basic tools for minor repairs<br>*A camping space, even without a reservation, if you are travelling exclusively by bicycle<br>A sheltered location where you can eat during inclement weather<br>Information about local bicycle networks and cycling services in the area https://www.routeverte.com/en/hebergements/parc-national-doka-2/ Provincial Park Campground, This campground offers<br>896 sites<br>Laundry room<br>Lunch<br>Type: Approved Accommodation (campground)<br>ID: 344.0","sym":"Flag, Blue"},"geometry":{"type":"Point","coordinates":[-74.05791,45.47286]}},{"type":"Feature","properties":{"name":"**CAMPING PANORAMIQUE \u2013 PARKBRIDGE (Panoramique | Camping VR et chalets Parkbridge)","routes":["C1","C2","C3","CA"],"provs":["QC"],"desc":"description: This campground offers<br>479 sites<br>Laundry room<br>Breakfast / Lunch / Dinner<br><br>In addition, as a Bienvenue cyclistes!-certified campground, it offers<br>*A pump and basic tools for minor repairs<br>*A camping space, even without a reservation, if you are travelling exclusively by bicycle<br>A sheltered location where you can eat during inclement weather<br>Information about local bicycle networks and cycling services in the area<br>https://www.routeverte.com/en/hebergements/camping-panoramique-parkbridge-2/<br>Privately Owned Campground<br>Details from Google Maps<br>464\u2026","sym":"Flag, Blue"},"geometry":{"type":"Point","coordinates":[-71.9044,46.68851]}},{"type":"Feature","properties":{"name":"**Camping Riviere-Ouelle","routes":["C1","C2","C3"],"provs":["QC"],"desc":"description: This campground offers<br>250 sites<br>Bike washing station<br>Laundry room<br>Secure food storage area<br>Breakfast<br><br>In addition, as a Bienvenue cyclistes!-certified campground, it offers<br>*A pump and basic tools for minor repairs<br>*A camping space, even without a reservation, if you are travelling exclusively by bicycle<br>A sheltered location where you can eat during inclement weather<br>Information about local bicycle networks and cycling services in the area<br>https://www.routeverte.com/en/hebergements/camping-riviere-ouelle-2/ Privately Owned Campground<br>Type: A\u2026","sym":"Flag, Blue"},"geometry":{"type":"Point","coordinates":[-70.04364,47.43503]}},{"type":"Feature","properties":{"name":"**Kokanee Provincial Park - Holt Cyclist Shelter Campground","routes":["C2"],"provs":["BC"],"desc":"description: Provincial Park Campground<br>*Dedicated cyclist campsite, *cooking shelter<br>Type: Approved Accommodation (campground)<br>ID:","sym":"Flag, Blue"},"geometry":{"type":"Point","coordinates":[-117.12707,49.60391]}},{"type":"Feature","properties":{"name":"**Rainbow Trailer Park (campground) (might be closed 3july2024)","routes":["C3"],"provs":["BC"],"desc":"description: *Recommended by community, *(has dedicated cycling cabin and camping spot)<br>Details from Google Maps<br>12601 BC-16, Telkwa, BC V0J 2X1<br>+1 250-846-9663<br>Approved Accommodation (campground)<br>Has bicycle camping - use of cabin for free (big bicycle hanging from sign.<br>Type: Tenting unconfirmed<br>ID: 196.0","sym":"Flag, Blue"},"geometry":{"type":"Point","coordinates":[-127.02442,54.68266]}},{"type":"Feature","properties":{"name":"**St. Lawrence Park","routes":["C2","CN","CA"],"provs":["ON"],"desc":"description: *Special rate for cyclists, *St. Lawrence Park welcomes cyclists and has an \u201calways room\u201d policy for self-supported cyclists.<br>Municipal Campground<br>Details from Google Maps<br>525 King St W, Brockville, ON K6V 3N4<br>www.brockville.com<br>+1 613-345-1341<br>Type: Approved Accommodation (campground)<br>ID: 114.0","sym":"Flag, Blue"},"geometry":{"type":"Point","coordinates":[-75.7017,44.57763]}},{"type":"Feature","properties":{"name":"*Anicinabe Park","routes":["C1","C2","C3","CA"],"provs":["ON"],"desc":"description: 5+ trip report stays, Approved Accommodation #9, Privately Owned Campground<br>Details from Google Maps<br>Miikana Way and, Golf Course Rd, Kenora, ON P9N 4H5<br>www.anicinabepark.com<br>+1 807-407-1697<br>Booking<br>https://online.premiercampground.com/37fa9c6df0614aecaf1936e367ba942d<br>Type: Approved Accommodation (campground)<br>ID: 9.0","sym":"Flag, Blue"},"geometry":{"type":"Point","coordinates":[-94.47914,49.75313]}},{"type":"Feature","properties":{"name":"*Camping Chez Jean","routes":["C1","C2","C3"],"provs":["QC"],"desc":"description: *Special rate for cyclists http://www.campingchezjean.com/<br>Type: Approved Accommodation (campground)<br>ID:","sym":"Flag, Blue"},"geometry":{"type":"Point","coordinates":[-69.49014,47.74993]}},{"type":"Feature","properties":{"name":"*Camping de la Batture SEBKA","routes":["C1","C2","C3"],"provs":["QC"],"desc":"description: This campground offers<br>95 sites<br>Bike washing station<br>Laundry room<br>Secure food storage area<br><br>In addition, as a Bienvenue cyclistes!-certified campground, it offers<br>*A pump and basic tools for minor repairs<br>*A camping space, even without a reservation, if you are travelling exclusively by bicycle<br>A sheltered location where you can eat during inclement weather<br>Information about local bicycle networks and cycling services in the area<br>https://www.routeverte.com/en/hebergements/camping-de-la-batture-2/<br>Privately Owned Campground<br>Type: Approved Acco\u2026","sym":"Flag, Blue"},"geometry":{"type":"Point","coordinates":[-69.7576,47.64302]}},{"type":"Feature","properties":{"name":"*Camping La Maison Verte du Parc Gasp\u00e9sien1","routes":["C1","C3","CA"],"provs":["QC"],"desc":"description: This campground offers<br>119 sites<br>Bike washing station<br>Laundry room<br><br>In addition, as a Bienvenue cyclistes!-certified campground, it offers<br>*A pump and basic tools for minor repairs<br>A camping space, even without a reservation, if you are travelling exclusively by bicycle<br>A sheltered location where you can eat during inclement weather<br>Information about local bicycle networks and cycling services in the area<br><br>https://www.routeverte.com/en/hebergements/camping-la-maison-verte-du-parc-gaspesien-2/ Privately Owned Campground<br>Type: Approved Accommodati\u2026","sym":"Flag, Blue"},"geometry":{"type":"Point","coordinates":[-66.69626,48.04078]}},{"type":"Feature","properties":{"name":"*Camping Le Marquis","routes":["C1","C2","C3"],"provs":["QC"],"desc":"description: This tourist accommodation offers<br>167 units<br>Cycling packages<br>Bike washing station<br>Laundry room<br>Secure food storage area<br>Breakfast / Lunch / Dinner<br><br>In addition, as a Bienvenue cyclistes!-certified tourist accommodation, it offers<br>*A pump and basic tools for minor repairs<br>A covered, locked location to store your bicycle at night<br>Information about local bicycle networks and cycling services in the area<br>https://www.routeverte.com/en/hebergements/camping-le-marquis-2/ (Tenting unconfirmed)<br>Type: Approved Accommodation (campground)<br>ID:","sym":"Flag, Blue"},"geometry":{"type":"Point","coordinates":[-73.32696,45.8374]}},{"type":"Feature","properties":{"name":"*Camping Marina Louiseville","routes":["C1","C3"],"provs":["QC"],"desc":"description: *Cooking shelter, Privately Owned Campground<br>Type: Approved Accommodation (campground)<br>ID:","sym":"Flag, Blue"},"geometry":{"type":"Point","coordinates":[-72.92498,46.2252]}},{"type":"Feature","properties":{"name":"*Camping Parc Adams","routes":["C1"],"provs":["QC","NB"],"desc":"description: This campground offers<br>21 sites<br>Bike washing station<br>Laundry room<br><br>In addition, as a Bienvenue cyclistes!-certified campground, it offers<br>*A pump and basic tools for minor repairs<br>A camping space, even without a reservation, if you are travelling exclusively by bicycle<br>A sheltered location where you can eat during inclement weather<br>Information about local bicycle networks and cycling services in the area<br>https://www.routeverte.com/en/hebergements/camping-parc-adams-2/<br>Type: Approved Accommodation (campground)<br>ID:","sym":"Flag, Blue"},"geometry":{"type":"Point","coordinates":[-66.95121,47.97359]}},{"type":"Feature","properties":{"name":"*Camping Pointe Aux Oies","routes":["C1","C2","C3"],"provs":["QC"],"desc":"description: CYCLOTOURIST<br><br>$27/day<br>Taxes not included<br>https://www.campingpointeauxoies.com/en/rates-packages-promotions/<br>Type: Approved Accommodation (campground)<br>ID:","sym":"Flag, Blue"},"geometry":{"type":"Point","coordinates":[-70.54628,46.9906]}},{"type":"Feature","properties":{"name":"*Camping Port St-Francois1","routes":["C1","C2","C3"],"provs":["QC"],"desc":"description: Cyclist Special - Without Car<br>Friday to Friday\t<br>1 cyclist 20 plus 10 plus additional\t<br>No domestic animals <br>Privately Owned Campground<br>https://campingportst-francois.com/tarif-camping/#<br>Type: Approved Accommodation (campground)<br>ID: 345.0","sym":"Flag, Blue"},"geometry":{"type":"Point","coordinates":[-72.61741,46.26931]}},{"type":"Feature","properties":{"name":"*CAN-OP/G & G Service Upsala Campground1","routes":["C1","C3","CA"],"provs":["ON"],"desc":"description: *5+ trip report stays, Approved Accommodation #15, Privately Owned Campground<br>Details from Google Maps<br>4850 ON-17, Upsala, ON P0T 2Y0<br>+1 807-986-2312<br>Type: Approved Accommodation (campground)<br>ID: 15.0","sym":"Flag, Blue"},"geometry":{"type":"Point","coordinates":[-90.47047,49.04391]}},{"type":"Feature","properties":{"name":"*Coquihalla Campground","routes":["C1","C2","CN","CA"],"provs":["BC"],"desc":"description: *5+ trip report stays Privately Owned Campground, <br>Details from Google Maps<br>800 Kawkawa Lake Rd, Hope, BC V0X 1L4<br>www.coquihallacampground.ca<br>+1 604-860-5330<br>Approved Accommodation #8<br>Type: Approved Accommodation (campground)<br>ID: 8.0","sym":"Flag, Blue"},"geometry":{"type":"Point","coordinates":[-121.42546,49.37921]}},{"type":"Feature","properties":{"name":"*Crystal Lake Campground1","routes":["C1","C3","CA"],"provs":["ON"],"desc":"description: *5+ trip report stays, Privately Owned Campground <br>Details from Google Maps<br>167 Hanslips Rd, Vermilion Bay, ON P0V 2V0<br>www.crystallakecampground.ca<br>+1 807-220-5467<br>Type: Approved Accommodation (campground)<br>ID: 62.0","sym":"Flag, Blue"},"geometry":{"type":"Point","coordinates":[-93.45624,49.82998]}},{"type":"Feature","properties":{"name":"*Cumberland Cove Seaside Campground","routes":["C1","CL","CW"],"provs":["PE"],"desc":"description: Here at Cumberland Cove Seaside Campground we offer...<br><br> Large grassy Tent and RV sites<br> Clean Washrooms - No extra charge for showers<br> Coin operated Washer and Dryer<br> Picnic Table and Fire pit<br> Dumping Station * ( Fee applicable if less than a 2 night stay)<br> 24 hour Supervision, Owner(s) on site<br> Treat for your pet <br>http://www.seasidecampingpei.ca/offer.html, Privately Owned Campground<br>*Recommended by someone on the fb page<br>Details from Google Maps<br>227 Cumberland Cove Rd, Borden-Carleton, PE C0B 1X0<br>www.seasidecampingpei.ca<br>+1 902-855-296\u2026","sym":"Flag, Blue"},"geometry":{"type":"Point","coordinates":[-63.57426,46.21687]}},{"type":"Feature","properties":{"name":"*C\u00e9dri\u00e8re, Parc National de Plaisance","routes":["C1","C3"],"provs":["ON","QC"],"desc":"description: *Special rate for cyclists, <br>(Quebec National Park) <br>\"S\u00e9paq is proud to partner with V\u00e9lo Qu\u00e9bec to establish a Welcome Cyclists campsite network. Enjoy campsites exclusively for touring cyclists. They\u2019re easily accessible and available without advance booking.<br>Le Plateau campground<br><br> 2 campsites<br> 2 fire pits<br> 2 tables<br> Bike racks<br> Water access point: 200 m<br> La Carapace Visitors Centre nearby (community room - shelter, washroom, store and convenience store)<br> Lockers for food<br> Possibility of access via a cycling path<br> Sunny campsites<br><br>In\u2026","sym":"Flag, Blue"},"geometry":{"type":"Point","coordinates":[-75.05332,45.60201]}},{"type":"Feature","properties":{"name":"*Davy Lake Campground and Resort","routes":["C1","C3","CA"],"provs":["ON"],"desc":"description: \"Outdoor Sink for Tenters and Cyclists\"<br>https://davylake.ca/pages/amenities<br>*5+ trip report stays, Approved Accommodation #14, Privately Owned Campground<br>Details from Google Maps<br>400 Davey Lake Rd, Ignace, ON P0T 1T0<br>www.davylake.ca<br>+1 807-934-0914<br>Type: Approved Accommodation (campground)<br>ID: 14.0","sym":"Flag, Blue"},"geometry":{"type":"Point","coordinates":[-91.65249,49.41002]}},{"type":"Feature","properties":{"name":"*Eagle Valley Park Campground","routes":["C1","C2","CN","CA"],"provs":["SK"],"desc":"description: 5+ Trip Report Stays, Approved Accommodation #13, Privately Owned Campground, (Box 2108 SK-21 &amp;, SK-1, Maple Creek, SK S0N 1N0)<br>https://eaglevalleypark.ca/<br>Type: Approved Accommodation (campground)<br>ID: 13.0","sym":"Flag, Blue"},"geometry":{"type":"Point","coordinates":[-109.52685,49.97555]}},{"type":"Feature","properties":{"name":"*Gas City Campground","routes":["C1","C2","CA"],"provs":["AB"],"desc":"description: *5+ Trip report stays, Approved Accommodation #21, Municipal Campground<br>Details from Google Maps<br>402 11 Ave SW, Medicine Hat, AB T1A 7Z6<br>https://www.medicinehat.ca/en/parks-recreation-and-culture/camping.aspx#Amenities_1<br>+1 403-529-8158<br>Campground amenities include:<br> community campfire pit and kitchen<br> convenience store<br> dump station<br> firewood<br> laundry facilities<br> playground<br> showers<br> wireless internet<br>Type: Approved Accommodation (campground)<br>ID: 21.0","sym":"Flag, Blue"},"geometry":{"type":"Point","coordinates":[-110.7237,50.03802]}},{"type":"Feature","properties":{"name":"*Grenville Park Camping & Rv Park","routes":["C2"],"provs":["ON"],"desc":"description: *Has a designated cyclist camping area, and a special rate for cyclists<br>Grenville Park Camping &amp; Rv Park<br>Details from Google Maps<br>2323 2, Johnstown, ON K0E 1T1<br>www.gocampgrenvillepark.com<br>+1 613-925-5055<br>https://www.gocampgrenvillepark.com/rates/<br>Type: Approved Accommodation (campground)<br>ID:","sym":"Flag, Blue"},"geometry":{"type":"Point","coordinates":[-75.45213,44.74995]}},{"type":"Feature","properties":{"name":"*Harmony Beach Lakeview Resort","routes":["C1","C2","C3","CA"],"provs":["ON"],"desc":"description: May 15 to September 30<br>*Reported no tenting available (that was during closed season)<br>Approved Accommodation #10<br>Details from Google Maps<br>128 Harmony Beach Rd, Goulais River, ON P0S 1E0<br>https://www.facebook.com/harmonybeachresort<br>+1 705-649-3322<br>Type: Privately Owned Campground<br>ID: 10.0","sym":"Flag, Blue"},"geometry":{"type":"Point","coordinates":[-84.37186,46.84677]}},{"type":"Feature","properties":{"name":"*Jonas Creek Campground","routes":["C3"],"provs":["AB"],"desc":"description: Open: June 5 to September 9, 2024<br>\"Campsite #14 is designated for bike camping only.\"<br>https://parks.canada.ca/pn-np/ab/jasper/activ/passez-stay/camping#jonas<br>National Park Campground<br>\"Reservable: All sites available on a First Come, First Served basis. No reservations possible.\"<br>\"cooking shelter\"<br>\"A night at Jonas can be spent camping within earshot of the babbling creek. Hardy campers looking to get away from it all can also walk into hillside sites secluded in the forest. In addition, a bike camping area can be found near the cooking shelter, offering a great s\u2026","sym":"Flag, Blue"},"geometry":{"type":"Point","coordinates":[-117.39648,52.41739]}},{"type":"Feature","properties":{"name":"*Plantation Campground1","routes":["C2"],"provs":["NS"],"desc":"description: *Recommended by someone in the facebook page, nice quiet grassy area<br>Privately Owned Campground<br>Details from Google Maps<br>210 W Steadman Rd, Berwick, NS B0P 1E0<br>www.plantationcampground.com<br>+1 902-538-8888<br>Type: Approved Accommodation (campground)<br>ID: 360.0","sym":"Flag, Blue"},"geometry":{"type":"Point","coordinates":[-64.70518,45.07495]}},{"type":"Feature","properties":{"name":"*Rideau Heights Campsite","routes":["C1","C3","CN"],"provs":["ON"],"desc":"description: unconfirmed if open for 2024 season.\u00a0 (closed for 2023 season)<br>Type: Tenting unconfirmed<br>ID:","sym":"Flag, Blue"},"geometry":{"type":"Point","coordinates":[-75.70248,45.34194]}},{"type":"Feature","properties":{"name":"*Rimouski Camping & Motel Anse (campground)1","routes":["C1","C3"],"provs":["QC"],"desc":"description: This campground offers<br>121 sites<br>Bike washing station<br>Laundry room<br>Secure food storage area<br><br>In addition, as a Bienvenue cyclistes!-certified campground, it offers<br>*A pump and basic tools for minor repairs<br>A camping space, even without a reservation, if you are travelling exclusively by bicycle<br>A sheltered location where you can eat during inclement weather<br>Information about local bicycle networks and cycling services in the area<br><br>https://www.routeverte.com/en/hebergements/camping-rimouski-motel-de-lanse-2/ Privately Owned Campground<br>Type: Ap\u2026","sym":"Flag, Blue"},"geometry":{"type":"Point","coordinates":[-68.61318,48.41636]}},{"type":"Feature","properties":{"name":"*Sun Valley RV Park (formerly Sun Valley Trout Park)","routes":["C1","C2","CN","CA"],"provs":["BC"],"desc":"description: *has sign on website<br>*5+ Trip report stays, Privately Owned Campground, <br>Details from Google Maps<br>31395 Silverdale Ave, Mission, BC V4S 1J7<br>www.campingfishingbc.com<br>+1 604-826-6471<br>Type: Approved Accommodation (campground)<br>ID: 7.0","sym":"Flag, Blue"},"geometry":{"type":"Point","coordinates":[-122.35465,49.14264]}},{"type":"Feature","properties":{"name":"*Tillebrook Provincial Park - Campground C","routes":["C1","CA"],"provs":["AB"],"desc":"description: *5+ Trip report stays, Provincial Park Campground<br>Details from Google Maps<br>Newell County No. 4, AB T0J 3K0<br>www.albertaparks.ca<br>+1 877-537-2757<br>Approved Accommodation (campground)<br>Type: Approved Accommodation (campground)<br>ID: 173.0","sym":"Flag, Blue"},"geometry":{"type":"Point","coordinates":[-111.8129,50.53775]}}]}