{"type":"FeatureCollection","features":[{"type":"Feature","properties":{"name":"17 E Trading Post (convenience store)","desc":"17 E Trading Post","sym":"Department Store"},"geometry":{"type":"Point","coordinates":[-84.01205,46.33717]}},{"type":"Feature","properties":{"name":"7-Eleven - 3775 Carey Rd, Victoria, BC","desc":"area","sym":"Department Store"},"geometry":{"type":"Point","coordinates":[-123.37889,48.45824]}},{"type":"Feature","properties":{"name":"7-Eleven - Dryden, ON","desc":"residential area","sym":"Department Store"},"geometry":{"type":"Point","coordinates":[-92.84354,49.78646]}},{"type":"Feature","properties":{"name":"7-Eleven - Rosetown, SK","desc":"area","sym":"Department Store"},"geometry":{"type":"Point","coordinates":[-107.99529,51.54817]}},{"type":"Feature","properties":{"name":"A&K convenience","desc":"area","sym":"Convenience Store"},"geometry":{"type":"Point","coordinates":[-54.00837,48.4367]}},{"type":"Feature","properties":{"name":"AG Foods - Barriere","desc":"area","sym":"Shopping Center"},"geometry":{"type":"Point","coordinates":[-120.12449,51.1793]}},{"type":"Feature","properties":{"name":"Agawa Crafts and the Canadian Carver (Convenience)","desc":"area","sym":"Department Store"},"geometry":{"type":"Point","coordinates":[-84.66481,46.96402]}},{"type":"Feature","properties":{"name":"Asian Mart","desc":"Claridge Plaza 3","sym":"Shopping Center"},"geometry":{"type":"Point","coordinates":[-75.68718,45.42796]}},{"type":"Feature","properties":{"name":"Askew's Foods","desc":"parking","sym":"Shopping Center"},"geometry":{"type":"Point","coordinates":[-118.98335,50.83683]}},{"type":"Feature","properties":{"name":"Askew's Foods - Armstrong","desc":"Askew's Foods","sym":"Shopping Center"},"geometry":{"type":"Point","coordinates":[-119.18482,50.44735]}},{"type":"Feature","properties":{"name":"Atlantic Superstore","desc":"Atlantic Superstore","sym":"Shopping Center"},"geometry":{"type":"Point","coordinates":[-63.56883,44.63797]}},{"type":"Feature","properties":{"name":"Barry's Store (Convenience)","desc":"Barry's Store (Convenience)","sym":"Department Store"},"geometry":{"type":"Point","coordinates":[-121.43287,49.56297]}},{"type":"Feature","properties":{"name":"Bon Voyage Esso Gas Grocery Car Wash","desc":"area","sym":"Convenience Store"},"geometry":{"type":"Point","coordinates":[-122.81605,53.85763]}},{"type":"Feature","properties":{"name":"Bonfield Kwik Way","desc":"309 Church Street Bonfield. 705 776 1323.\u00a0 Grab and go food and drinks.\u00a0 Seasonal Chip Stand, Yogi Bar attached.","sym":"Department Store"},"geometry":{"type":"Point","coordinates":[-79.14444,46.23213]}},{"type":"Feature","properties":{"name":"Borderland Co-op Moosomin Food Store","desc":"residential area","sym":"Shopping Center"},"geometry":{"type":"Point","coordinates":[-101.66798,50.14632]}},{"type":"Feature","properties":{"name":"Burnells Food Plus","desc":"area","sym":"Shopping Center"},"geometry":{"type":"Point","coordinates":[-96.4563,49.65702]}},{"type":"Feature","properties":{"name":"Buy-Low Foods","desc":"Houston Mall","sym":"Shopping Center"},"geometry":{"type":"Point","coordinates":[-126.6519,54.39839]}},{"type":"Feature","properties":{"name":"Buy-Low Foods -  Clearwater, BC","desc":"Buy-Low Foods\n365 Murtle Crescent #101, Clearwater, BC V0E 1N1","sym":"Shopping Center"},"geometry":{"type":"Point","coordinates":[-120.04121,51.65025]}},{"type":"Feature","properties":{"name":"Buy-Low Foods - Hope, BC","desc":"residential area","sym":"Shopping Center"},"geometry":{"type":"Point","coordinates":[-121.43874,49.38134]}},{"type":"Feature","properties":{"name":"Buy-Low Foods - Keremeos","desc":"area","sym":"Shopping Center"},"geometry":{"type":"Point","coordinates":[-119.82279,49.20489]}},{"type":"Feature","properties":{"name":"Buy-Low Foods - Osoyoos","desc":"commercial/industrial area","sym":"Shopping Center"},"geometry":{"type":"Point","coordinates":[-119.47553,49.03455]}},{"type":"Feature","properties":{"name":"Calgary Co-Op Midtown","desc":"Calgary Co-Op Midtown\n\n*offers online ordering, curbside pickup for bikes.","sym":"Shopping Center"},"geometry":{"type":"Point","coordinates":[-114.08813,51.04349]}},{"type":"Feature","properties":{"name":"Canada Safeway - Canmore","desc":"Canada Safeway","sym":"Shopping Center"},"geometry":{"type":"Point","coordinates":[-115.35638,51.09351]}},{"type":"Feature","properties":{"name":"Canada\u2019s Grocery Store and More","desc":"residential area","sym":"Shopping Center"},"geometry":{"type":"Point","coordinates":[-124.85102,54.05585]}},{"type":"Feature","properties":{"name":"Canadian Tire - Fort Frances (not a bike shop)","desc":"Fort Frances","sym":"Department Store"},"geometry":{"type":"Point","coordinates":[-93.43001,48.6085]}},{"type":"Feature","properties":{"name":"Canal Flats Family Foods","desc":"area","sym":"Shopping Center"},"geometry":{"type":"Point","coordinates":[-115.80938,50.15615]}},{"type":"Feature","properties":{"name":"Canco - Conv. Store - Keremeos (washrooms probably)","desc":"Esso","sym":"Department Store"},"geometry":{"type":"Point","coordinates":[-119.81826,49.20713]}},{"type":"Feature","properties":{"name":"Canco gas station and car wash - Terrace Bay, ON (Convenience)","desc":"Esso","sym":"Department Store"},"geometry":{"type":"Point","coordinates":[-87.09562,48.78462]}},{"type":"Feature","properties":{"name":"Canmore's Convenience Store","desc":"area","sym":"Department Store"},"geometry":{"type":"Point","coordinates":[-115.34712,51.08796]}},{"type":"Feature","properties":{"name":"Castle Mountain Gas Station / Castle Mountain Chalets (snacks/washroom w/buy something)","desc":"Castle Mountain Gas Station/ Castle Mountain Chalets","sym":"Shopping Center"},"geometry":{"type":"Point","coordinates":[-115.91906,51.26899]}},{"type":"Feature","properties":{"name":"Centex - Convenience Store (washrooms probably)","desc":"area","sym":"Department Store"},"geometry":{"type":"Point","coordinates":[-113.52777,51.38062]}},{"type":"Feature","properties":{"name":"Chaplin Grocery","desc":"Chaplin","sym":"Shopping Center"},"geometry":{"type":"Point","coordinates":[-106.65575,50.46096]}},{"type":"Feature","properties":{"name":"Chevron - Abbotsford, BC (Convenience Store - Washrooms (probably)","desc":"area","sym":"Department Store"},"geometry":{"type":"Point","coordinates":[-122.12073,49.08909]}},{"type":"Feature","properties":{"name":"Circle K - Lively, ON (washrooms probably)","desc":"area","sym":"Convenience Store"},"geometry":{"type":"Point","coordinates":[-81.1404,46.42227]}},{"type":"Feature","properties":{"name":"Circle K - Portage la Prairie","desc":"Portage la Prairie","sym":"Convenience Store"},"geometry":{"type":"Point","coordinates":[-98.28455,49.97236]}},{"type":"Feature","properties":{"name":"Circle K - Sault Ste. Marie, ON","desc":"area","sym":"Convenience Store"},"geometry":{"type":"Point","coordinates":[-84.27043,46.52239]}},{"type":"Feature","properties":{"name":"Circle K - Thunder Bay, ON","desc":"area","sym":"Department Store"},"geometry":{"type":"Point","coordinates":[-89.18263,48.46814]}},{"type":"Feature","properties":{"name":"Circle K - Wawa, ON","desc":"residential area","sym":"Department Store"},"geometry":{"type":"Point","coordinates":[-84.77291,47.99135]}},{"type":"Feature","properties":{"name":"Clearwater Market","desc":"forest, park","sym":"Department Store"},"geometry":{"type":"Point","coordinates":[-94.79543,49.71591]}},{"type":"Feature","properties":{"name":"Cloverleaf Grocery","desc":"Cloverleaf","sym":"Shopping Center"},"geometry":{"type":"Point","coordinates":[-93.83406,48.63268]}},{"type":"Feature","properties":{"name":"Co-Op (Tofino)","desc":"Co-Op","sym":"Shopping Center"},"geometry":{"type":"Point","coordinates":[-125.9083,49.153]}},{"type":"Feature","properties":{"name":"Co-Op - Sidney","desc":"Co-Op","sym":"Convenience Store"},"geometry":{"type":"Point","coordinates":[-123.41749,48.66381]}},{"type":"Feature","properties":{"name":"Co-op Cardlock","desc":"area","sym":"Convenience Store"},"geometry":{"type":"Point","coordinates":[-108.80562,50.06748]}},{"type":"Feature","properties":{"name":"Co-op Cardlock - Theodore, SK","desc":"area","sym":"Department Store"},"geometry":{"type":"Point","coordinates":[-102.92207,51.42284]}},{"type":"Feature","properties":{"name":"Co-op Cardlock - Whitewood, SK","desc":"area","sym":"Convenience Store"},"geometry":{"type":"Point","coordinates":[-102.25705,50.33488]}},{"type":"Feature","properties":{"name":"Co-op Food Store","desc":"area","sym":"Shopping Center"},"geometry":{"type":"Point","coordinates":[-125.91886,50.31256]}},{"type":"Feature","properties":{"name":"Co-op Food Store - Colonsay, SK","desc":"area","sym":"Department Store"},"geometry":{"type":"Point","coordinates":[-105.86882,51.98061]}},{"type":"Feature","properties":{"name":"Co-op Food Store - Shaunavon","sym":"Shopping Center"},"geometry":{"type":"Point","coordinates":[-108.41001,49.64778]}},{"type":"Feature","properties":{"name":"Co-op Gas Bar - Convenience Store (Moose Jaw, SK)","desc":"area","sym":"Department Store"},"geometry":{"type":"Point","coordinates":[-105.55779,50.38369]}},{"type":"Feature","properties":{"name":"Co-Op Gas Bar - Gladstone, MB (washrooms probably)","desc":"Co-Op","sym":"Department Store"},"geometry":{"type":"Point","coordinates":[-98.94918,50.21224]}},{"type":"Feature","properties":{"name":"Co-op Gas Bar - Kindersley, SK (washroom probably)","desc":"area","sym":"Department Store"},"geometry":{"type":"Point","coordinates":[-109.14347,51.47431]}},{"type":"Feature","properties":{"name":"Co-op Gas Bar Convenience Store - Oyen, AB (washroom probably)","desc":"area","sym":"Department Store"},"geometry":{"type":"Point","coordinates":[-110.47875,51.38777]}},{"type":"Feature","properties":{"name":"CO-OP Grocery Store - 84 Spruce St, Vermilion Bay, ON P0V 2V0","desc":"residential area","sym":"Shopping Center"},"geometry":{"type":"Point","coordinates":[-93.38556,49.85487]}},{"type":"Feature","properties":{"name":"Co-op, Gladstone Food Store","desc":"Gladstone","sym":"Shopping Center"},"geometry":{"type":"Point","coordinates":[-98.95045,50.22667]}},{"type":"Feature","properties":{"name":"Co-op, Kindersley Food Store","desc":"commercial/industrial area","sym":"Shopping Center"},"geometry":{"type":"Point","coordinates":[-109.15386,51.46802]}},{"type":"Feature","properties":{"name":"Co-op, Minnedosa Food Store","desc":"Co-Op Food Market","sym":"Shopping Center"},"geometry":{"type":"Point","coordinates":[-99.83762,50.24625]}},{"type":"Feature","properties":{"name":"Co-op, Neepawa Food Store","desc":"Neepawa","sym":"Shopping Center"},"geometry":{"type":"Point","coordinates":[-99.47667,50.22572]}},{"type":"Feature","properties":{"name":"Coaldale Food Market","desc":"area","sym":"Shopping Center"},"geometry":{"type":"Point","coordinates":[-112.62143,49.72707]}},{"type":"Feature","properties":{"name":"Convenience items for sale - no services","desc":"area","sym":"Shopping Center"},"geometry":{"type":"Point","coordinates":[-129.3517,54.31367]}},{"type":"Feature","properties":{"name":"Costa's Food Market Ltd","desc":"residential area","sym":"Shopping Center"},"geometry":{"type":"Point","coordinates":[-87.10217,48.78308]}},{"type":"Feature","properties":{"name":"Couche-Tard","desc":"area","sym":"Department Store"},"geometry":{"type":"Point","coordinates":[-71.7292,46.68267]}},{"type":"Feature","properties":{"name":"Crawford Bay Market","desc":"area","sym":"Convenience Store"},"geometry":{"type":"Point","coordinates":[-116.82438,49.67591]}},{"type":"Feature","properties":{"name":"Cunningham's Country Store","desc":"area","sym":"Shopping Center"},"geometry":{"type":"Point","coordinates":[-77.57701,45.12684]}},{"type":"Feature","properties":{"name":"Delacour General Store","sym":"Convenience Store"},"geometry":{"type":"Point","coordinates":[-113.77293,51.15423]}},{"type":"Feature","properties":{"name":"Delia General Store","desc":"area","sym":"Department Store"},"geometry":{"type":"Point","coordinates":[-112.37251,51.6309]}},{"type":"Feature","properties":{"name":"DeMille's Farm Market","desc":"area","sym":"Shopping Center"},"geometry":{"type":"Point","coordinates":[-119.32769,50.69212]}},{"type":"Feature","properties":{"name":"Dominion - Grocery Store (Grand Falls - Windsor)","desc":"Dominion","sym":"Shopping Center"},"geometry":{"type":"Point","coordinates":[-55.65303,48.94641]}},{"type":"Feature","properties":{"name":"Dominion - Grocery Store - Gander","desc":"Dominion","sym":"Shopping Center"},"geometry":{"type":"Point","coordinates":[-54.60051,48.94982]}},{"type":"Feature","properties":{"name":"Dunster General Store","desc":"area","sym":"Convenience Store"},"geometry":{"type":"Point","coordinates":[-119.83845,53.12444]}},{"type":"Feature","properties":{"name":"Esso (Convenience Store)","desc":"Esso","sym":"Convenience Store"},"geometry":{"type":"Point","coordinates":[-84.79252,47.96453]}},{"type":"Feature","properties":{"name":"Esso (Convenience) Digby, NS (washrooms probably)","desc":"residential area","sym":"Department Store"},"geometry":{"type":"Point","coordinates":[-65.75672,44.6182]}},{"type":"Feature","properties":{"name":"esso (most probably a convenient store)","desc":"was built in 2021","sym":"Department Store"},"geometry":{"type":"Point","coordinates":[-83.57178,46.26545]}},{"type":"Feature","properties":{"name":"Esso - Food Store - Delisle, SK (washrooms probably)","desc":"area","sym":"Department Store"},"geometry":{"type":"Point","coordinates":[-107.13379,51.92251]}},{"type":"Feature","properties":{"name":"Esso - Lytton, BC (washroom probably)","desc":"fuel","sym":"Convenience Store"},"geometry":{"type":"Point","coordinates":[-121.57742,50.22441]}},{"type":"Feature","properties":{"name":"Esso - MORICETOWN GAS BAR (unsure if washrooms are available)","desc":"area","sym":"Convenience Store"},"geometry":{"type":"Point","coordinates":[-127.33126,55.01924]}},{"type":"Feature","properties":{"name":"Esso - Morse, SK","desc":"Morse","sym":"Convenience Store"},"geometry":{"type":"Point","coordinates":[-107.03652,50.4106]}},{"type":"Feature","properties":{"name":"Esso - Strathmore, AB (Conv. Washroom probably)","desc":"area","sym":"Convenience Store"},"geometry":{"type":"Point","coordinates":[-113.40078,51.03717]}},{"type":"Feature","properties":{"name":"Extra Foods","desc":"Extra Foods","sym":"Shopping Center"},"geometry":{"type":"Point","coordinates":[-118.47017,49.0224]}},{"type":"Feature","properties":{"name":"Fairmont Mountainside Market","desc":"Fairmont Mountainside Market","sym":"Shopping Center"},"geometry":{"type":"Point","coordinates":[-115.85587,50.33738]}},{"type":"Feature","properties":{"name":"Falcon Lake Meat & Grocery","desc":"area","sym":"Shopping Center"},"geometry":{"type":"Point","coordinates":[-95.32607,49.68564]}},{"type":"Feature","properties":{"name":"Farm Boy - (Grocery Store) Cornwall, ON","desc":"residential area","sym":"Shopping Center"},"geometry":{"type":"Point","coordinates":[-74.73298,45.02775]}},{"type":"Feature","properties":{"name":"Fas Gas Plus convenience store - Maple Creek, SK","desc":"area","sym":"Convenience Store"},"geometry":{"type":"Point","coordinates":[-109.47561,49.90904]}},{"type":"Feature","properties":{"name":"Fertengigers Gas & Variety","desc":"area","sym":"Convenience Store"},"geometry":{"type":"Point","coordinates":[-87.55657,48.88211]}},{"type":"Feature","properties":{"name":"Food Basics - Sault Ste. Marie, ON","desc":"area","sym":"Shopping Center"},"geometry":{"type":"Point","coordinates":[-84.27376,46.52073]}},{"type":"Feature","properties":{"name":"Foodland","desc":"Foodland","sym":"Shopping Center"},"geometry":{"type":"Point","coordinates":[-80.38977,44.1721]}},{"type":"Feature","properties":{"name":"Foodland - Coldbrook","desc":"area","sym":"Shopping Center"},"geometry":{"type":"Point","coordinates":[-64.59955,45.06205]}},{"type":"Feature","properties":{"name":"Foodland - Deer Lake","desc":"Foodland","sym":"Shopping Center"},"geometry":{"type":"Point","coordinates":[-57.43124,49.17399]}},{"type":"Feature","properties":{"name":"Foodland - Pasadena","desc":"Pasadena","sym":"Shopping Center"},"geometry":{"type":"Point","coordinates":[-57.6225,49.01302]}},{"type":"Feature","properties":{"name":"Foodland - Wiarton","desc":"Foodland","sym":"Shopping Center"},"geometry":{"type":"Point","coordinates":[-81.13929,44.74448]}},{"type":"Feature","properties":{"name":"Foodland Tobermory","desc":"Foodland","sym":"Shopping Center"},"geometry":{"type":"Point","coordinates":[-81.66517,45.25507]}},{"type":"Feature","properties":{"name":"Fresh Co Lougheed Hwy & Haig St","desc":"The Shops at Mission Hills","sym":"Shopping Center"},"geometry":{"type":"Point","coordinates":[-122.32375,49.13194]}},{"type":"Feature","properties":{"name":"Fuel Buddy - Convenience Store","desc":"area","sym":"Department Store"},"geometry":{"type":"Point","coordinates":[-111.21033,51.52605]}},{"type":"Feature","properties":{"name":"G & G Svc (Convenience store)","desc":"area","sym":"Department Store"},"geometry":{"type":"Point","coordinates":[-90.46948,49.04375]}},{"type":"Feature","properties":{"name":"Gatzke's Farm Market","desc":"area","sym":"Department Store"},"geometry":{"type":"Point","coordinates":[-119.3878,50.11135]}},{"type":"Feature","properties":{"name":"Georgia Park Store","desc":"Georgia Store (Variety_Store)","sym":"Shopping Center"},"geometry":{"type":"Point","coordinates":[-124.66538,49.4332]}},{"type":"Feature","properties":{"name":"Gill's Trading Post","desc":"Gill's Trading Post","sym":"Department Store"},"geometry":{"type":"Point","coordinates":[-94.09483,49.40735]}},{"type":"Feature","properties":{"name":"Goulais River Country Store","desc":"area","sym":"Department Store"},"geometry":{"type":"Point","coordinates":[-84.34712,46.72214]}},{"type":"Feature","properties":{"name":"Green Achers Of Wabigoon (Grocery Store)","desc":"area","sym":"Shopping Center"},"geometry":{"type":"Point","coordinates":[-92.60424,49.72211]}},{"type":"Feature","properties":{"name":"Greenwood Groceries","desc":"area","sym":"Shopping Center"},"geometry":{"type":"Point","coordinates":[-118.67766,49.09046]}},{"type":"Feature","properties":{"name":"Griffith General Store","desc":"Griffith General Store","sym":"Shopping Center"},"geometry":{"type":"Point","coordinates":[-77.17536,45.24244]}},{"type":"Feature","properties":{"name":"Grizzly Jim's General Store","desc":"residential area","sym":"Convenience Store"},"geometry":{"type":"Point","coordinates":[-126.29724,54.50548]}},{"type":"Feature","properties":{"name":"Gull Lake AG Foods","desc":"area","sym":"Shopping Center"},"geometry":{"type":"Point","coordinates":[-108.48364,50.09567]}},{"type":"Feature","properties":{"name":"Heather's Your Independent Grocer","desc":"Save Easy","sym":"Shopping Center"},"geometry":{"type":"Point","coordinates":[-65.06754,44.94217]}},{"type":"Feature","properties":{"name":"Hedley County Market (General)","desc":"Hedley County Market (General)","sym":"Convenience Store"},"geometry":{"type":"Point","coordinates":[-120.07636,49.35788]}},{"type":"Feature","properties":{"name":"Hidden Valley Foods","desc":"108 Maple Ave S, Eastend, SK S0N 0T0","sym":"Shopping Center"},"geometry":{"type":"Point","coordinates":[-108.82011,49.51375]}},{"type":"Feature","properties":{"name":"HUSKY - Convenience Rock Creek, BC","desc":"area","sym":"Convenience Store"},"geometry":{"type":"Point","coordinates":[-119.00037,49.05705]}},{"type":"Feature","properties":{"name":"husky - Foam Lake, SK","desc":"area","sym":"Department Store"},"geometry":{"type":"Point","coordinates":[-103.52608,51.63795]}},{"type":"Feature","properties":{"name":"Husky/Esso - Blue River, BC - washroom","desc":"area","sym":"Convenience Store"},"geometry":{"type":"Point","coordinates":[-119.31053,52.10353]}},{"type":"Feature","properties":{"name":"HUSKY/ESSO - White River, ON (Convenience)","desc":"Husky","sym":"Department Store"},"geometry":{"type":"Point","coordinates":[-85.2779,48.59369]}},{"type":"Feature","properties":{"name":"IGA (Grocery store) (Enderby)","desc":"residential area","sym":"Shopping Center"},"geometry":{"type":"Point","coordinates":[-119.13979,50.54904]}},{"type":"Feature","properties":{"name":"IGA Coop Saint Jean Port Joli","desc":"area","sym":"Shopping Center"},"geometry":{"type":"Point","coordinates":[-70.26639,47.21196]}},{"type":"Feature","properties":{"name":"IGA Cooperative Limited Shediac","desc":"Shediac","sym":"Shopping Center"},"geometry":{"type":"Point","coordinates":[-64.5439,46.2187]}},{"type":"Feature","properties":{"name":"IGA Golden","desc":"area","sym":"Shopping Center"},"geometry":{"type":"Point","coordinates":[-116.9684,51.30259]}},{"type":"Feature","properties":{"name":"IGA Montmagny","desc":"area","sym":"Shopping Center"},"geometry":{"type":"Point","coordinates":[-70.56756,46.97959]}},{"type":"Feature","properties":{"name":"IGA Russell","desc":"Russell Iga","sym":"Shopping Center"},"geometry":{"type":"Point","coordinates":[-101.2885,50.77748]}},{"type":"Feature","properties":{"name":"Indian Head Big Way Foods","desc":"commercial/industrial area","sym":"Shopping Center"},"geometry":{"type":"Point","coordinates":[-103.66902,50.53232]}},{"type":"Feature","properties":{"name":"Irving - Convenience - Bishop's Falls, NL","desc":"Irving","sym":"Department Store"},"geometry":{"type":"Point","coordinates":[-55.50787,49.00894]}},{"type":"Feature","properties":{"name":"J & E Groceteria","desc":"Badger","sym":"Department Store"},"geometry":{"type":"Point","coordinates":[-56.03629,48.97698]}},{"type":"Feature","properties":{"name":"J&L - Grocery Store -St. Andrews, NL","desc":"area","sym":"Department Store"},"geometry":{"type":"Point","coordinates":[-59.27189,47.75773]}},{"type":"Feature","properties":{"name":"Jim's Food Markets - Little Fort, BC","desc":"retail area","sym":"Shopping Center"},"geometry":{"type":"Point","coordinates":[-120.20578,51.42206]}},{"type":"Feature","properties":{"name":"Jim's Your Independent Grocer","desc":"Extra Foods","sym":"Shopping Center"},"geometry":{"type":"Point","coordinates":[-124.00718,54.01268]}},{"type":"Feature","properties":{"name":"John's Your Independent Grocer","desc":"Valu-Mart","sym":"Shopping Center"},"geometry":{"type":"Point","coordinates":[-84.77492,47.99003]}},{"type":"Feature","properties":{"name":"Johnny's Convenience & Gas Bar","desc":"Johnny's Convenience","sym":"Convenience Store"},"geometry":{"type":"Point","coordinates":[-54.87137,48.9943]}},{"type":"Feature","properties":{"name":"Johnson's fruit market","desc":"area","sym":"Shopping Center"},"geometry":{"type":"Point","coordinates":[-96.45972,49.66229]}},{"type":"Feature","properties":{"name":"Kaleden Convenience Store","desc":"area","sym":"Department Store"},"geometry":{"type":"Point","coordinates":[-119.6055,49.39569]}},{"type":"Feature","properties":{"name":"Kay's Country market","desc":"area","sym":"Shopping Center"},"geometry":{"type":"Point","coordinates":[-78.80041,44.71576]}},{"type":"Feature","properties":{"name":"Keewatin Place","desc":"residential area","sym":"Shopping Center"},"geometry":{"type":"Point","coordinates":[-94.55719,49.75721]}},{"type":"Feature","properties":{"name":"KIMS Family Mart","desc":"area","sym":"Shopping Center"},"geometry":{"type":"Point","coordinates":[-98.93637,49.95017]}},{"type":"Feature","properties":{"name":"Kinmount Freshmart","desc":"Kinmount Freshmart","sym":"Shopping Center"},"geometry":{"type":"Point","coordinates":[-78.65183,44.78242]}},{"type":"Feature","properties":{"name":"Kitwanga General Store","desc":"forest, park","sym":"Convenience Store"},"geometry":{"type":"Point","coordinates":[-128.02372,55.11247]}},{"type":"Feature","properties":{"name":"Lemoyne Co-Operative Society Ltd","desc":"Cape Breton Island","sym":"Department Store"},"geometry":{"type":"Point","coordinates":[-61.04688,46.54802]}},{"type":"Feature","properties":{"name":"Little Store House","desc":"area","sym":"Shopping Center"},"geometry":{"type":"Point","coordinates":[-108.71924,51.44027]}},{"type":"Feature","properties":{"name":"MacGregor Family Foods","desc":"Macgregor","sym":"Shopping Center"},"geometry":{"type":"Point","coordinates":[-98.77955,49.96621]}},{"type":"Feature","properties":{"name":"Market On Yates","desc":"Market On Yates","sym":"Shopping Center"},"geometry":{"type":"Point","coordinates":[-123.35881,48.42529]}},{"type":"Feature","properties":{"name":"Marketplace Iga (Port McNeill)","desc":"Marketplace Iga","sym":"Shopping Center"},"geometry":{"type":"Point","coordinates":[-127.08506,50.58852]}},{"type":"Feature","properties":{"name":"May's Gifts","desc":"area","sym":"Department Store"},"geometry":{"type":"Point","coordinates":[-86.35959,48.76206]}},{"type":"Feature","properties":{"name":"McBride AG Foods","desc":"residential area","sym":"Convenience Store"},"geometry":{"type":"Point","coordinates":[-120.165,53.30205]}},{"type":"Feature","properties":{"name":"McDonalds store Ltd","desc":"residential area","sym":"Shopping Center"},"geometry":{"type":"Point","coordinates":[-127.58502,55.24646]}},{"type":"Feature","properties":{"name":"McMynn's Family Foods","desc":"area","sym":"Shopping Center"},"geometry":{"type":"Point","coordinates":[-118.77518,49.00871]}},{"type":"Feature","properties":{"name":"Metro (grocery store)","desc":"Arthur Street Marketplace","sym":"Shopping Center"},"geometry":{"type":"Point","coordinates":[-89.30878,48.38196]}},{"type":"Feature","properties":{"name":"Michell's Farm Market","desc":"Michell's Farm Market","sym":"Shopping Center"},"geometry":{"type":"Point","coordinates":[-123.39642,48.57211]}},{"type":"Feature","properties":{"name":"Mount Robson Store & Gift Shop","desc":"Mount Robson Store & Gift Shop","sym":"Convenience Store"},"geometry":{"type":"Point","coordinates":[-119.23064,53.03457]}},{"type":"Feature","properties":{"name":"Mountain Side General Store","desc":"area","sym":"Department Store"},"geometry":{"type":"Point","coordinates":[-59.20233,47.81967]}},{"type":"Feature","properties":{"name":"Moyie General Store","desc":"area","sym":"Convenience Store"},"geometry":{"type":"Point","coordinates":[-115.8323,49.28626]}},{"type":"Feature","properties":{"name":"Needs Convenience Berwick","desc":"Berwick","sym":"Department Store"},"geometry":{"type":"Point","coordinates":[-64.73442,45.04187]}},{"type":"Feature","properties":{"name":"Needs Convenience Springhill","desc":"residential area","sym":"Convenience Store"},"geometry":{"type":"Point","coordinates":[-64.05958,45.65648]}},{"type":"Feature","properties":{"name":"North Central Co-Op - White River, ON","desc":"residential area","sym":"Shopping Center"},"geometry":{"type":"Point","coordinates":[-85.28039,48.59045]}},{"type":"Feature","properties":{"name":"O'Bies General Mercantle Ltd","desc":"Obies General Store","sym":"Shopping Center"},"geometry":{"type":"Point","coordinates":[-114.16276,49.58662]}},{"type":"Feature","properties":{"name":"Oak Site Foods","desc":"residential area","sym":"Shopping Center"},"geometry":{"type":"Point","coordinates":[-100.58062,50.56474]}},{"type":"Feature","properties":{"name":"On The Run - Convenience Store (probably washrooms)","desc":"residential area","sym":"Department Store"},"geometry":{"type":"Point","coordinates":[-119.27324,50.26651]}},{"type":"Feature","properties":{"name":"On the Run - Convenience Store - Elie, MB (washroom probably)","desc":"area","sym":"Department Store"},"geometry":{"type":"Point","coordinates":[-97.75881,49.90786]}},{"type":"Feature","properties":{"name":"On the Run - Espanola, ON (washrooms probably)","desc":"retail area","sym":"Convenience Store"},"geometry":{"type":"Point","coordinates":[-81.77546,46.28633]}},{"type":"Feature","properties":{"name":"Oyama General Store (Convenience)","desc":"Oyama General Store (Convenience)","sym":"Department Store"},"geometry":{"type":"Point","coordinates":[-119.38523,50.11083]}},{"type":"Feature","properties":{"name":"Pealow's Your Independent Grocer","desc":"Superstore","sym":"Shopping Center"},"geometry":{"type":"Point","coordinates":[-116.5098,49.09393]}},{"type":"Feature","properties":{"name":"Petro-Canada ($ shower available in Conv Store)","desc":"Petro-Canada","sym":"Department Store"},"geometry":{"type":"Point","coordinates":[-114.47447,51.08739]}},{"type":"Feature","properties":{"name":"Petro-Canada (convenience store)","desc":"area","sym":"Department Store"},"geometry":{"type":"Point","coordinates":[-91.6597,49.41684]}},{"type":"Feature","properties":{"name":"Petro-Canada - Amqui, QC (washrooms probably)","desc":"residential area","sym":"Convenience Store"},"geometry":{"type":"Point","coordinates":[-67.42575,48.46428]}},{"type":"Feature","properties":{"name":"Petro-Canada - Rivi\u00e8re-du-Loup, QC (Convenience - washrooms probably)","desc":"area","sym":"Convenience Store"},"geometry":{"type":"Point","coordinates":[-69.56093,47.81915]}},{"type":"Feature","properties":{"name":"Point Pleasant Grocery","desc":"area","sym":"Department Store"},"geometry":{"type":"Point","coordinates":[-63.57466,44.62619]}},{"type":"Feature","properties":{"name":"Prairie Sky Co-op Food Store & Pharmacy - 215 2nd Street NE, Weyburn, SK S4H 0V1","desc":"area","sym":"Shopping Center"},"geometry":{"type":"Point","coordinates":[-103.85483,49.66459]}},{"type":"Feature","properties":{"name":"Premium Sausage (2009) Inc","desc":"area","sym":"Shopping Center"},"geometry":{"type":"Point","coordinates":[-110.91113,49.87669]}},{"type":"Feature","properties":{"name":"Prince Rupert Save-On Foods","desc":"area","sym":"Shopping Center"},"geometry":{"type":"Point","coordinates":[-130.32903,54.3095]}},{"type":"Feature","properties":{"name":"Quetico North Outfitters - Convenience","desc":"area","sym":"Convenience Store"},"geometry":{"type":"Point","coordinates":[-91.17707,48.68869]}},{"type":"Feature","properties":{"name":"Radium Mountainside Market","desc":"Radium Mountainside Market","sym":"Shopping Center"},"geometry":{"type":"Point","coordinates":[-116.06955,50.61994]}},{"type":"Feature","properties":{"name":"Red Basket Food Store","desc":"commercial/industrial area","sym":"Shopping Center"},"geometry":{"type":"Point","coordinates":[-111.89634,50.5854]}},{"type":"Feature","properties":{"name":"RED RIVER CO OP","desc":"area","sym":"Shopping Center"},"geometry":{"type":"Point","coordinates":[-92.81007,49.78528]}},{"type":"Feature","properties":{"name":"River Landing Snacks","desc":"River Landing","sym":"Department Store"},"geometry":{"type":"Point","coordinates":[-106.66692,52.1223]}},{"type":"Feature","properties":{"name":"Rock Creek General Store","desc":"area","sym":"Convenience Store"},"geometry":{"type":"Point","coordinates":[-118.99614,49.05556]}},{"type":"Feature","properties":{"name":"Safety Mart Foods","desc":"Safety Mart","sym":"Shopping Center"},"geometry":{"type":"Point","coordinates":[-119.68956,50.81301]}},{"type":"Feature","properties":{"name":"Safeway - Banff","desc":"Safeway","sym":"Shopping Center"},"geometry":{"type":"Point","coordinates":[-115.5716,51.17936]}},{"type":"Feature","properties":{"name":"Safeway Cranbrook Mall","desc":"Safeway","sym":"Shopping Center"},"geometry":{"type":"Point","coordinates":[-115.76294,49.51242]}},{"type":"Feature","properties":{"name":"Safeway Division Avenue - Medicine Hat","desc":"Safeway","sym":"Shopping Center"},"geometry":{"type":"Point","coordinates":[-110.68505,50.03279]}},{"type":"Feature","properties":{"name":"Safeway Dryden","desc":"Safeway","sym":"Shopping Center"},"geometry":{"type":"Point","coordinates":[-92.8373,49.78145]}},{"type":"Feature","properties":{"name":"Safeway Fort Frances","desc":"Safeway","sym":"Shopping Center"},"geometry":{"type":"Point","coordinates":[-93.39136,48.60952]}},{"type":"Feature","properties":{"name":"Safeway Kenora","desc":"Safeway","sym":"Shopping Center"},"geometry":{"type":"Point","coordinates":[-94.48713,49.76348]}},{"type":"Feature","properties":{"name":"Safeway Nelson","desc":"Safeway","sym":"Shopping Center"},"geometry":{"type":"Point","coordinates":[-117.28268,49.50075]}},{"type":"Feature","properties":{"name":"Safeway Smithers","desc":"Safeway","sym":"Shopping Center"},"geometry":{"type":"Point","coordinates":[-127.16226,54.7809]}},{"type":"Feature","properties":{"name":"Save On Foods (Port Hardy)","desc":"Save-On-Foods","sym":"Shopping Center"},"geometry":{"type":"Point","coordinates":[-127.49745,50.72162]}},{"type":"Feature","properties":{"name":"Save On Foods - Hope","desc":"Cooper's","sym":"Shopping Center"},"geometry":{"type":"Point","coordinates":[-121.43191,49.37586]}},{"type":"Feature","properties":{"name":"Save On Foods - Prince George","desc":"Save On Foods","sym":"Shopping Center"},"geometry":{"type":"Point","coordinates":[-122.75902,53.9103]}},{"type":"Feature","properties":{"name":"Save-On-Foods (Abbotsford)","desc":"Save-On-Foods","sym":"Shopping Center"},"geometry":{"type":"Point","coordinates":[-122.22293,49.04521]}},{"type":"Feature","properties":{"name":"Save-On-Foods - Burns Lake","desc":"area","sym":"Shopping Center"},"geometry":{"type":"Point","coordinates":[-125.75399,54.22397]}},{"type":"Feature","properties":{"name":"Save-On-Foods - Cochrane","desc":"Save-On-Foods","sym":"Shopping Center"},"geometry":{"type":"Point","coordinates":[-114.46647,51.18693]}},{"type":"Feature","properties":{"name":"Save-On-Foods - Golden, BC","desc":"Overwaitea","sym":"Shopping Center"},"geometry":{"type":"Point","coordinates":[-116.9624,51.29456]}},{"type":"Feature","properties":{"name":"Save-On-Foods - Lake Country, BC","sym":"Shopping Center"},"geometry":{"type":"Point","coordinates":[-119.40516,50.02129]}},{"type":"Feature","properties":{"name":"Save-On-Foods - Princeton","desc":"parking","sym":"Shopping Center"},"geometry":{"type":"Point","coordinates":[-120.51045,49.46141]}},{"type":"Feature","properties":{"name":"Save-On-Foods - Yorkton, SK","desc":"retail area","sym":"Shopping Center"},"geometry":{"type":"Point","coordinates":[-102.44472,51.21185]}},{"type":"Feature","properties":{"name":"Save-On-Foods Regina","desc":"area","sym":"Shopping Center"},"geometry":{"type":"Point","coordinates":[-104.51269,50.41783]}},{"type":"Feature","properties":{"name":"Serpent River First Nation Gas & Convenience (washrooms probably)","desc":"area","sym":"Convenience Store"},"geometry":{"type":"Point","coordinates":[-82.42055,46.2058]}},{"type":"Feature","properties":{"name":"Shell - Conv Store","desc":"area","sym":"Department Store"},"geometry":{"type":"Point","coordinates":[-66.2133,45.82203]}},{"type":"Feature","properties":{"name":"Shell - Wikwemikong, ON (Convenience)","desc":"Shell","sym":"Convenience Store"},"geometry":{"type":"Point","coordinates":[-82.01114,45.56348]}},{"type":"Feature","properties":{"name":"Shell Convenience - Canmore, AB (washrooms probably)","desc":"Shell","sym":"Convenience Store"},"geometry":{"type":"Point","coordinates":[-115.35996,51.09866]}},{"type":"Feature","properties":{"name":"Shoal Lake Bigway Foods","desc":"Bigway Foods","sym":"Shopping Center"},"geometry":{"type":"Point","coordinates":[-100.58995,50.43789]}},{"type":"Feature","properties":{"name":"Short Stop - Convenience Store","desc":"retail area","sym":"Department Store"},"geometry":{"type":"Point","coordinates":[-116.96924,51.31087]}},{"type":"Feature","properties":{"name":"Sidney General Store","desc":"area","sym":"Shopping Center"},"geometry":{"type":"Point","coordinates":[-99.08212,49.89867]}},{"type":"Feature","properties":{"name":"Sirard's Your Independent Grocer Marathon","desc":"retail area","sym":"Shopping Center"},"geometry":{"type":"Point","coordinates":[-86.37467,48.72021]}},{"type":"Feature","properties":{"name":"Six Star Grocery - Herbert, SK","desc":"Herbert","sym":"Shopping Center"},"geometry":{"type":"Point","coordinates":[-107.2204,50.42663]}},{"type":"Feature","properties":{"name":"Smith's Convenience Inc","desc":"Gambo","sym":"Convenience Store"},"geometry":{"type":"Point","coordinates":[-54.21339,48.78317]}},{"type":"Feature","properties":{"name":"Sobeys - Charlottetown","desc":"Sobeys","sym":"Shopping Center"},"geometry":{"type":"Point","coordinates":[-63.13317,46.24622]}},{"type":"Feature","properties":{"name":"Sobeys - Cornerstone - Medicine Hat, AB","desc":"Sobey's","sym":"Shopping Center"},"geometry":{"type":"Point","coordinates":[-110.64496,49.99741]}},{"type":"Feature","properties":{"name":"Sobeys - Moncton","desc":"Sobeys","sym":"Shopping Center"},"geometry":{"type":"Point","coordinates":[-64.78796,46.08469]}},{"type":"Feature","properties":{"name":"Sobeys - Truro","desc":"Sobeys","sym":"Shopping Center"},"geometry":{"type":"Point","coordinates":[-63.27142,45.36541]}},{"type":"Feature","properties":{"name":"Sobeys Digby","desc":"residential area","sym":"Shopping Center"},"geometry":{"type":"Point","coordinates":[-65.76687,44.6163]}},{"type":"Feature","properties":{"name":"Sobeys Uptown Centre - Fredericton, NB","desc":"Uptown Centre","sym":"Shopping Center"},"geometry":{"type":"Point","coordinates":[-66.66191,45.93855]}},{"type":"Feature","properties":{"name":"South Brook Convenience","desc":"South Brook","sym":"Department Store"},"geometry":{"type":"Point","coordinates":[-56.0862,49.42154]}},{"type":"Feature","properties":{"name":"Stoney Tribal Chiniki Gas Bar","desc":"Stoney Tribal Chiniki Gas Bar","sym":"Department Store"},"geometry":{"type":"Point","coordinates":[-114.84427,51.14573]}},{"type":"Feature","properties":{"name":"Sunshine Valley Rv Resort - Conv. Store","desc":"Sunshine Valley Rv Resort","sym":"Department Store"},"geometry":{"type":"Point","coordinates":[-121.23211,49.2736]}},{"type":"Feature","properties":{"name":"T & T Supermarket","desc":"T & T Supermarket","sym":"Shopping Center"},"geometry":{"type":"Point","coordinates":[-123.10786,49.27988]}},{"type":"Feature","properties":{"name":"Tanners Your Independent Grocer","desc":"area","sym":"Shopping Center"},"geometry":{"type":"Point","coordinates":[-81.75897,46.24694]}},{"type":"Feature","properties":{"name":"TEMPO, Lakeside General Store","desc":"area","sym":"Shopping Center"},"geometry":{"type":"Point","coordinates":[-118.20853,49.05058]}},{"type":"Feature","properties":{"name":"The Crossing Gas Station and Store","desc":"area","sym":"Convenience Store"},"geometry":{"type":"Point","coordinates":[-116.74636,51.97362]}},{"type":"Feature","properties":{"name":"The Great Bear - Convenience Store","desc":"area","sym":"Convenience Store"},"geometry":{"type":"Point","coordinates":[-93.22335,48.69103]}},{"type":"Feature","properties":{"name":"The Voyageur's Lodge and Cookhouse (convenience)","desc":"forest, park","sym":"Department Store"},"geometry":{"type":"Point","coordinates":[-84.57428,46.94636]}},{"type":"Feature","properties":{"name":"Timberland Motel & Restaurant - Shabaqua Store","desc":"area","sym":"Department Store"},"geometry":{"type":"Point","coordinates":[-89.88823,48.59407]}},{"type":"Feature","properties":{"name":"Truck Stop and Store2","sym":"Convenience Store"},"geometry":{"type":"Point","coordinates":[-111.81428,51.61829]}},{"type":"Feature","properties":{"name":"Twin Lakes Market","desc":"area","sym":"Convenience Store"},"geometry":{"type":"Point","coordinates":[-119.71874,49.34485]}},{"type":"Feature","properties":{"name":"Twin Valley Co-Op Grocery","desc":"Twin Valley Co-Op Grocery","sym":"Shopping Center"},"geometry":{"type":"Point","coordinates":[-101.23702,49.97507]}},{"type":"Feature","properties":{"name":"Tyhee Market","desc":"area","sym":"Shopping Center"},"geometry":{"type":"Point","coordinates":[-127.05491,54.70566]}},{"type":"Feature","properties":{"name":"Ultramar - Gas Station - Matap\u00e9dia, QC (washrooms probably)","desc":"forest, park","sym":"Convenience Store"},"geometry":{"type":"Point","coordinates":[-66.94288,47.97412]}},{"type":"Feature","properties":{"name":"Valemount IGA","desc":"Iga","sym":"Shopping Center"},"geometry":{"type":"Point","coordinates":[-119.26405,52.83185]}},{"type":"Feature","properties":{"name":"Valleyview Co-Op Virden","desc":"Valleyview Co-Op Virden","sym":"Shopping Center"},"geometry":{"type":"Point","coordinates":[-100.93377,49.85154]}},{"type":"Feature","properties":{"name":"Valu-Mart","desc":"Valu-Mart","sym":"Department Store"},"geometry":{"type":"Point","coordinates":[-82.94965,46.18397]}},{"type":"Feature","properties":{"name":"Vested Interest Trading","desc":"Trading ethically sourced products and uses Fair Trade practices. A wide variety of specialty food and snacks, GF, Vegan, Keto to grab and go!\u00a0 Come back after your ride for a unique retail experience.\u00a0\u00a0https://vestedinterest.ca/\u00a0 1407 Main Street North<br>Callander, Ontario, Canada","sym":"Department Store"},"geometry":{"type":"Point","coordinates":[-79.37198,46.23374]}},{"type":"Feature","properties":{"name":"Wallin's Bigway Foods","desc":"area","sym":"Shopping Center"},"geometry":{"type":"Point","coordinates":[-101.70351,50.84355]}},{"type":"Feature","properties":{"name":"Wanda's Convenience (Port Blandford)","desc":"Port Blandford","sym":"Convenience Store"},"geometry":{"type":"Point","coordinates":[-54.16496,48.35223]}},{"type":"Feature","properties":{"name":"White Bay Convenience (Western Petroleum)","desc":"area","sym":"Convenience Store"},"geometry":{"type":"Point","coordinates":[-56.98474,49.37957]}},{"type":"Feature","properties":{"name":"White Lake Lodge (Convenience Store - washrooms probably)","desc":"area","sym":"Department Store"},"geometry":{"type":"Point","coordinates":[-85.55389,48.70564]}},{"type":"Feature","properties":{"name":"Woss General Store","desc":"Vancouver Island","sym":"Shopping Center"},"geometry":{"type":"Point","coordinates":[-126.59499,50.21266]}},{"type":"Feature","properties":{"name":"Wreck Cove General Store","desc":"forest, park","sym":"Convenience Store"},"geometry":{"type":"Point","coordinates":[-60.42839,46.51522]}},{"type":"Feature","properties":{"name":"Wrights Bakery","desc":"https://www.facebook.com/Wrights-Bakery-More-103283418237004/\u00a0 Pick up some homemade treats for your bike fuel needs.","sym":"Department Store"},"geometry":{"type":"Point","coordinates":[-78.70395,46.3123]}},{"type":"Feature","properties":{"name":"Yahk General Store & Gas","desc":"Yahk General Store & Gas","sym":"Shopping Center"},"geometry":{"type":"Point","coordinates":[-116.08944,49.08599]}},{"type":"Feature","properties":{"name":"Yahk Soap & Candle Co","desc":"area","sym":"Shopping Center"},"geometry":{"type":"Point","coordinates":[-116.10314,49.08057]}},{"type":"Feature","properties":{"name":"Yellow Barn Country Market","desc":"The Yellow Barn (Greengrocer)","sym":"Department Store"},"geometry":{"type":"Point","coordinates":[-122.1204,49.0897]}},{"type":"Feature","properties":{"name":"Yoho Brothers Trading Post (Gift)","desc":"Yoho Brothers Trading Post (Gift)","sym":"Department Store"},"geometry":{"type":"Point","coordinates":[-116.49055,51.39855]}},{"type":"Feature","properties":{"name":"Yorkton Co-op","desc":"area","sym":"Shopping Center"},"geometry":{"type":"Point","coordinates":[-102.45993,51.20896]}},{"type":"Feature","properties":{"name":"Young's General Store - Wawa, ON","desc":"area","sym":"Department Store"},"geometry":{"type":"Point","coordinates":[-84.77988,47.98436]}},{"type":"Feature","properties":{"name":"Zechner's (supermarket)","desc":"supermarket","sym":"Shopping Center"},"geometry":{"type":"Point","coordinates":[-88.26377,49.01417]}},{"type":"Feature","properties":{"name":"\u00c9picerie de la Rivi\u00e8re (Convenience)","desc":"\u00c9picerie de la Rivi\u00e8re (Convenience)","sym":"Department Store"},"geometry":{"type":"Point","coordinates":[-68.48804,47.49119]}}]}