{"type":"FeatureCollection","features":[{"type":"Feature","properties":{"name":"Albemarle St After Duke St (9061) (Bus to Airport)","routes":["C2","CN","CA","CL","One-way_Direction_Arrows"],"provs":["NS"],"desc":"area","sym":"Ground Transportation"},"geometry":{"type":"Point","coordinates":[-63.57653,44.649]}},{"type":"Feature","properties":{"name":"Busses to Downtown","routes":["C1","C3","CA","CL","CW"],"provs":["BC"],"desc":"bus_stop","sym":"Ground Transportation"},"geometry":{"type":"Point","coordinates":[-123.40042,48.64868]}},{"type":"Feature","properties":{"name":"Confederation Bridge - Bike Shuttle Bus","routes":["C1","CL","CW"],"provs":["PE"],"desc":"Abegweit Boulevard","sym":"Ground Transportation"},"geometry":{"type":"Point","coordinates":[-63.69746,46.25465]}},{"type":"Feature","properties":{"name":"Confederation Bridge Shuttle Bus","routes":["C1","CL","CW"],"provs":["NB"],"desc":"path","sym":"Ground Transportation"},"geometry":{"type":"Point","coordinates":[-63.8151,46.16199]}},{"type":"Feature","properties":{"name":"Free George Massey Tunnel Shuttle Bus - Pickup/Drop off","routes":["C1","CN","CL","CW"],"provs":["BC"],"desc":"area","sym":"Ground Transportation"},"geometry":{"type":"Point","coordinates":[-123.05325,49.1104]}},{"type":"Feature","properties":{"name":"Massey Tunnel Bike Shuttle (North)","routes":["C1","CN","CA","CL","CW"],"provs":["BC"],"desc":"Massey Tunnel Bike Shuttle (North)","sym":"Ground Transportation"},"geometry":{"type":"Point","coordinates":[-123.08069,49.12655]}}]}