{"type":"FeatureCollection","features":[{"type":"Feature","properties":{"name":"Regina International Airport","routes":["C1"],"desc":"Regina International Airport","sym":"Airport"},"geometry":{"type":"Point","coordinates":[-104.6595,50.43396]}},{"type":"Feature","properties":{"name":"St. John's International Airport (YYT)","routes":["C1","C3","CA"],"desc":"St. John's International Airport","sym":"Airport"},"geometry":{"type":"Point","coordinates":[-52.74273,47.61278]}},{"type":"Feature","properties":{"name":"Stanfield International Airport (YHZ) (Enfield)","routes":["CN","CA"],"sym":"Airport"},"geometry":{"type":"Point","coordinates":[-63.51513,44.88647]}},{"type":"Feature","properties":{"name":"Toronto Pearson International Airport","routes":["C2","CN","CA"],"desc":"Toronto Pearson International Airport","sym":"Airport"},"geometry":{"type":"Point","coordinates":[-79.61779,43.68249]}},{"type":"Feature","properties":{"name":"Vancouver International Airport (YVR)","routes":["CN","CA","CW"],"sym":"Airport"},"geometry":{"type":"Point","coordinates":[-123.18058,49.19352]}},{"type":"Feature","properties":{"name":"Victoria International Airport (YYJ) (Sidney)","routes":["C1","C3","CN","CA"],"sym":"Airport"},"geometry":{"type":"Point","coordinates":[-123.4305,48.64042]}},{"type":"Feature","properties":{"name":"YUL-A\u00e9roport-Montr\u00e9al-Trudeau (Dorval)","routes":["C1","C2","C3","CA"],"sym":"Airport"},"geometry":{"type":"Point","coordinates":[-73.74945,45.45737]}}]}