{"type":"FeatureCollection","features":[{"type":"Feature","properties":{"name":"Bicycle repair stand","routes":["C1","C3","CA","CW"],"provs":["BC"],"desc":"Lochside Park","sym":"Car Repair"},"geometry":{"type":"Point","coordinates":[-123.37696,48.53439]}},{"type":"Feature","properties":{"name":"Bicycle Repair Stand (by phones)  - Castle Junction","routes":["C1","C3","CN"],"provs":["AB"],"sym":"Car Repair"},"geometry":{"type":"Point","coordinates":[-115.91924,51.26901]}},{"type":"Feature","properties":{"name":"Bicycle Repair Stand - rest area","routes":["C1","C2","C3"],"provs":["ON"],"sym":"Car Repair"},"geometry":{"type":"Point","coordinates":[-84.02414,46.35234]}},{"type":"Feature","properties":{"name":"Bicycle repair stand along Thousand Island Pkwy","routes":["C2"],"provs":["ON"],"sym":"Car Repair"},"geometry":{"type":"Point","coordinates":[-75.79284,44.5108]}},{"type":"Feature","properties":{"name":"Bicycle repair stand Canmore","routes":["C1","C3","CN","CA"],"provs":["AB"],"desc":"Bicycle shop","sym":"Car Repair"},"geometry":{"type":"Point","coordinates":[-115.36715,51.10518]}},{"type":"Feature","properties":{"name":"Bike Maintenance Station - Iron Bridge ON","routes":["C1","C2","C3"],"provs":["ON"],"sym":"Car Repair"},"geometry":{"type":"Point","coordinates":[-83.21277,46.2769]}},{"type":"Feature","properties":{"name":"Bike Repair Stand - by Metro Liquor (location to be confirmed)","routes":["C1","CA"],"provs":["BC"],"desc":"parking","sym":"Car Repair"},"geometry":{"type":"Point","coordinates":[-119.49235,49.89416]}},{"type":"Feature","properties":{"name":"Bike repair station","routes":["C1","C3","CA","CL"],"provs":["BC"],"desc":"area","sym":"Car Repair"},"geometry":{"type":"Point","coordinates":[-123.35974,48.47589]}},{"type":"Feature","properties":{"name":"Bike repair station - by Marigold Cafe","routes":["C1","C3","CA","CL","CW"],"provs":["BC"],"desc":"area","sym":"Car Repair"},"geometry":{"type":"Point","coordinates":[-123.39484,48.59753]}},{"type":"Feature","properties":{"name":"Bike Repair Station - Glen Walter ON","routes":["C2"],"provs":["ON","QC"],"sym":"Car Repair"},"geometry":{"type":"Point","coordinates":[-74.64313,45.03556]}},{"type":"Feature","properties":{"name":"Bike Repair Station - YYJ Airport","routes":["C1","C3","CA","CL"],"provs":["BC"],"desc":"Short Term Parking","sym":"Car Repair"},"geometry":{"type":"Point","coordinates":[-123.43019,48.64002]}},{"type":"Feature","properties":{"name":"Outdoor Bike Fix Stand Big Moose Park","routes":["C1","CA"],"provs":["ON"],"desc":"The outdoor stand is located at Big Moose Park.\u00a0\u00a059 Big Moose Rd, Corbeil, ON P0H 1K0 . Ideal picnic rest stop and public beach.","sym":"Car Repair"},"geometry":{"type":"Point","coordinates":[-79.25824,46.21024]}},{"type":"Feature","properties":{"name":"Outdoor Bike Fix Stand Centennial Park","routes":["C1","CA"],"provs":["ON"],"desc":"The bike fix stand includes a variety of tools needed for basic tune-ups on your bike.\u00a0 Located in Centennial Park, in the heart of Callander on the shores of Lake Nipissing,\u00a0 includes a splash pad, beach, play/exercise equipment and a shelter for picnics and public washrooms.","sym":"Car Repair"},"geometry":{"type":"Point","coordinates":[-79.36799,46.22635]}},{"type":"Feature","properties":{"name":"Outdoor Bike Fix Stand Centennial Park Bonfield","routes":["C1"],"provs":["ON"],"desc":"Beach and picnic area off of Mark Street.","sym":"Car Repair"},"geometry":{"type":"Point","coordinates":[-79.14834,46.23105]}},{"type":"Feature","properties":{"name":"Outdoor Bike Fix Stand Lee Park Memorial Drive","routes":["C1","CA"],"provs":["ON"],"desc":"Location: Lee Park, Memorial Drive<br>The outdoor stand has a variety of tools needed for minor tune-ups and an air pump.","sym":"Car Repair"},"geometry":{"type":"Point","coordinates":[-79.4599,46.30025]}},{"type":"Feature","properties":{"name":"Outdoor Bike Fix Stand Tourist Information Centre","routes":["C1"],"provs":["ON"],"desc":"At the Information Centre.\u00a0401 Pine St, Mattawa, ON P0H 1V0","sym":"Car Repair"},"geometry":{"type":"Point","coordinates":[-78.7058,46.31791]}},{"type":"Feature","properties":{"name":"Outdoor Bike Fix Stand, Calvin Municipal Office","routes":["C1"],"provs":["ON"],"desc":"1355 Peddlers Dr, Mattawa, ON P0H 1V0","sym":"Car Repair"},"geometry":{"type":"Point","coordinates":[-78.89684,46.25011]}},{"type":"Feature","properties":{"name":"Park Royal - Bike Repair Stand","routes":["C2","CN","CA","CL","CW"],"provs":["BC"],"desc":"Park Royal","sym":"Car Repair"},"geometry":{"type":"Point","coordinates":[-123.13939,49.32755]}},{"type":"Feature","properties":{"name":"Penticton Bike Repair Stand (close to Ramada Inn)","routes":["C1","CA"],"provs":["BC"],"desc":"area","sym":"Car Repair"},"geometry":{"type":"Point","coordinates":[-119.61262,49.49456]}}]}