{"type":"FeatureCollection","features":[{"type":"Feature","properties":{"name":"Big Intervale Campground - Cape Breton Highlands National Park","routes":["C3"],"provs":["NS"],"desc":"description: <br>Type: National Park Campground<br>ID:","sym":"Campground"},"geometry":{"type":"Point","coordinates":[-60.61429,46.83034]}},{"type":"Feature","properties":{"name":"Broad Cove Campground","routes":["C3"],"provs":["NS"],"desc":"description: <br>Type: National Park Campground<br>ID:","sym":"Campground"},"geometry":{"type":"Point","coordinates":[-60.36592,46.71007]}},{"type":"Feature","properties":{"name":"Burritts Rapids Lockstation","routes":["CN"],"provs":["ON"],"desc":"description: 5) Allows tent camping for those arriving by water and also for cyclists and hikers.<br>https://www.rideau-info.com/canal/locks/17-burrittsrapids.html<br>Details from Google Maps<br>673 River Rd, Kemptville, ON K0G 1J0<br>https://www.pc.gc.ca/en/lhn-nhs/on/rideau?utm_source=gmb&amp;utm_medium=rideau_lock17<br>+1 613-258-4510<br>Type: National Park Campground<br>ID:","sym":"Campground"},"geometry":{"type":"Point","coordinates":[-75.78662,44.98231]}},{"type":"Feature","properties":{"name":"Cape Breton Highlands National Park - Ingonish Beach Campground","routes":["C3"],"provs":["NS"],"desc":"description: <br>Type: National Park Campground<br>ID:","sym":"Campground"},"geometry":{"type":"Point","coordinates":[-60.39952,46.65376]}},{"type":"Feature","properties":{"name":"Cape Breton Highlands National Park - MacIntosh Brook Campground","routes":["C3","CA"],"provs":["NS"],"desc":"description: Details from Google Maps<br>23606 Cabot Trail, Pleasant Bay, NS B0E 2P0<br>www.pc.gc.ca<br>+1 877-737-3783<br>Type: National Park Campground<br>ID: 245.0","sym":"Campground"},"geometry":{"type":"Point","coordinates":[-60.76842,46.81254]}},{"type":"Feature","properties":{"name":"Ch\u00e9ticamp Campground - National Park","routes":["C3"],"provs":["NS"],"desc":"description: <br>Type: National Park Campground<br>ID:","sym":"Campground"},"geometry":{"type":"Point","coordinates":[-60.95415,46.65008]}},{"type":"Feature","properties":{"name":"Columbia Icefield Campground","routes":["C3"],"provs":["AB"],"desc":"description: Open: June 12 to October 14, 2024<br><br>\"Icefield Tent<br><br>Down the road from the world-renowned Columbia Icefield, this campground puts you on the doorstep of some of the most spectacular scenery on the planet. Glacier views are had from most campsites and from the windows of the cozy log cookhouses.<br><br>Tenting only.\"<br>https://parks.canada.ca/pn-np/ab/jasper/activ/passez-stay/camping?utm_source=gmb&amp;utm_medium=columbia_campground<br>Type: National Park Campground<br>ID:","sym":"Campground"},"geometry":{"type":"Point","coordinates":[-117.20457,52.22007]}},{"type":"Feature","properties":{"name":"Corney Brook Campground","routes":["C3"],"provs":["NS"],"desc":"description: <br>Type: National Park Campground<br>ID:","sym":"Campground"},"geometry":{"type":"Point","coordinates":[-60.92568,46.7261]}},{"type":"Feature","properties":{"name":"Green Point Campground (Pacific Rim National Park - Long Beach)","routes":["C2","CA"],"provs":["BC"],"desc":"description: Details from Google Maps<br>Green Point Campground, BC-4, Ucluelet, BC V0R 3A0<br>http://www.pc.gc.ca/eng/pn-np/bc/pacificrim/visit/visit4c.aspx<br>+1 877-737-3783<br>*<br>Long Beach Unit: Green Point Campground<br><br>12 km north of the Ucluelet-Tofino junction on Hwy.4, midway between Ucluelet and Tofino. <br><br>Open: May 1 \u2013 October 15, 2024<br>Type: National Park Campground<br>ID: 149.0","sym":"Campground"},"geometry":{"type":"Point","coordinates":[-125.72204,49.05623]}},{"type":"Feature","properties":{"name":"Hoodoo Creek Campground","routes":["C1"],"provs":["BC"],"desc":"description: <br>Type: National Park Campground<br>ID:","sym":"Campground"},"geometry":{"type":"Point","coordinates":[-116.5708,51.22281]}},{"type":"Feature","properties":{"name":"Illecillewaet Campground","routes":["C1"],"provs":["BC"],"desc":"description: <br>Type: National Park Campground<br>ID:","sym":"Campground"},"geometry":{"type":"Point","coordinates":[-117.49528,51.26612]}},{"type":"Feature","properties":{"name":"Johnston Canyon Campground","routes":["C1","C3","CN"],"provs":["AB"],"desc":"description: <br>Type: National Park Campground<br>ID:","sym":"Campground"},"geometry":{"type":"Point","coordinates":[-115.84185,51.24488]}},{"type":"Feature","properties":{"name":"Kicking Horse Campground","routes":["C1"],"provs":["BC"],"desc":"description: <br>Type: National Park Campground<br>ID:","sym":"Campground"},"geometry":{"type":"Point","coordinates":[-116.43542,51.42308]}},{"type":"Feature","properties":{"name":"Lake Louise Soft-Sided Trailer/Tent Campground1","routes":["C1","C3","CN","CA"],"provs":["AB"],"desc":"description: (Showers, hot/cold water, flush toilets)<br>Details from Google Maps<br>Fairview Rd, Lake Louise, AB T0Lhttps://parks.canada.ca/pn-np/ab/banff/activ/camping#lakelouisesoft<br>Type: National Park Campground<br>ID: 47.0","sym":"Campground"},"geometry":{"type":"Point","coordinates":[-116.17364,51.41763]}},{"type":"Feature","properties":{"name":"Loop Brook Campground","routes":["C1"],"provs":["BC"],"desc":"description: <br>Type: National Park Campground<br>ID:","sym":"Campground"},"geometry":{"type":"Point","coordinates":[-117.53737,51.25521]}},{"type":"Feature","properties":{"name":"Malady Head Campground","routes":["C3"],"provs":["NL"],"desc":"description: <br>Type: National Park Campground<br>ID:","sym":"Campground"},"geometry":{"type":"Point","coordinates":[-53.92079,48.6481]}},{"type":"Feature","properties":{"name":"Marble Canyon Campground (Kootenay National Park)","routes":["CN"],"provs":["BC"],"desc":"description: (Toilets, water)<br>Type: National Park Campground<br>ID:","sym":"Campground"},"geometry":{"type":"Point","coordinates":[-116.11745,51.18429]}},{"type":"Feature","properties":{"name":"McLeod Meadows CG, Kootenay NP","routes":["CN"],"provs":["BC"],"desc":"description: <br>Type: National Park Campground<br>ID:","sym":"Campground"},"geometry":{"type":"Point","coordinates":[-115.946,50.76689]}},{"type":"Feature","properties":{"name":"Merrickville Lockstation","routes":["CN"],"provs":["ON"],"desc":"description: 6) Allows tent camping for those arriving by water and also for cyclists and hikers.<br>https://www.rideau-info.com/canal/locks/21-23-merrickville.html<br>Details from Google Maps<br>Elgin St, Merrickville-Wolford, ON K0G 1N0<br>https://www.pc.gc.ca/en/lhn-nhs/on/rideau?utm_source=gmb&amp;utm_medium=rideau_lock21to23<br>+1 613-269-4787<br>Type: National Park Campground<br>ID:","sym":"Campground"},"geometry":{"type":"Point","coordinates":[-75.83549,44.91688]}},{"type":"Feature","properties":{"name":"Monarch Campground","routes":["C1"],"provs":["BC"],"desc":"description: <br>Type: National Park Campground<br>ID:","sym":"Campground"},"geometry":{"type":"Point","coordinates":[-116.44334,51.42141]}},{"type":"Feature","properties":{"name":"Mount Kerkeslin Campground","routes":["C3"],"provs":["AB"],"desc":"description: Open: May 29 to September 2, 2024<br> Reservable: All sites available on a First Come, First Served basis. No reservations possible.<br> Sites: 42<br><br> Fees: See full list of camping fees here<br> Site type:<br> Unserviced, with fire pit<br><br>This shaded campground is an excellent stop-over for tenters and RVers looking for peace and quiet along the Icefields Parkway. Located along the Athabasca River, it is just a short drive from the iconic Athabasca Falls and only 34 km from the town of Jasper.<br><br>Best suited for tents as well asmotorhomes and trailers under 27 feet.<b\u2026","sym":"Campground"},"geometry":{"type":"Point","coordinates":[-117.86712,52.63363]}},{"type":"Feature","properties":{"name":"Newman Sound Campground","routes":["C3","CA"],"provs":["NL"],"desc":"description: Terra Nova National Park - Newman Sound Campground (Mallorytown)<br>Details from Google Maps<br>Trans-Canada Hwy, Mallorytown, NL A0C 1L0<br>https://parks.canada.ca/pn-np/nl/terranova/activ/camping/ns<br>+1 877-737-3783<br>Type: National Park Campground<br>ID: 184.0","sym":"Campground"},"geometry":{"type":"Point","coordinates":[-53.97437,48.54317]}},{"type":"Feature","properties":{"name":"Otentik Upper Nicholsons, Parc Canada - lieu historique du Canal Rideau","routes":["CN"],"provs":["ON"],"desc":"description: 5) Allows tent camping for those arriving by water and also for cyclists and hikers.<br>https://www.rideau-info.com/canal/locks/19-uppernicholsons.html<br>Details from Google Maps<br>121 Andrewsville Rd, Merrickville-Wolford, ON K0G 1N0<br>https://parks.canada.ca/lhn-nhs/on/rideau/activ/camping/otentik<br>+1 877-737-3783<br>Type: National Park Campground<br>ID:","sym":"Campground"},"geometry":{"type":"Point","coordinates":[-75.81759,44.95038]}},{"type":"Feature","properties":{"name":"Petit-Gasp\u00e9 Campground","routes":["C3","CA","CL"],"provs":["QC"],"desc":"description: <br>Type: National Park Campground<br>ID:","sym":"Campground"},"geometry":{"type":"Point","coordinates":[-64.25941,48.81067]}},{"type":"Feature","properties":{"name":"Protection Mountain Campground","routes":["C1","C3","CN"],"provs":["AB"],"desc":"description: <br>Type: National Park Campground<br>ID:","sym":"Campground"},"geometry":{"type":"Point","coordinates":[-116.03831,51.32709]}},{"type":"Feature","properties":{"name":"Rampart Creek Campground","routes":["C3"],"provs":["AB"],"desc":"description: <br>Type: National Park Campground<br>ID:","sym":"Campground"},"geometry":{"type":"Point","coordinates":[-116.86641,52.03883]}},{"type":"Feature","properties":{"name":"Redstreak Campground (Kootenay National Park)","routes":["CN"],"provs":["BC"],"desc":"description: Details from Google Maps<br>Redstreak Campground Rd, East Kootenay G, BC V0A 1M0<br>www.pc.gc.ca<br>+1 877-737-3783<br>Type: National Park Campground<br>ID: 207.0","sym":"Campground"},"geometry":{"type":"Point","coordinates":[-116.06212,50.62498]}},{"type":"Feature","properties":{"name":"Rideau Canal, Lock 13 - Black Rapids Lockstation","routes":["C1","C3","CN"],"provs":["ON"],"desc":"description: 5) Allows tent camping for those arriving by water and also for cyclists and hikers.<br>https://www.rideau-info.com/canal/locks/13-blackrapids.html<br>Details from Google Maps<br>2453 Prince of Wales Dr, Ottawa, ON K2C 3H1<br>https://www.pc.gc.ca/en/lhn-nhs/on/rideau?utm_source=gmb&amp;utm_medium=rideau_lock13<br>+1 613-226-5434<br>Type: National Park Campground<br>ID:","sym":"Campground"},"geometry":{"type":"Point","coordinates":[-75.69834,45.32135]}},{"type":"Feature","properties":{"name":"Rideau Canal, Lock 18 - Lower Nicholsons","routes":["CN"],"provs":["ON"],"desc":"description: 5) Allows tent camping for those arriving by water and also for cyclists and hikers.<br>https://www.rideau-info.com/canal/locks/18-lowernicholsons.html<br>Details from Google Maps<br>Nicholson Ln, Merrickville-Wolford, ON K0G 1N0<br>https://www.pc.gc.ca/en/lhn-nhs/on/rideau?utm_source=gmb&amp;utm_medium=rideau_lock18<br>+1 613-269-4960<br>Type: National Park Campground<br>ID:","sym":"Campground"},"geometry":{"type":"Point","coordinates":[-75.81588,44.95459]}},{"type":"Feature","properties":{"name":"Rideau Canal, Lock 20 - Clowes","routes":["CN"],"provs":["ON"],"desc":"description: 5) Allows tent camping for those arriving by water and also for cyclists and hikers.<br>https://www.rideau-info.com/canal/locks/20-clowes.html<br>Details from Google Maps<br>495 Heritage Dr, Merrickville, ON K0G 1N0<br>https://www.pc.gc.ca/en/lhn-nhs/on/rideau?utm_source=gmb&amp;utm_medium=rideau_lock20<br>+1 613-269-4426<br>Type: National Park Campground<br>ID:","sym":"Campground"},"geometry":{"type":"Point","coordinates":[-75.82254,44.94646]}},{"type":"Feature","properties":{"name":"Rideau Canal, Lock 24 - Kilmarnock","routes":["CN"],"provs":["ON"],"desc":"description: 6) Allows tent camping for those arriving by water and also for cyclists and hikers.<br>https://www.rideau-info.com/canal/locks/24-kilmarnock.html<br>Details from Google Maps<br>1316 Kilmarnock Rd, Jasper, ON K0G 1G0<br>https://www.pc.gc.ca/en/lhn-nhs/on/rideau?utm_source=gmb&amp;utm_medium=rideau_lock24<br>+1 613-283-3792<br>Type: National Park Campground<br>ID:","sym":"Campground"},"geometry":{"type":"Point","coordinates":[-75.931,44.88411]}},{"type":"Feature","properties":{"name":"Rideau Canal, Lock 33 - Lower Beveridges","routes":["C3"],"provs":["ON"],"desc":"description: 5) Allows tent camping for those arriving by water and also for cyclists and hikers.<br>https://www.rideau-info.com/canal/locks/33-lowerbeveridges.html<br>Details from Google Maps<br>Beveridge Locks Rd, Perth, ON K7H 3C7<br>+1 613-267-2036<br>Type: National Park Campground<br>ID:","sym":"Campground"},"geometry":{"type":"Point","coordinates":[-76.13941,44.87519]}},{"type":"Feature","properties":{"name":"Rideau Canal, Lock 35 - Narrows","routes":["C3"],"provs":["ON"],"desc":"description: 5) Allows tent camping for those arriving by water and also for cyclists and hikers.<br>https://www.rideau-info.com/canal/locks/35-narrows.html<br>Details from Google Maps<br>Rideau Lakes, Westport, ON K0G 1V0<br>https://www.pc.gc.ca/en/lhn-nhs/on/rideau?utm_source=gmb&amp;utm_medium=rideau_lock35<br>+1 613-539-7537<br>Type: National Park Campground<br>ID:","sym":"Campground"},"geometry":{"type":"Point","coordinates":[-76.29567,44.70297]}},{"type":"Feature","properties":{"name":"Rideau Canal, Lock 36 - Newboro","routes":["C3"],"provs":["ON"],"desc":"description: https://www.rideau-info.com/canal/locks/36-newboro.html<br>5) Allows tent camping for those arriving by water and also for cyclists and hikers.<br>https://www.pc.gc.ca/en/lhn-nhs/on/rideau?utm_source=gmb&amp;utm_medium=rideau_lock36<br>Details from Google Maps<br>10 Blockhouse Ln, Elgin, ON K0G 1E0<br>www.pc.gc.ca<br>+1 613-507-3183<br>Type: National Park Campground<br>ID:","sym":"Campground"},"geometry":{"type":"Point","coordinates":[-76.32102,44.64603]}},{"type":"Feature","properties":{"name":"Rideau Canal, Lock 37 - Chaffeys","routes":["C3"],"provs":["ON"],"desc":"description: 5) Allows tent camping for those arriving by water and also for cyclists and hikers.<br>https://www.rideau-info.com/canal/locks/37-chaffeys.html<br>Details from Google Maps<br>Rideau Lakes, Westport, ON K0G 1E0<br>www.pc.gc.ca<br>+1 613-359-5914<br>Type: National Park Campground<br>ID:","sym":"Campground"},"geometry":{"type":"Point","coordinates":[-76.31955,44.57917]}},{"type":"Feature","properties":{"name":"Rideau Canal, Lock 38 - Davis","routes":["C3"],"provs":["ON"],"desc":"description: 5) Allows tent camping for those arriving by water and also for cyclists and hikers.<br>https://www.rideau-info.com/canal/locks/38-davis.html<br>Details from Google Maps<br>1822 Davis Lock Rd, Elgin, ON K0G 1E0<br>www.pc.gc.ca<br>+1 613-359-5620<br>Type: National Park Campground<br>ID:","sym":"Campground"},"geometry":{"type":"Point","coordinates":[-76.29209,44.56302]}},{"type":"Feature","properties":{"name":"Rideau Canal, Lock 45 - Lower Brewers","routes":["C2","C3"],"provs":["ON"],"desc":"description: 5) Allows tent camping for those arriving by water and also for cyclists and hikers.<br>https://www.rideau-info.com/canal/locks/45-lowerbrewers.html<br>Details from Google Maps<br>Washburn Rd, Kingston, ON K0H 1Y0<br>www.pc.gc.ca<br>Type: National Park Campground<br>ID:","sym":"Campground"},"geometry":{"type":"Point","coordinates":[-76.32506,44.3895]}},{"type":"Feature","properties":{"name":"Rideau Canal, Locks 14-16 - Long Island","routes":["CN"],"provs":["ON"],"desc":"description: 5) Allows tent camping for those arriving by water and also for cyclists and hikers.<br>https://www.rideau-info.com/canal/locks/14-16-longisland.html<br>Details from Google Maps<br>390 Nicolls Island Rd, Manotick, ON K4M 1B2<br>https://www.pc.gc.ca/en/lhn-nhs/on/rideau?utm_source=gmb&amp;utm_medium=rideau_lock14to16<br>+1 613-283-5170<br>Type: National Park Campground<br>ID:","sym":"Campground"},"geometry":{"type":"Point","coordinates":[-75.70186,45.25117]}},{"type":"Feature","properties":{"name":"Rideau Canal, Locks 39-42 - Jones Falls","routes":["C3"],"provs":["ON"],"desc":"description: 5) Allows tent camping for those arriving by water and also for cyclists and hikers.<br>https://www.rideau-info.com/canal/locks/39-42-jonesfalls.html<br>Details from Google Maps<br>Kenneys Rd, Elgin, ON K0G 1E0<br>www.pc.gc.ca<br>+1 613-507-3185<br>Type: National Park Campground<br>ID:","sym":"Campground"},"geometry":{"type":"Point","coordinates":[-76.23813,44.54517]}},{"type":"Feature","properties":{"name":"Rideau Canal, Locks 46 - 49 - Kingston Mills1","routes":["C2","C3","CL"],"provs":["ON"],"desc":"description: 5) Allows tent camping for those arriving by water and also for cyclists and hikers.<br>https://www.rideau-info.com/canal/locks/46-49-kingstonmills.html?utm_source=gmb&amp;utm_medium=rideau_lock46to49<br>Details from Google Maps<br>Kingston Mills Rd, Kingston, ON K7L 4V3<br>+1 613-507-3188<br>Type: National Park Campground<br>ID:","sym":"Campground"},"geometry":{"type":"Point","coordinates":[-76.442,44.29287]}},{"type":"Feature","properties":{"name":"Rosebush Campground - Forillon National Park","routes":["C3","CA","CL"],"provs":["QC"],"desc":"description: <br>Type: National Park Campground<br>ID:","sym":"Campground"},"geometry":{"type":"Point","coordinates":[-64.22445,48.82896]}},{"type":"Feature","properties":{"name":"SMONE\u0106TEN Campground, Gulf Islands National Park Reserve, Parks Canada (open May 15 to Sept 30)","routes":["C1","C3","CA","CL","CW"],"provs":["BC"],"desc":"https://cartes.app/?allez=Smone\u0107ten (McDonald) Campground|w156900831|-123.42652|48.67372#15.54/48.673959/-123.426379 \n<iframe\n     src=\"https://cartes.app/?allez=Smone\u0107ten (McDonald) Campground|w156900831|-123.42686|48.67401#15.38/48.673959/-123.426379\"\n     style=\"\n     width: 20rem;\n     height: 36rem;\n     max-width: 100%;\n     margin: 0 auto;\n     margin-bottom: 5vh;\n     display: block;\n     box-shadow: rgba(0, 0, 0, 0.1) 0px 20px 25px -5px,\n      rgba(0, 0, 0, 0.04) 0px 10px 10px -5px;\n      background: linear-gradient(white, white) padding-box, linear-gradient(to right, #2988e6, #57bff5\u2026","sym":"Campground"},"geometry":{"type":"Point","coordinates":[-123.42704,48.67412]}},{"type":"Feature","properties":{"name":"Tamarack Campsites","routes":["C2","C3"],"provs":["ON"],"desc":"description: https://parks.canada.ca/pn-np/on/bruce/activ/camping/cyprus<br>Type: National Park Campground<br>ID:","sym":"Campground"},"geometry":{"type":"Point","coordinates":[-81.52897,45.22805]}},{"type":"Feature","properties":{"name":"Trent Severn Waterway, Lock 36 - Kirkfield Lift Lock","routes":["C3"],"provs":["ON"],"desc":"description: GPS: 44\u00b0 35' 22\" N ~ 78\u00b0 59' 23\" W<br>Mile # 169.4 (272.6 km)<br>Average Lift: 49 ft (14.9 m)<br>Phone # (705) 438-3126<br><br>Lockstations with camping:<br><br>Tent camping is allowed at most lockstations on the Trent-Severn Waterway at the discretion of the lockmaster on duty. Sites are typically located in grassy areas around the lockstation and adjacent the waterway's mooring walls and/or paddle docks.<br>https://parks.canada.ca/lhn-nhs/on/trentsevern/activ/camping/tente-tent<br>Type: National Park Campground<br>ID:","sym":"Campground"},"geometry":{"type":"Point","coordinates":[-78.99003,44.59014]}},{"type":"Feature","properties":{"name":"Trent-Severn Waterway, Lock 33 - Lindsay","routes":["C3","CA"],"provs":["ON"],"desc":"description: GPS: 44 21' 25\" N ~ 78 44' 17\" W<br>Mile # 156.4 (251.6 km)<br>Dimensions: 120' (36.6m) Long, 32' (9.7m) Wide<br>Average Lift: 7 ft (2.1 m)<br>Phone # (705) 324-2393<br><br>Lockstations with camping:<br><br>Tent camping is allowed at most lockstations on the Trent-Severn Waterway at the discretion of the lockmaster on duty. Sites are typically located in grassy areas around the lockstation and adjacent the waterway's mooring walls and/or paddle docks.<br>https://parks.canada.ca/lhn-nhs/on/trentsevern/activ/camping/tente-tent<br>Type: National Park Campground<br>ID:","sym":"Campground"},"geometry":{"type":"Point","coordinates":[-78.73503,44.35704]}},{"type":"Feature","properties":{"name":"Tunnel Mountain Village II Campground","routes":["C1","C3"],"provs":["AB"],"desc":"description: (Shower building closed 2024)<br>Type: National Park Campground<br>ID:","sym":"Campground"},"geometry":{"type":"Point","coordinates":[-115.54087,51.18823]}},{"type":"Feature","properties":{"name":"Upper Brewers - Lock 44","routes":["C3"],"provs":["ON"],"desc":"description: 5) Allows tent camping for those arriving by water and also for cyclists and hikers.<br>https://www.rideau-info.com/canal/locks/43-44-upperbrewers.html<br>Type: National Park Campground<br>ID:","sym":"Campground"},"geometry":{"type":"Point","coordinates":[-76.31305,44.4123]}},{"type":"Feature","properties":{"name":"Wapiti Campground (Jasper National Park)","routes":["C3","CA"],"provs":["AB"],"desc":"description: Open: May 15 to October 21, 2024<br> Reservable: Yes<br> Sites: 363<br>Fees: See full list of camping fees here<br> Site type:<br> Electrical, with fire pit<br> Electrical<br> Unserviced, with fire pit<br>On the shore of the Athabasca River, Wapiti Campground has sites for tenting and electrical hook-up spots for RVs. Offering 363 sites with amenities like hot showers, electricity and fire pits.<br><br>Can accommodate most sizes of motorhomes and trailers. Electrical campsites only are equipped with 15, 30, and 50 amp service.<br><br>To ensure the safety of campers, many dead and \u2026","sym":"Campground"},"geometry":{"type":"Point","coordinates":[-118.06257,52.83377]}},{"type":"Feature","properties":{"name":"Waterfowl Lakes Campground (Banff National Park)","routes":["C3","CA"],"provs":["AB"],"desc":"description: (water, toilets, cooking shelter) - no cell service on Icefields pkwy<br>Details from Google Maps<br>Icefields Pkwy, Jasper, AB T0Lhttps://parks.canada.ca/pn-np/ab/banff/activ/camping#waterfowl<br>Type: National Park Campground<br>ID: 166.0","sym":"Campground"},"geometry":{"type":"Point","coordinates":[-116.62043,51.84291]}},{"type":"Feature","properties":{"name":"Whistlers Campground (Jasper National Park)","routes":["C3","CA"],"provs":["AB"],"desc":"description: Details from Google Maps<br>67 19, Jasper, AB T0E 1E0<br>https://parks.canada.ca/pn-np/ab/jasper/activ/passez-stay/camping/whistlers<br>+1 877-737-3783<br>Type: National Park Campground<br>ID: 125.0","sym":"Campground"},"geometry":{"type":"Point","coordinates":[-118.07745,52.8505]}},{"type":"Feature","properties":{"name":"Wilcox Creek Campground","routes":["C3"],"provs":["AB"],"desc":"description: Open: June 12 to September 16, 2024<br>https://parks.canada.ca/pn-np/ab/jasper/activ/passez-stay/camping?utm_source=gmb&amp;utm_medium=wilcox#wilcox<br>Type: National Park Campground<br>ID:","sym":"Campground"},"geometry":{"type":"Point","coordinates":[-117.17684,52.21879]}}]}