{"type":"FeatureCollection","features":[{"type":"Feature","properties":{"name":"Barb's Laundromat (213 Algoma St S, Thunder Bay, ON P7B 3C1)","routes":["C1","C2","C3"],"provs":["ON"],"desc":"Barb's Laundromat\n\n213 Algoma St S, Thunder Bay, ON P7B 3C1\n\n+18073450401","sym":"Amusement Park"},"geometry":{"type":"Point","coordinates":[-89.2306,48.43034]}},{"type":"Feature","properties":{"name":"Brite 'N Kleen Laundromat","routes":["C3","CN"],"provs":["NS"],"desc":"Truro","sym":"Amusement Park"},"geometry":{"type":"Point","coordinates":[-63.27489,45.36295]}},{"type":"Feature","properties":{"name":"Burns Lake Laundromat","routes":["C3","CA"],"provs":["BC"],"desc":"residential area","sym":"Amusement Park"},"geometry":{"type":"Point","coordinates":[-125.76293,54.23036]}},{"type":"Feature","properties":{"name":"CopperSide Laundromat","routes":["C3","CA"],"provs":["BC"],"desc":"area","sym":"Amusement Park"},"geometry":{"type":"Point","coordinates":[-128.6107,54.51676]}},{"type":"Feature","properties":{"name":"Dirty Laundry","routes":["C1","C3","CN","CA"],"provs":["AB"],"desc":"Town Centre","sym":"Amusement Park"},"geometry":{"type":"Point","coordinates":[-115.35673,51.08931]}},{"type":"Feature","properties":{"name":"Downtown Coin Laundry","routes":["C2","C3"],"provs":["ON"],"desc":"residential area","sym":"Amusement Park"},"geometry":{"type":"Point","coordinates":[-80.9418,44.56737]}},{"type":"Feature","properties":{"name":"Halifax Laundry Co.","routes":["C2","CN","CA"],"provs":["NS"],"desc":"area","sym":"Amusement Park"},"geometry":{"type":"Point","coordinates":[-63.5851,44.65155]}},{"type":"Feature","properties":{"name":"King Koin Laundromat","routes":["C3","CW"],"provs":["BC"],"desc":"area","sym":"Amusement Park"},"geometry":{"type":"Point","coordinates":[-130.32958,54.31083]}},{"type":"Feature","properties":{"name":"Kink Koin Laundry (Laundry)","routes":["C2","CA"],"provs":["AB"],"desc":"Kink Koin Laundry (Laundry)","sym":"Amusement Park"},"geometry":{"type":"Point","coordinates":[-112.82581,49.69668]}},{"type":"Feature","properties":{"name":"Lakeside Laundry","routes":["C2","CA"],"provs":["BC"],"desc":"area","sym":"Amusement Park"},"geometry":{"type":"Point","coordinates":[-119.44875,49.02869]}},{"type":"Feature","properties":{"name":"Market Cleaners","routes":["C1","C3","CN","CA"],"provs":["ON","QC"],"desc":"area","sym":"Amusement Park"},"geometry":{"type":"Point","coordinates":[-75.69178,45.42953]}},{"type":"Feature","properties":{"name":"Nipigon Husky Travel Centre (Clean washrooms with shower and laundry facilities)","routes":["C1","C2","C3","CA"],"provs":["ON"],"desc":"Nipigon Husky Travel Centre","sym":"Amusement Park"},"geometry":{"type":"Point","coordinates":[-88.30426,49.01932]}},{"type":"Feature","properties":{"name":"Princeton Deerview Laundromat & Laundry Services","routes":["C1","C2","CA"],"provs":["BC"],"desc":"area","sym":"Amusement Park"},"geometry":{"type":"Point","coordinates":[-120.50698,49.45797]}},{"type":"Feature","properties":{"name":"Public Laundry (Laundry)","routes":["C2","CN"],"provs":["BC"],"desc":"Public Laundry (Laundry)","sym":"Amusement Park"},"geometry":{"type":"Point","coordinates":[-122.40203,49.0572]}},{"type":"Feature","properties":{"name":"Quality Coin Laundry","routes":["C1","C2","CA"],"provs":["AB"],"desc":"area","sym":"Amusement Park"},"geometry":{"type":"Point","coordinates":[-110.6687,50.02903]}},{"type":"Feature","properties":{"name":"Radium Laundromat","routes":["CN"],"provs":["BC"],"desc":"Radium Supermart","sym":"Amusement Park"},"geometry":{"type":"Point","coordinates":[-116.07164,50.6229]}},{"type":"Feature","properties":{"name":"Scrubby's Laundromat","routes":["C1","C3","CA"],"provs":["BC"],"desc":"retail area","sym":"Amusement Park"},"geometry":{"type":"Point","coordinates":[-123.38613,48.45045]}},{"type":"Feature","properties":{"name":"Share Bear's Laundromat","routes":["C2","CA"],"provs":["ON"],"desc":"Fort Frances","sym":"Amusement Park"},"geometry":{"type":"Point","coordinates":[-93.42725,48.60654]}},{"type":"Feature","properties":{"name":"Snowdome Coffee Bar & Laundry","routes":["C3","CA"],"provs":["AB"],"desc":"Snowdome Coffee Bar & Laundry","sym":"Amusement Park"},"geometry":{"type":"Point","coordinates":[-118.08129,52.87574]}},{"type":"Feature","properties":{"name":"Soap & Suds","routes":["C2","CA"],"provs":["BC"],"desc":"commercial/industrial area","sym":"Amusement Park"},"geometry":{"type":"Point","coordinates":[-117.65205,49.29581]}},{"type":"Feature","properties":{"name":"Spotless Dry Cleaners and Laundromats","routes":["C3","CN"],"provs":["BC"],"desc":"residential area","sym":"Amusement Park"},"geometry":{"type":"Point","coordinates":[-122.76354,53.92093]}},{"type":"Feature","properties":{"name":"St George Mini Mart & Laundromat","routes":["CN"],"provs":["NB"],"desc":"Moncton","sym":"Amusement Park"},"geometry":{"type":"Point","coordinates":[-64.7749,46.09274]}},{"type":"Feature","properties":{"name":"Suds & Duds Laundromat","routes":["C2"],"provs":["BC"],"desc":"commercial/industrial area","sym":"Amusement Park"},"geometry":{"type":"Point","coordinates":[-115.75529,49.52403]}},{"type":"Feature","properties":{"name":"Suds N' Duds Drycleaning & Laundry Service","routes":["C3","CA"],"provs":["BC"],"desc":"145 Stewart St W, Vanderhoof, BC V0J 3A0\n\n+12505672266","sym":"Amusement Park"},"geometry":{"type":"Point","coordinates":[-124.01046,54.01629]}},{"type":"Feature","properties":{"name":"Super Clean Coin Laundry","routes":["C1","CN","CA"],"provs":["PE"],"desc":"residential area","sym":"Amusement Park"},"geometry":{"type":"Point","coordinates":[-63.13094,46.23964]}},{"type":"Feature","properties":{"name":"Valley Wash Inn (Laundromat)","routes":["C2","CA"],"provs":["BC"],"desc":"commercial/industrial area","sym":"Amusement Park"},"geometry":{"type":"Point","coordinates":[-116.50496,49.09574]}},{"type":"Feature","properties":{"name":"Wash the Works","routes":["C3","CA"],"provs":["BC"],"desc":"4148 BC-16, Smithers, BC V0J 2N6\n\n+12508474177","sym":"Amusement Park"},"geometry":{"type":"Point","coordinates":[-127.17198,54.78686]}},{"type":"Feature","properties":{"name":"Washtub Launderette","routes":["C1","C2","CN","CA"],"provs":["BC"],"desc":"residential area","sym":"Amusement Park"},"geometry":{"type":"Point","coordinates":[-121.43668,49.38144]}}]}