{"type":"FeatureCollection","features":[{"type":"Feature","properties":{"name":"Centennial Park (Whitefish)","routes":["C1","CA","CL"],"provs":["ON"],"desc":"description: 2024 Season - May 17, 2024 to September 15, 2024. <br>Details from Google Maps<br>400 Graham Rd, Whitefish, ON P0M 3E0<br>https://www.greatersudbury.ca/play/campgrounds-and-trailer-parks/centennial-park/<br>+1 705-866-0338<br>Type: Regional Park Campground<br>ID: 97.0","sym":"Campground"},"geometry":{"type":"Point","coordinates":[-81.28346,46.39149]}},{"type":"Feature","properties":{"name":"Charlottenburgh Park","routes":["C2","CA"],"provs":["ON"],"desc":"description: <br>Type: Regional Park Campground<br>ID:","sym":"Campground"},"geometry":{"type":"Point","coordinates":[-74.52599,45.08784]}},{"type":"Feature","properties":{"name":"Crysler Park Marina","routes":["C2"],"provs":["ON"],"desc":"description: <br>Type: Regional Park Campground<br>ID:","sym":"Campground"},"geometry":{"type":"Point","coordinates":[-75.09154,44.93821]}},{"type":"Feature","properties":{"name":"Glengarry Campground","routes":["C2","CA"],"provs":["ON"],"desc":"description: <br>Type: Regional Park Campground<br>ID:","sym":"Campground"},"geometry":{"type":"Point","coordinates":[-74.46298,45.15237]}},{"type":"Feature","properties":{"name":"Indian Line Campground1","routes":["C2","CN","CA","CL"],"provs":["ON"],"desc":"description: Details from Google Maps<br>7625 Finch Ave W, Brampton, ON L6T 0B2<br>trca.ca<br>+1 855-811-0111<br>Type: Regional Park Campground<br>ID: 134.0","sym":"Campground"},"geometry":{"type":"Point","coordinates":[-79.63664,43.73647]}},{"type":"Feature","properties":{"name":"Ivy Lea Campground","routes":["C2"],"provs":["ON"],"desc":"description: <br>Type: Regional Park Campground<br>ID:","sym":"Campground"},"geometry":{"type":"Point","coordinates":[-75.98446,44.36913]}},{"type":"Feature","properties":{"name":"Moosomin & District Regional Park1","routes":["C1","CA"],"provs":["SK"],"desc":"description: Details from Google Maps<br>801 Main St, Moosomin, SK S0G 3N0<br>moosominregionalpark.com<br>+1 306-435-3531<br>Type: Regional Park Campground<br>ID: 198.0","sym":"Campground"},"geometry":{"type":"Point","coordinates":[-101.70757,50.07572]}},{"type":"Feature","properties":{"name":"Riverside-Cedar Campground","routes":["C2"],"provs":["ON"],"desc":"description: <br>Type: Regional Park Campground<br>ID:","sym":"Campground"},"geometry":{"type":"Point","coordinates":[-75.12054,44.93378]}},{"type":"Feature","properties":{"name":"Saltcoats & District Regional Park","routes":["C3"],"provs":["SK"],"desc":"description: <br>Type: Regional Park Campground<br>ID:","sym":"Campground"},"geometry":{"type":"Point","coordinates":[-102.15261,51.03211]}},{"type":"Feature","properties":{"name":"Upper Canada Migratory Bird Sanctuary Campground","routes":["C2"],"provs":["ON"],"desc":"description: <br>Type: Regional Park Campground<br>ID:","sym":"Campground"},"geometry":{"type":"Point","coordinates":[-75.01939,44.96181]}},{"type":"Feature","properties":{"name":"Woodlands Campground","routes":["C2"],"provs":["ON"],"desc":"description: <br>Type: Regional Park Campground<br>ID:","sym":"Campground"},"geometry":{"type":"Point","coordinates":[-74.95108,44.99472]}}]}