{"type":"FeatureCollection","features":[{"type":"Feature","properties":{"name":"Agassiz-Harrison Museum & Visitor Information Centre","desc":"area","sym":"Information"},"geometry":{"type":"Point","coordinates":[-121.76553,49.23906]}},{"type":"Feature","properties":{"name":"Alberni Valley Chamber of Commerce","desc":"Vancouver Island","sym":"Information"},"geometry":{"type":"Point","coordinates":[-124.75978,49.26422]}},{"type":"Feature","properties":{"name":"Antigonish Visitor Information Centre","desc":"Antigonish Public Library","sym":"Information"},"geometry":{"type":"Point","coordinates":[-61.99193,45.62208]}},{"type":"Feature","properties":{"name":"Apple Capital Museum and Visitor Information Centre","desc":"Berwick","sym":"Information"},"geometry":{"type":"Point","coordinates":[-64.73503,45.04162]}},{"type":"Feature","properties":{"name":"Armstrong Spallumcheen Chamber Of Commerce & Visitor Centre","desc":"residential area","sym":"Information"},"geometry":{"type":"Point","coordinates":[-119.19684,50.44823]}},{"type":"Feature","properties":{"name":"Atikokan Travel Information Centre (open weekdays)","desc":"(May or may not have washrooms)","sym":"Information"},"geometry":{"type":"Point","coordinates":[-91.59917,48.72479]}},{"type":"Feature","properties":{"name":"Baddeck - Visitor Information Center","desc":"residential area","sym":"Information"},"geometry":{"type":"Point","coordinates":[-60.75328,46.09961]}},{"type":"Feature","properties":{"name":"Banff Visitor Centre","desc":"Downtown","sym":"Information"},"geometry":{"type":"Point","coordinates":[-115.57039,51.17804]}},{"type":"Feature","properties":{"name":"Batchawana Tourist Information Centre (toilets)  (no camping - day use only)","desc":"Public Rest Area Closed\n\nHighway 17 Eastbound\n\n61.0 km W of Sault Ste. Marie, 2.5km E of HWY 563\n\nName \tBatchawana Tourist Information Centre\n\nType \tRest Area\n\nStatus \tClosed\n\nOpen \tYear-round\n\nTruck Parking \tY\n\nLavatory \tY\n\nBarrier Free \tY\n\nFood Services \tNot Available\n\nFuel \tN","sym":"Information"},"geometry":{"type":"Point","coordinates":[-84.55047,46.94379]}},{"type":"Feature","properties":{"name":"Beiseker Information Centre","desc":"Beiseker Information Centre","sym":"Information"},"geometry":{"type":"Point","coordinates":[-113.53819,51.3857]}},{"type":"Feature","properties":{"name":"Blind River Travel Information Centre","desc":"Blind River Travel Information Centre","sym":"Information"},"geometry":{"type":"Point","coordinates":[-82.93281,46.18494]}},{"type":"Feature","properties":{"name":"Borden-Carleton Visitor Information Centre","desc":"Gateway Village","sym":"Information"},"geometry":{"type":"Point","coordinates":[-63.69538,46.25499]}},{"type":"Feature","properties":{"name":"Brandon Tourism (Riverbank Discovery Centre)","desc":"Riverbank Discovery Centre","sym":"Information"},"geometry":{"type":"Point","coordinates":[-99.95668,49.86049]}},{"type":"Feature","properties":{"name":"Bridge town area visitor information center","desc":"forest, park","sym":"Information"},"geometry":{"type":"Point","coordinates":[-65.29369,44.84198]}},{"type":"Feature","properties":{"name":"Bureau d'accueil touristique","desc":"area","sym":"Information"},"geometry":{"type":"Point","coordinates":[-72.24707,46.50014]}},{"type":"Feature","properties":{"name":"Bureau d'information touristique de Rivi\u00e8re-du-Loup","desc":"information","sym":"Information"},"geometry":{"type":"Point","coordinates":[-69.54474,47.82984]}},{"type":"Feature","properties":{"name":"Bureau D'Information Touristique de Trois-Rivi\u00e8res","desc":"Bureau D'Information Touristique de Trois-Rivi\u00e8res","sym":"Information"},"geometry":{"type":"Point","coordinates":[-72.54058,46.34151]}},{"type":"Feature","properties":{"name":"Burns Lake Visitor Centre (washrooms)","desc":"540 Highway 16, 108 Park St W, Burns Lake, BC V0J 1E0\n\n+12506925077","sym":"Information"},"geometry":{"type":"Point","coordinates":[-125.76286,54.23214]}},{"type":"Feature","properties":{"name":"Cache Creek Visitor Information Centre","sym":"Information"},"geometry":{"type":"Point","coordinates":[-121.32408,50.81101]}},{"type":"Feature","properties":{"name":"Calgary Visitor Information kiosk (seasonal)","desc":"Calgary Tower","sym":"Information"},"geometry":{"type":"Point","coordinates":[-114.06288,51.04448]}},{"type":"Feature","properties":{"name":"Campbell River Visitor Centre","desc":"information","sym":"Information"},"geometry":{"type":"Point","coordinates":[-125.24474,50.02719]}},{"type":"Feature","properties":{"name":"Cape Spear","desc":"information","sym":"Information"},"geometry":{"type":"Point","coordinates":[-52.6235,47.52246]}},{"type":"Feature","properties":{"name":"Castlegar Visitors Centre and Chamber of Commerce","desc":"information","sym":"Information"},"geometry":{"type":"Point","coordinates":[-117.65152,49.29587]}},{"type":"Feature","properties":{"name":"Centre D'Info Touristique / Visitor Information Center - Bathurst","desc":"residential area","sym":"Information"},"geometry":{"type":"Point","coordinates":[-65.65823,47.62094]}},{"type":"Feature","properties":{"name":"Centre d'interpr\u00e9tation Zoom Nature","desc":"area","sym":"Information"},"geometry":{"type":"Point","coordinates":[-68.20582,48.59369]}},{"type":"Feature","properties":{"name":"Centre Infotouriste de Montreal","desc":"Centre Infotouriste de Montreal","sym":"Information"},"geometry":{"type":"Point","coordinates":[-73.57181,45.50024]}},{"type":"Feature","properties":{"name":"Centre Infotouriste de Quebec (Quebec City)","desc":"Centre Infotouriste de Quebec","sym":"Information"},"geometry":{"type":"Point","coordinates":[-71.20561,46.81313]}},{"type":"Feature","properties":{"name":"Centre Infotouriste de Rigaud","desc":"Centre Infotouriste de Rigaud","sym":"Information"},"geometry":{"type":"Point","coordinates":[-74.28348,45.4769]}},{"type":"Feature","properties":{"name":"Chamber Of Commerce Tourist Information Centre (Woodstock)","desc":"Bugle-Observer","sym":"Information"},"geometry":{"type":"Point","coordinates":[-67.57133,46.14948]}},{"type":"Feature","properties":{"name":"Chaplin Tourism Saskatchewan","sym":"Information"},"geometry":{"type":"Point","coordinates":[-106.65955,50.45661]}},{"type":"Feature","properties":{"name":"Charlottetown Visitor Information Centre","desc":"Founders Hall","sym":"Information"},"geometry":{"type":"Point","coordinates":[-63.12068,46.23371]}},{"type":"Feature","properties":{"name":"Chase Information Center","desc":"Chase Information Center","sym":"Information"},"geometry":{"type":"Point","coordinates":[-119.69409,50.81552]}},{"type":"Feature","properties":{"name":"Chilliwack Visitor Centre","desc":"Chilliwack Visitor Centre","sym":"Information"},"geometry":{"type":"Point","coordinates":[-122.00169,49.14356]}},{"type":"Feature","properties":{"name":"Christina Lake Welcome Centre","desc":"area","sym":"Information"},"geometry":{"type":"Point","coordinates":[-118.20641,49.04494]}},{"type":"Feature","properties":{"name":"Ch\u00e9ticamp Visitor Centre","desc":"Cape Breton Highlands National Park","sym":"Information"},"geometry":{"type":"Point","coordinates":[-60.95067,46.6469]}},{"type":"Feature","properties":{"name":"Cochrane Information Centre","sym":"Information"},"geometry":{"type":"Point","coordinates":[-114.47298,51.19148]}},{"type":"Feature","properties":{"name":"Columbia Icefield Discovery Centre","desc":"area","sym":"Information"},"geometry":{"type":"Point","coordinates":[-117.22476,52.22019]}},{"type":"Feature","properties":{"name":"Corner Brook-Bay of Islands - Visitors Information","desc":"Corner Brook","sym":"Information"},"geometry":{"type":"Point","coordinates":[-57.91761,48.94273]}},{"type":"Feature","properties":{"name":"Cranbrook","sym":"Information"},"geometry":{"type":"Point","coordinates":[-115.79291,49.49935]}},{"type":"Feature","properties":{"name":"Creston Valley Visitor Centre","desc":"area","sym":"Information"},"geometry":{"type":"Point","coordinates":[-116.51472,49.09583]}},{"type":"Feature","properties":{"name":"Cypress Hills Destination Area (Maple Creek)","desc":"area","sym":"Information"},"geometry":{"type":"Point","coordinates":[-109.47898,49.90783]}},{"type":"Feature","properties":{"name":"Digby Visitor Information Ctr","desc":"residential area","sym":"Information"},"geometry":{"type":"Point","coordinates":[-65.75492,44.62102]}},{"type":"Feature","properties":{"name":"Drumheller Visitor Information Centre","desc":"information","sym":"Information"},"geometry":{"type":"Point","coordinates":[-112.70893,51.46747]}},{"type":"Feature","properties":{"name":"Dryden Visitor Information","desc":"residential area","sym":"Information"},"geometry":{"type":"Point","coordinates":[-92.83804,49.78632]}},{"type":"Feature","properties":{"name":"Foam Lake Visitor Info Ctr and Campground","desc":"area","sym":"Information"},"geometry":{"type":"Point","coordinates":[-103.53687,51.63725]}},{"type":"Feature","properties":{"name":"Fredericton Tourism","desc":"residential area","sym":"Information"},"geometry":{"type":"Point","coordinates":[-66.64334,45.9635]}},{"type":"Feature","properties":{"name":"Golden Visitor Centre","desc":"area","sym":"Information"},"geometry":{"type":"Point","coordinates":[-116.96802,51.3096]}},{"type":"Feature","properties":{"name":"Grand Forks Visitors Centre","desc":"Gallery2","sym":"Information"},"geometry":{"type":"Point","coordinates":[-118.44164,49.03259]}},{"type":"Feature","properties":{"name":"Greenwood Museum","desc":"Greenwood Museum","sym":"Information"},"geometry":{"type":"Point","coordinates":[-118.67708,49.08994]}},{"type":"Feature","properties":{"name":"Grenfell Tourism Info Centre","desc":"area","sym":"Information"},"geometry":{"type":"Point","coordinates":[-102.93034,50.4056]}},{"type":"Feature","properties":{"name":"Grey Highlands Chamber of Commerce & Tourist Information","desc":"Grey Highlands Chamber of Commerce & Tourist Information","sym":"Information"},"geometry":{"type":"Point","coordinates":[-80.64763,44.31848]}},{"type":"Feature","properties":{"name":"Gull Lake Visitor Centre","desc":"area","sym":"Information"},"geometry":{"type":"Point","coordinates":[-108.48313,50.09836]}},{"type":"Feature","properties":{"name":"Halifax Vistors Information","sym":"Information"},"geometry":{"type":"Point","coordinates":[-63.57018,44.6473]}},{"type":"Feature","properties":{"name":"Halte de Bonaventure (toilets, water, visitors info)","desc":"area","sym":"Information"},"geometry":{"type":"Point","coordinates":[-65.49095,48.04472]}},{"type":"Feature","properties":{"name":"Halte de Gasp\u00e9 (Harbour) (Toilets, water, phone, visitors centre)","desc":"area","sym":"Drinking Water"},"geometry":{"type":"Point","coordinates":[-64.4781,48.82383]}},{"type":"Feature","properties":{"name":"Halte de Port-Daniel - Gascons 1 (Toilets, water, phone, visitors information)","desc":"area","sym":"Information"},"geometry":{"type":"Point","coordinates":[-64.96372,48.1832]}},{"type":"Feature","properties":{"name":"Halte des Corsaires-Acadiens-de-la-Petite-Rochelle (toilets, water, visitors information)","sym":"Drinking Water"},"geometry":{"type":"Point","coordinates":[-66.7032,48.03336]}},{"type":"Feature","properties":{"name":"Happy Rock - Gladstone Visitor's Center","desc":"Happy Rock - Gladstone Visitor's Center","sym":"Information"},"geometry":{"type":"Point","coordinates":[-98.95261,50.22007]}},{"type":"Feature","properties":{"name":"Hazelton Area Tourist Info Ctr","desc":"parking","sym":"Information"},"geometry":{"type":"Point","coordinates":[-127.59401,55.24729]}},{"type":"Feature","properties":{"name":"Hedley Museum & Tourist Booth","desc":"Hedley Museum","sym":"Information"},"geometry":{"type":"Point","coordinates":[-120.07776,49.35625]}},{"type":"Feature","properties":{"name":"Hope, BC - Visitors information","desc":"information","sym":"Information"},"geometry":{"type":"Point","coordinates":[-121.44193,49.37702]}},{"type":"Feature","properties":{"name":"Houston - Visitor Centre","desc":"Visitor Centre","sym":"Information"},"geometry":{"type":"Point","coordinates":[-126.65093,54.39947]}},{"type":"Feature","properties":{"name":"Indian Head Tourist Information Center","sym":"Information"},"geometry":{"type":"Point","coordinates":[-103.67753,50.52699]}},{"type":"Feature","properties":{"name":"information","desc":"information","sym":"Information"},"geometry":{"type":"Point","coordinates":[-67.52762,46.29694]}},{"type":"Feature","properties":{"name":"information (Perth)","desc":"information","sym":"Information"},"geometry":{"type":"Point","coordinates":[-76.24881,44.90076]}},{"type":"Feature","properties":{"name":"Informations Touristiques Du Bas-St-Laurent","desc":"Informations Touristiques Du Bas-St-Laurent","sym":"Information"},"geometry":{"type":"Point","coordinates":[-70.05323,47.37749]}},{"type":"Feature","properties":{"name":"Ingonish Visitor Centre","desc":"information","sym":"Information"},"geometry":{"type":"Point","coordinates":[-60.40169,46.64617]}},{"type":"Feature","properties":{"name":"Inverness Visitor Information Centre","desc":"residential area","sym":"Information"},"geometry":{"type":"Point","coordinates":[-61.30762,46.22767]}},{"type":"Feature","properties":{"name":"Jasper Park Information Centre","desc":"Jasper Park Information Centre","sym":"Information"},"geometry":{"type":"Point","coordinates":[-118.08082,52.87737]}},{"type":"Feature","properties":{"name":"Kamloops Visitor Centre","desc":"Kamloops Visitor Centre","sym":"Information"},"geometry":{"type":"Point","coordinates":[-120.36782,50.65485]}},{"type":"Feature","properties":{"name":"Kelowna Visitor Centre (lots of bike shops in town)","desc":"Stuart Park","sym":"Information"},"geometry":{"type":"Point","coordinates":[-119.4981,49.88751]}},{"type":"Feature","properties":{"name":"Keremeos Visitors Centre (Similkameen Country Tourist Information)","sym":"Information"},"geometry":{"type":"Point","coordinates":[-119.82893,49.20506]}},{"type":"Feature","properties":{"name":"Kingston","desc":"information","sym":"Information"},"geometry":{"type":"Point","coordinates":[-76.48019,44.22933]}},{"type":"Feature","properties":{"name":"Kingston Greenwood Information Center","desc":"Kingston Greenwood Information Center","sym":"Information"},"geometry":{"type":"Point","coordinates":[-64.95201,44.98629]}},{"type":"Feature","properties":{"name":"Lake Louise Visitor Centre","sym":"Information"},"geometry":{"type":"Point","coordinates":[-116.179,51.42631]}},{"type":"Feature","properties":{"name":"Lake of the Woods Discovery Centre (Husky the Muskie sculpture)","desc":"service road","sym":"Information"},"geometry":{"type":"Point","coordinates":[-94.53036,49.76043]}},{"type":"Feature","properties":{"name":"Lake Superior Provincial Park Visitors Centre","sym":"Information"},"geometry":{"type":"Point","coordinates":[-84.61718,47.33613]}},{"type":"Feature","properties":{"name":"Lekwungen Territory (Victoria) Info","sym":"Information"},"geometry":{"type":"Point","coordinates":[-123.36882,48.42282]}},{"type":"Feature","properties":{"name":"Malabeam Information Centre (Grand Falls)","desc":"Malabeam Information Centre","sym":"Information"},"geometry":{"type":"Point","coordinates":[-67.73831,47.05174]}},{"type":"Feature","properties":{"name":"Manitoba Visitor Information Centre (Kirkella)","desc":"information","sym":"Information"},"geometry":{"type":"Point","coordinates":[-101.36918,50.03036]}},{"type":"Feature","properties":{"name":"Manitoulin Tourist Information Centre","desc":"information","sym":"Information"},"geometry":{"type":"Point","coordinates":[-81.9176,45.97888]}},{"type":"Feature","properties":{"name":"Manning Park Visitor Centre (washroom)","desc":"Manning Park Visitor Centre","sym":"Information"},"geometry":{"type":"Point","coordinates":[-120.76782,49.06281]}},{"type":"Feature","properties":{"name":"McBride Visitor Centre","desc":"area","sym":"Information"},"geometry":{"type":"Point","coordinates":[-120.17018,53.30087]}},{"type":"Feature","properties":{"name":"Meaford Visitor Information Centre","desc":"Meaford Visitor Information Centre","sym":"Information"},"geometry":{"type":"Point","coordinates":[-80.59223,44.60865]}},{"type":"Feature","properties":{"name":"Middleton Visitor Info Ctr","desc":"Visitor Information Centre","sym":"Information"},"geometry":{"type":"Point","coordinates":[-65.06923,44.94146]}},{"type":"Feature","properties":{"name":"Moncton Visitors Information","sym":"Information"},"geometry":{"type":"Point","coordinates":[-64.77114,46.08934]}},{"type":"Feature","properties":{"name":"Mount Robson Visitors Centre","sym":"Information"},"geometry":{"type":"Point","coordinates":[-119.2291,53.03547]}},{"type":"Feature","properties":{"name":"Municipalit\u00e9 de Sainte-Florence","desc":"area","sym":"Information"},"geometry":{"type":"Point","coordinates":[-67.23719,48.26416]}},{"type":"Feature","properties":{"name":"Nelson Visitor Centre","desc":"Visitor Center","sym":"Information"},"geometry":{"type":"Point","coordinates":[-117.30148,49.4894]}},{"type":"Feature","properties":{"name":"New Richmond Tourist Information Centre","desc":"area","sym":"Information"},"geometry":{"type":"Point","coordinates":[-65.89174,48.20648]}},{"type":"Feature","properties":{"name":"Newfoundland and Labrador Visitor Information Center (Port Aux Basques)","desc":"Channel-Port Aux Basques","sym":"Information"},"geometry":{"type":"Point","coordinates":[-59.16345,47.59855]}},{"type":"Feature","properties":{"name":"Newfoundland Tourist Information Centre","desc":"North Sydney Port","sym":"Information"},"geometry":{"type":"Point","coordinates":[-60.24635,46.21178]}},{"type":"Feature","properties":{"name":"Nipigon Tourist Information Centre","desc":"Nipigon Travel Centre","sym":"Information"},"geometry":{"type":"Point","coordinates":[-88.3071,49.01791]}},{"type":"Feature","properties":{"name":"Notre Dame Provincial Visitor Information Centre","desc":"information","sym":"Information"},"geometry":{"type":"Point","coordinates":[-55.10371,49.12043]}},{"type":"Feature","properties":{"name":"Nova Scotia Tourism Information Centre","desc":"Nova Scotia Tourism Information Centre","sym":"Information"},"geometry":{"type":"Point","coordinates":[-64.25899,45.85286]}},{"type":"Feature","properties":{"name":"Nova Scotia Visitor Information Centre","desc":"information","sym":"Information"},"geometry":{"type":"Point","coordinates":[-61.40531,45.64658]}},{"type":"Feature","properties":{"name":"Nova Scotia Visitors Information Centre - Digby (unconfirmed existance)","desc":"Digby","sym":"Information"},"geometry":{"type":"Point","coordinates":[-65.75793,44.63806]}},{"type":"Feature","properties":{"name":"Office Du Tourisme De La MRC","desc":"area","sym":"Information"},"geometry":{"type":"Point","coordinates":[-70.26977,47.21438]}},{"type":"Feature","properties":{"name":"Office du Tourisme Edmundston Madawaska","desc":"information","sym":"Information"},"geometry":{"type":"Point","coordinates":[-68.32067,47.36715]}},{"type":"Feature","properties":{"name":"Ontario Travel Information Centre (Toronto)","desc":"Ontario Travel Information Centre","sym":"Information"},"geometry":{"type":"Point","coordinates":[-79.38184,43.64491]}},{"type":"Feature","properties":{"name":"Orangeville Visitor Information Centre","desc":"Orangeville Visitor Information Centre","sym":"Information"},"geometry":{"type":"Point","coordinates":[-80.08254,43.9227]}},{"type":"Feature","properties":{"name":"Orillia & Lake Country Tourism","desc":"area","sym":"Information"},"geometry":{"type":"Point","coordinates":[-79.41726,44.60878]}},{"type":"Feature","properties":{"name":"Osoyoos Visitor Centre","sym":"Information"},"geometry":{"type":"Point","coordinates":[-119.47749,49.03609]}},{"type":"Feature","properties":{"name":"Ottawa","sym":"Information"},"geometry":{"type":"Point","coordinates":[-75.69777,45.4231]}},{"type":"Feature","properties":{"name":"Pacific Rim National Park Reserve of Canada Visitor Center","desc":"Pacific Rim National Park Reserve of Canada Visitor Center","sym":"Information"},"geometry":{"type":"Point","coordinates":[-125.58787,48.99261]}},{"type":"Feature","properties":{"name":"Penticton Visitor Centre","desc":"area","sym":"Information"},"geometry":{"type":"Point","coordinates":[-119.60633,49.49708]}},{"type":"Feature","properties":{"name":"Peterborough & The Kawarthas Tourism","desc":"information","sym":"Information"},"geometry":{"type":"Point","coordinates":[-78.31916,44.30195]}},{"type":"Feature","properties":{"name":"Pictou Visitor Information Centre","sym":"Information"},"geometry":{"type":"Point","coordinates":[-62.72866,45.68196]}},{"type":"Feature","properties":{"name":"Pincher Creek Visitor Information Centre","desc":"information","sym":"Information"},"geometry":{"type":"Point","coordinates":[-113.94622,49.48663]}},{"type":"Feature","properties":{"name":"Port Hardy Visitor Information Centre","desc":"Visitor Centre","sym":"Information"},"geometry":{"type":"Point","coordinates":[-127.49215,50.72334]}},{"type":"Feature","properties":{"name":"Prince George Visitor Centre (wifi)","desc":"Prince George Visitor Centre","sym":"Information"},"geometry":{"type":"Point","coordinates":[-122.74442,53.91923]}},{"type":"Feature","properties":{"name":"Prince Rupert Visitor Information Centre","desc":"area","sym":"Information"},"geometry":{"type":"Point","coordinates":[-130.32023,54.31888]}},{"type":"Feature","properties":{"name":"Princeton Visitors Centre","sym":"Information"},"geometry":{"type":"Point","coordinates":[-120.50715,49.45983]}},{"type":"Feature","properties":{"name":"Radium Hot Springs Visitor Centre","desc":"Radium Hot Springs Visitor Centre","sym":"Information"},"geometry":{"type":"Point","coordinates":[-116.06936,50.61955]}},{"type":"Feature","properties":{"name":"Regina Downtown Welcome Services Pavilion","desc":"Victoria Park","sym":"Information"},"geometry":{"type":"Point","coordinates":[-104.61344,50.44873]}},{"type":"Feature","properties":{"name":"Revelstoke Visitor Center","desc":"Revelstoke Visitor Center","sym":"Information"},"geometry":{"type":"Point","coordinates":[-118.19639,51.00021]}},{"type":"Feature","properties":{"name":"Rimouski Tourist Information Centre","desc":"information","sym":"Information"},"geometry":{"type":"Point","coordinates":[-68.53048,48.45061]}},{"type":"Feature","properties":{"name":"Rogers Pass Discovery Centre (washrooms across parking lot)","desc":"Rogers Pass Discovery Centre","sym":"Information"},"geometry":{"type":"Point","coordinates":[-117.52112,51.30133]}},{"type":"Feature","properties":{"name":"Russell Visitor Information Centre","desc":"Russell","sym":"Information"},"geometry":{"type":"Point","coordinates":[-101.289,50.77255]}},{"type":"Feature","properties":{"name":"Saint-Jacques Provincial Visitor Information Centre","desc":"Saint-Jacques Provincial Visitor Information Centre","sym":"Information"},"geometry":{"type":"Point","coordinates":[-68.47858,47.48289]}},{"type":"Feature","properties":{"name":"Salmon Arm Visitor Centre","desc":"Downtown","sym":"Information"},"geometry":{"type":"Point","coordinates":[-119.27892,50.70039]}},{"type":"Feature","properties":{"name":"Sicamous Visitor Centre (no bike shop in town)","desc":"area","sym":"Information"},"geometry":{"type":"Point","coordinates":[-118.98226,50.83695]}},{"type":"Feature","properties":{"name":"Sidney Information Centre (no washroom)","desc":"Sidney Information Centre","sym":"Information"},"geometry":{"type":"Point","coordinates":[-123.40443,48.64872]}},{"type":"Feature","properties":{"name":"Signal Hill National Historic Site","desc":"Signal Hill National Historic Site","sym":"Information"},"geometry":{"type":"Point","coordinates":[-52.68143,47.57044]}},{"type":"Feature","properties":{"name":"Sioux Narrows Tourism Office (unconfirmed location)","desc":"Tourism Office","sym":"Information"},"geometry":{"type":"Point","coordinates":[-94.09663,49.40983]}},{"type":"Feature","properties":{"name":"Smithers Visitors Centre (washrooms, water)","sym":"Information"},"geometry":{"type":"Point","coordinates":[-127.16674,54.78286]}},{"type":"Feature","properties":{"name":"Snuneymuxw Territory (Nanaimo)","desc":"Experimental import of Canadian places and POIs from GNS Dataset","sym":"Information"},"geometry":{"type":"Point","coordinates":[-124.00235,49.18726]}},{"type":"Feature","properties":{"name":"Sparwood Chamber of Commerce & Visitor Information Centre","desc":"Sparwood Chamber of Commerce & Business Information Centre","sym":"Information"},"geometry":{"type":"Point","coordinates":[-114.88442,49.73133]}},{"type":"Feature","properties":{"name":"St Peter's Tourist Office","desc":"St Peter's Tourist Office","sym":"Information"},"geometry":{"type":"Point","coordinates":[-60.85973,45.653]}},{"type":"Feature","properties":{"name":"St. John's Visitors Information Centre","sym":"Information"},"geometry":{"type":"Point","coordinates":[-52.71103,47.56065]}},{"type":"Feature","properties":{"name":"Stanley Park Information Booth","desc":"Stanley Park","sym":"Information"},"geometry":{"type":"Point","coordinates":[-123.13146,49.29776]}},{"type":"Feature","properties":{"name":"Taber & District Chamber Of Commerce","desc":"area","sym":"Information"},"geometry":{"type":"Point","coordinates":[-112.15046,49.78324]}},{"type":"Feature","properties":{"name":"Terrace Bay Tourist Information Centre","sym":"Information"},"geometry":{"type":"Point","coordinates":[-87.10529,48.78234]}},{"type":"Feature","properties":{"name":"Terrace Vistors Centre - Kermodei Tourism (Washroom, Water, Wifi, Charging Station)","sym":"Information"},"geometry":{"type":"Point","coordinates":[-128.58316,54.51271]}},{"type":"Feature","properties":{"name":"Thunder Bay Tourist Pagoda","desc":"area","sym":"Information"},"geometry":{"type":"Point","coordinates":[-89.218,48.43443]}},{"type":"Feature","properties":{"name":"Tobermory Chamber of Commerce","desc":"area","sym":"Information"},"geometry":{"type":"Point","coordinates":[-81.66399,45.25325]}},{"type":"Feature","properties":{"name":"Tourism Calgary (2nd floor)","desc":"area","sym":"Information"},"geometry":{"type":"Point","coordinates":[-114.05846,51.04263]}},{"type":"Feature","properties":{"name":"Tourism Canmore Kananaskis","desc":"information","sym":"Information"},"geometry":{"type":"Point","coordinates":[-115.36619,51.10666]}},{"type":"Feature","properties":{"name":"Tourism Fernie","desc":"area","sym":"Information"},"geometry":{"type":"Point","coordinates":[-115.05404,49.52504]}},{"type":"Feature","properties":{"name":"Tourism Lethbridge","desc":"Chinook Tourist Park","sym":"Information"},"geometry":{"type":"Point","coordinates":[-112.80063,49.66934]}},{"type":"Feature","properties":{"name":"Tourism Medicine Hat","desc":"Tourism Information","sym":"Information"},"geometry":{"type":"Point","coordinates":[-110.68466,50.01185]}},{"type":"Feature","properties":{"name":"Tourism Mission Visitor Information Centre - 34033 Lougheed Hwy., Mission, BC V2V 5X8","desc":"Information Centre","sym":"Information"},"geometry":{"type":"Point","coordinates":[-122.28247,49.13858]}},{"type":"Feature","properties":{"name":"Tourism Moose Jaw","desc":"area","sym":"Information"},"geometry":{"type":"Point","coordinates":[-105.51045,50.41263]}},{"type":"Feature","properties":{"name":"Tourism Nova Scotia","desc":"Tourism Nova Scotia","sym":"Information"},"geometry":{"type":"Point","coordinates":[-62.72588,45.57655]}},{"type":"Feature","properties":{"name":"Tourism Saskatoon","desc":"parking","sym":"Information"},"geometry":{"type":"Point","coordinates":[-106.65903,52.13043]}},{"type":"Feature","properties":{"name":"Tourism Sault Ste. Marie","desc":"area","sym":"Information"},"geometry":{"type":"Point","coordinates":[-84.3337,46.50672]}},{"type":"Feature","properties":{"name":"Tourism Swift Current","desc":"Swift Current Museum","sym":"Information"},"geometry":{"type":"Point","coordinates":[-107.80024,50.29769]}},{"type":"Feature","properties":{"name":"Tourism Tofino","desc":"area","sym":"Information"},"geometry":{"type":"Point","coordinates":[-125.8672,49.10638]}},{"type":"Feature","properties":{"name":"Tourisme Outaouais - 103 Laurier St, Gatineau, Quebec J8X 3V8","desc":"Tourisme Outaouais","sym":"Information"},"geometry":{"type":"Point","coordinates":[-75.70994,45.43192]}},{"type":"Feature","properties":{"name":"Tourist Info - Columbia Valley Chamber of Commerce (Invermere)","desc":"Tourist Info","sym":"Information"},"geometry":{"type":"Point","coordinates":[-115.99749,50.51168]}},{"type":"Feature","properties":{"name":"Tourist Information - Winnipeg","sym":"Information"},"geometry":{"type":"Point","coordinates":[-97.13044,49.8876]}},{"type":"Feature","properties":{"name":"Tourist Information Office De L\u00e9vis","desc":"Gare Traversier Vers Quebec","sym":"Information"},"geometry":{"type":"Point","coordinates":[-71.18716,46.81037]}},{"type":"Feature","properties":{"name":"Tourist Office (Owen Sound)","desc":"Tourist Office","sym":"Information"},"geometry":{"type":"Point","coordinates":[-80.94486,44.57121]}},{"type":"Feature","properties":{"name":"Town Of Wolfville Tourist Bureau","desc":"Tourist Bureau","sym":"Information"},"geometry":{"type":"Point","coordinates":[-64.3563,45.09111]}},{"type":"Feature","properties":{"name":"Travel Alberta Oyen Visitor Information Centre","desc":"area","sym":"Information"},"geometry":{"type":"Point","coordinates":[-110.47213,51.38852]}},{"type":"Feature","properties":{"name":"Travel Alberta Walsh Visitor Information Centre","desc":"information","sym":"Information"},"geometry":{"type":"Point","coordinates":[-110.0425,49.94389]}},{"type":"Feature","properties":{"name":"Travel Manitoba (Visitors information, toilets, phones)","desc":"area","sym":"Information"},"geometry":{"type":"Point","coordinates":[-95.16132,49.73951]}},{"type":"Feature","properties":{"name":"Truro Welcome Centre","desc":"Truro Welcome Centre","sym":"Information"},"geometry":{"type":"Point","coordinates":[-63.28694,45.36637]}},{"type":"Feature","properties":{"name":"Vancouver Tourism Visitor Centre","desc":"Vancouver Tourism Visitor Centre","sym":"Information"},"geometry":{"type":"Point","coordinates":[-123.11515,49.28793]}},{"type":"Feature","properties":{"name":"Vanderhoof Museum & Visitor Centre","desc":"478 1 St, Vanderhoof, BC V0J 3A0\n\n+12505673374","sym":"Information"},"geometry":{"type":"Point","coordinates":[-124.02047,54.01352]}},{"type":"Feature","properties":{"name":"Vernon Visitor Center (not open in 2021)","desc":"Visitor Center","sym":"Information"},"geometry":{"type":"Point","coordinates":[-119.27185,50.27]}},{"type":"Feature","properties":{"name":"Village of Valemount Information Office","desc":"Village of Valemount Information Office","sym":"Information"},"geometry":{"type":"Point","coordinates":[-119.28056,52.8316]}},{"type":"Feature","properties":{"name":"Visitor Center Oyama (may or may not have washrooms or exist)","desc":"Visitor Center (shows up on Google Maps, but no placemarker for it)","sym":"Information"},"geometry":{"type":"Point","coordinates":[-119.38787,50.11122]}},{"type":"Feature","properties":{"name":"Visitor Information Centre (temp closed march 2022)","desc":"area","sym":"Information"},"geometry":{"type":"Point","coordinates":[-66.67512,48.0087]}},{"type":"Feature","properties":{"name":"Visitor Information Centre - Wiarton, ON","desc":"area","sym":"Information"},"geometry":{"type":"Point","coordinates":[-81.1371,44.74431]}},{"type":"Feature","properties":{"name":"Visitors Information Centre - 229 Main St, Shediac, NB E4P 2A5 (temporarly closed nov 2022)","desc":"information","sym":"Information"},"geometry":{"type":"Point","coordinates":[-64.55618,46.21815]}},{"type":"Feature","properties":{"name":"Wascana Centre (Regina) Victor Information Kiosk","desc":"Wascana Centre","sym":"Information"},"geometry":{"type":"Point","coordinates":[-104.60675,50.43257]}},{"type":"Feature","properties":{"name":"Wawa - Tourist Information Centre","desc":"forest, park","sym":"Information"},"geometry":{"type":"Point","coordinates":[-84.78315,47.97388]}},{"type":"Feature","properties":{"name":"Welcome to Wynard Map sign","desc":"area","sym":"Information"},"geometry":{"type":"Point","coordinates":[-104.16564,51.76535]}},{"type":"Feature","properties":{"name":"West Nipissing Information Centre (toilets, visitors information)","desc":"ublic Rest Area\n\nHighway 17 Eastbound\n\n0.5 km west of Sturgeon Falls\n\nName \tWest Nipissing Tourism\n\nType \tTourist Info Centre\n\nStatus \tOpen\n\nOpen \tYear-round\n\nTruck Parking \tN\n\nLavatory \tY\n\nBarrier Free \tY\n\nFood Services \tNot Available\n\nFuel","sym":"Information"},"geometry":{"type":"Point","coordinates":[-79.93865,46.36589]}},{"type":"Feature","properties":{"name":"Whitbourne Provincial Visitor Information Centre","desc":"Whitbourne Provincial Visitor Information Centre","sym":"Information"},"geometry":{"type":"Point","coordinates":[-53.5573,47.44905]}},{"type":"Feature","properties":{"name":"White River Tourist Information Centre","sym":"Information"},"geometry":{"type":"Point","coordinates":[-85.27505,48.59223]}},{"type":"Feature","properties":{"name":"Windsor Visitor Info Ctr","desc":"Windsor","sym":"Information"},"geometry":{"type":"Point","coordinates":[-64.13339,44.99256]}},{"type":"Feature","properties":{"name":"Wolseley Tourist Booth","desc":"area","sym":"Information"},"geometry":{"type":"Point","coordinates":[-103.28586,50.42339]}},{"type":"Feature","properties":{"name":"Wood Islands Visitor Information Centre","desc":"information","sym":"Information"},"geometry":{"type":"Point","coordinates":[-62.74867,45.96566]}},{"type":"Feature","properties":{"name":"Yoho National Park Visitor Centre","desc":"Yoho National Park Visitor Centre","sym":"Information"},"geometry":{"type":"Point","coordinates":[-116.49184,51.39793]}}]}