{"type":"FeatureCollection","features":[{"type":"Feature","properties":{"name":"Canadian Tire - Fort Frances (not a bike shop)","routes":["C2","CA"],"provs":["ON"],"desc":"Fort Frances","sym":"Department Store"},"geometry":{"type":"Point","coordinates":[-93.43001,48.6085]}},{"type":"Feature","properties":{"name":"Co-op Home & Agro Centre - Shaunavon","routes":["C2"],"provs":["SK"],"sym":"Waterfowl"},"geometry":{"type":"Point","coordinates":[-108.41585,49.64457]}},{"type":"Feature","properties":{"name":"Home Hardware - Valemount","routes":["CN"],"provs":["BC"],"desc":"Home Hardware","sym":"Waterfowl"},"geometry":{"type":"Point","coordinates":[-119.26601,52.83231]}},{"type":"Feature","properties":{"name":"Toner Home Hardware (sells bicycle acessories - unsure if any bike repair)","routes":["C2","CA"],"provs":["NB"],"desc":"Home Hardware","sym":"Waterfowl"},"geometry":{"type":"Point","coordinates":[-67.74453,47.04537]}}]}