{"type":"FeatureCollection","features":[{"type":"Feature","properties":{"name":"A.C. Hunter Library","routes":["C1","C3","CA"],"desc":"A.C. Hunter Library","sym":"Library"},"geometry":{"type":"Point","coordinates":[-52.72942,47.57586]}},{"type":"Feature","properties":{"name":"Barrie Public Library","routes":["C3","CN"],"desc":"Barrie Public Library","sym":"Library"},"geometry":{"type":"Point","coordinates":[-79.68837,44.39184]}},{"type":"Feature","properties":{"name":"Biblioth\u00e8que Et Archives Nationales Du Qu\u00e9bec","routes":["C1","C2","C3","CN","CA"],"desc":"Biblioth\u00e8que Et Archives Nationales Du Qu\u00e9bec","sym":"Library"},"geometry":{"type":"Point","coordinates":[-73.56166,45.51532]}},{"type":"Feature","properties":{"name":"Biblioth\u00e8que Municipale Fran\u00e7oise-B\u00e9dard","routes":["C1","C2","C3","CA"],"desc":"Biblioth\u00e8que Municipale Fran\u00e7oise-B\u00e9dard","sym":"Library"},"geometry":{"type":"Point","coordinates":[-69.53659,47.83743]}},{"type":"Feature","properties":{"name":"Blue River Library, Thompson-Nicola Regional Library","routes":["CN"],"desc":"area","sym":"Library"},"geometry":{"type":"Point","coordinates":[-119.30758,52.1054]}},{"type":"Feature","properties":{"name":"Brampton Library - Chinguacousy Branch","routes":["C2","CA"],"desc":"Chinguacousy Branch","sym":"Library"},"geometry":{"type":"Point","coordinates":[-79.71999,43.7185]}},{"type":"Feature","properties":{"name":"Brandon Public Library","routes":["C1","CA"],"desc":"residential area","sym":"Library"},"geometry":{"type":"Point","coordinates":[-99.94748,49.84838]}},{"type":"Feature","properties":{"name":"Cache Creek Library, Thompson-Nicola Regional Library","routes":["CN","CA"],"desc":"retail area","sym":"Library"},"geometry":{"type":"Point","coordinates":[-121.32514,50.80734]}},{"type":"Feature","properties":{"name":"Calgary Central Library","routes":["C1","C3","CN"],"desc":"Central Library","sym":"Library"},"geometry":{"type":"Point","coordinates":[-114.05515,51.04563]}},{"type":"Feature","properties":{"name":"Calgary Public Library - Bowness","routes":["C1","C3","CN"],"desc":"Calgary Public Library - Bowness","sym":"Library"},"geometry":{"type":"Point","coordinates":[-114.18288,51.08718]}},{"type":"Feature","properties":{"name":"Campbell River - Vancouver Island Regional Library","routes":["C3","CA"],"desc":"library","sym":"Library"},"geometry":{"type":"Point","coordinates":[-125.24577,50.02725]}},{"type":"Feature","properties":{"name":"Campbellton Centennial Library","routes":["C1","C3","CA"],"desc":"Campbellton Centennial Library","sym":"Library"},"geometry":{"type":"Point","coordinates":[-66.67581,48.00429]}},{"type":"Feature","properties":{"name":"Canmore Public Library","routes":["C1","C3","CN","CA"],"desc":"area","sym":"Library"},"geometry":{"type":"Point","coordinates":[-115.3504,51.0887]}},{"type":"Feature","properties":{"name":"Central Library Victoria","routes":["C1","C3","CA"],"desc":"Central Library","sym":"Library"},"geometry":{"type":"Point","coordinates":[-123.36408,48.42319]}},{"type":"Feature","properties":{"name":"Confederation Centre Public Library","routes":["C1","CN","CA"],"desc":"Confederation Centre Public Library","sym":"Library"},"geometry":{"type":"Point","coordinates":[-63.12645,46.23437]}},{"type":"Feature","properties":{"name":"Corner Brook Public Library","routes":["C3","CA"],"desc":"Corner Brook","sym":"Library"},"geometry":{"type":"Point","coordinates":[-57.94513,48.95237]}},{"type":"Feature","properties":{"name":"County of Lennox & Addington Libraries - Amherstview Branch","routes":["C2","C3"],"desc":"area","sym":"Library"},"geometry":{"type":"Point","coordinates":[-76.65781,44.22569]}},{"type":"Feature","properties":{"name":"Cranbrook Public Library","routes":["C2"],"desc":"area","sym":"Library"},"geometry":{"type":"Point","coordinates":[-115.76381,49.51422]}},{"type":"Feature","properties":{"name":"Creston Library","routes":["C2","CA"],"desc":"Creston Library","sym":"Library"},"geometry":{"type":"Point","coordinates":[-116.50606,49.08973]}},{"type":"Feature","properties":{"name":"Denbigh Public Library","routes":["CN"],"desc":"area","sym":"Library"},"geometry":{"type":"Point","coordinates":[-77.27598,45.13913]}},{"type":"Feature","properties":{"name":"Dr. Walter Chestnut Public Library","routes":["C2"],"desc":"Dr. Walter Chestnut Public Library","sym":"Library"},"geometry":{"type":"Point","coordinates":[-67.52832,46.29821]}},{"type":"Feature","properties":{"name":"Espanola Public Library","routes":["C1","C2","C3","CN"],"desc":"Espanola Public Library","sym":"Library"},"geometry":{"type":"Point","coordinates":[-81.76963,46.261]}},{"type":"Feature","properties":{"name":"Fort Frances Public Library Technology Centre","routes":["C2","CA"],"desc":"Fort Frances","sym":"Library"},"geometry":{"type":"Point","coordinates":[-93.38053,48.61152]}},{"type":"Feature","properties":{"name":"Fredericton Public Library","routes":["C2"],"desc":"Fredericton Public Library","sym":"Library"},"geometry":{"type":"Point","coordinates":[-66.63985,45.96255]}},{"type":"Feature","properties":{"name":"Golden & District Library","routes":["C1","CN","CA"],"desc":"Golden & District Library","sym":"Library"},"geometry":{"type":"Point","coordinates":[-116.96523,51.29729]}},{"type":"Feature","properties":{"name":"Grand Falls Library","routes":["C2","CA"],"desc":"Grand Falls Library","sym":"Library"},"geometry":{"type":"Point","coordinates":[-67.74251,47.04492]}},{"type":"Feature","properties":{"name":"Greater Sudbury Public Library - Main Library","routes":["C1","CN"],"desc":"Main Branch","sym":"Library"},"geometry":{"type":"Point","coordinates":[-80.99754,46.49549]}},{"type":"Feature","properties":{"name":"Greenwood Public Library","routes":["C2"],"desc":"Greenwood Public Library","sym":"Library"},"geometry":{"type":"Point","coordinates":[-118.67723,49.08764]}},{"type":"Feature","properties":{"name":"Gull Lake Branch Library","routes":["C1","CA"],"desc":"area","sym":"Library"},"geometry":{"type":"Point","coordinates":[-108.48611,50.09498]}},{"type":"Feature","properties":{"name":"Halifax Central Library","routes":["C2","CN","CA"],"desc":"Halifax Central Library","sym":"Library"},"geometry":{"type":"Point","coordinates":[-63.57516,44.64279]}},{"type":"Feature","properties":{"name":"Herbert Branch Library","routes":["C1"],"desc":"Herbert","sym":"Library"},"geometry":{"type":"Point","coordinates":[-107.22014,50.42641]}},{"type":"Feature","properties":{"name":"Hope Library","routes":["C1","C2","CN","CA"],"desc":"library","sym":"Library"},"geometry":{"type":"Point","coordinates":[-121.43188,49.37917]}},{"type":"Feature","properties":{"name":"Ignace Public Library","routes":["C1","C3","CA"],"desc":"area","sym":"Library"},"geometry":{"type":"Point","coordinates":[-91.66696,49.41628]}},{"type":"Feature","properties":{"name":"Indian Head Public Library Branch","routes":["C1","CA"],"desc":"library","sym":"Library"},"geometry":{"type":"Point","coordinates":[-103.66761,50.53196]}},{"type":"Feature","properties":{"name":"Invermere Public Library","routes":["CN"],"desc":"forest, park","sym":"Library"},"geometry":{"type":"Point","coordinates":[-116.0301,50.51034]}},{"type":"Feature","properties":{"name":"Irvine Community Library","routes":["C1","C2"],"desc":"area","sym":"Library"},"geometry":{"type":"Point","coordinates":[-110.27329,49.95682]}},{"type":"Feature","properties":{"name":"Kamloops Library","routes":["CN","CA"],"desc":"Kamloops Library","sym":"Library"},"geometry":{"type":"Point","coordinates":[-120.33014,50.67566]}},{"type":"Feature","properties":{"name":"Kenora Public Library (Main Branch)","routes":["C1","C2","C3","CA"],"desc":"Kenora Public Library","sym":"Library"},"geometry":{"type":"Point","coordinates":[-94.48991,49.76835]}},{"type":"Feature","properties":{"name":"Lethbridge Public Library - Main Branch","routes":["C2","CA"],"desc":"Lethbridge Public Library - Main Branch","sym":"Library"},"geometry":{"type":"Point","coordinates":[-112.83414,49.69239]}},{"type":"Feature","properties":{"name":"Marathon Public Library","routes":["C1","C2","C3","CA"],"desc":"area","sym":"Library"},"geometry":{"type":"Point","coordinates":[-86.3764,48.71795]}},{"type":"Feature","properties":{"name":"Medicine Hat Public Library","routes":["C1","C2","CA"],"desc":"Medicine Hat Public Library","sym":"Library"},"geometry":{"type":"Point","coordinates":[-110.68099,50.04064]}},{"type":"Feature","properties":{"name":"Millennium Library (Winnipeg Public Library main branch)","routes":["C1","C2","C3","CN"],"desc":"Millennium Library","sym":"Library"},"geometry":{"type":"Point","coordinates":[-97.14238,49.89203]}},{"type":"Feature","properties":{"name":"Moncton Public Library","routes":["CN"],"desc":"Moncton Public Library","sym":"Library"},"geometry":{"type":"Point","coordinates":[-64.77443,46.08848]}},{"type":"Feature","properties":{"name":"Moose Jaw Library and Art Gallery","routes":["C1","CA"],"desc":"Moose Jaw Library and Art Gallery","sym":"Library"},"geometry":{"type":"Point","coordinates":[-105.53145,50.39504]}},{"type":"Feature","properties":{"name":"Moosomin Public Library Branch","routes":["C1","CA"],"desc":"residential area","sym":"Library"},"geometry":{"type":"Point","coordinates":[-101.66669,50.14401]}},{"type":"Feature","properties":{"name":"Nan Boothby Memorial Library (Cochrane Public Library)","routes":["C3","CN"],"desc":"Nan Boothby Memorial Library","sym":"Library"},"geometry":{"type":"Point","coordinates":[-114.47196,51.18893]}},{"type":"Feature","properties":{"name":"Nelson Public Library","routes":["C2"],"desc":"Nelson Public Library","sym":"Library"},"geometry":{"type":"Point","coordinates":[-117.29476,49.49049]}},{"type":"Feature","properties":{"name":"New Glasgow Public Library","routes":["C1","C3","CN","CA"],"desc":"New Glasgow","sym":"Library"},"geometry":{"type":"Point","coordinates":[-62.64376,45.58795]}},{"type":"Feature","properties":{"name":"Nipigon Public Library","routes":["C1","C2","C3","CA"],"desc":"residential area","sym":"Library"},"geometry":{"type":"Point","coordinates":[-88.26317,49.01238]}},{"type":"Feature","properties":{"name":"North Bay Public Library","routes":["C1","CA"],"desc":"area","sym":"Library"},"geometry":{"type":"Point","coordinates":[-79.45985,46.30888]}},{"type":"Feature","properties":{"name":"Okanagan Regional Library Kelowna","routes":["C1","CA"],"desc":"Okanagan Regional Library Kelowna","sym":"Library"},"geometry":{"type":"Point","coordinates":[-119.4943,49.88986]}},{"type":"Feature","properties":{"name":"Orangeville Public Library (Main Street Branch)","routes":["C2","CA"],"desc":"Orangeville Public Library (Main Street Branch)","sym":"Library"},"geometry":{"type":"Point","coordinates":[-80.0957,43.91928]}},{"type":"Feature","properties":{"name":"Oshawa Public Libraries - Jess Hann Branch","routes":["C2"],"desc":"Jess Hann Branch","sym":"Library"},"geometry":{"type":"Point","coordinates":[-78.84898,43.86929]}},{"type":"Feature","properties":{"name":"Osoyoos Library | ORL Branch","routes":["C2","CA"],"desc":"area","sym":"Library"},"geometry":{"type":"Point","coordinates":[-119.46572,49.02944]}},{"type":"Feature","properties":{"name":"Ottawa Public Library Rideau Branch","routes":["C1","C3","CN","CA"],"desc":"Ottawa Public Library Rideau Branch","sym":"Library"},"geometry":{"type":"Point","coordinates":[-75.68314,45.4301]}},{"type":"Feature","properties":{"name":"Owen Sound & North Grey Union Public Library","routes":["C2","C3"],"desc":"Owen Sound & North Grey Union Public Library","sym":"Library"},"geometry":{"type":"Point","coordinates":[-80.94499,44.56407]}},{"type":"Feature","properties":{"name":"Penticton Public Library","routes":["C1","CA"],"desc":"Penticton Library","sym":"Library"},"geometry":{"type":"Point","coordinates":[-119.58904,49.49126]}},{"type":"Feature","properties":{"name":"Pickering Public Library (Rougemount)","routes":["C2","CN","CA"],"desc":"Pickering Public Library (Rougemount)","sym":"Library"},"geometry":{"type":"Point","coordinates":[-79.12504,43.81232]}},{"type":"Feature","properties":{"name":"Pincher Creek Library","routes":["C2","CA"],"desc":"Pincher Creek Library","sym":"Library"},"geometry":{"type":"Point","coordinates":[-113.94148,49.48592]}},{"type":"Feature","properties":{"name":"Portage la Prairie Regional Library","routes":["C1","C3","CA"],"desc":"Portage la Prairie Regional Library","sym":"Library"},"geometry":{"type":"Point","coordinates":[-98.28811,49.97421]}},{"type":"Feature","properties":{"name":"Prince George Public Library","routes":["C3","CN"],"desc":"Public Library","sym":"Library"},"geometry":{"type":"Point","coordinates":[-122.74988,53.91191]}},{"type":"Feature","properties":{"name":"Prince Rupert Public Library","routes":["C3","CW"],"desc":"Prince Rupert Public Library","sym":"Library"},"geometry":{"type":"Point","coordinates":[-130.31785,54.31299]}},{"type":"Feature","properties":{"name":"Regina Public Library Central Branch","routes":["C1"],"desc":"Regina Public Library Central Branch","sym":"Library"},"geometry":{"type":"Point","coordinates":[-104.61433,50.44847]}},{"type":"Feature","properties":{"name":"Renfrew Public Library","routes":["C1","CN","CA"],"desc":"commercial/industrial area","sym":"Library"},"geometry":{"type":"Point","coordinates":[-76.68548,45.47327]}},{"type":"Feature","properties":{"name":"Rosetown Centennial Library","routes":["C3","CA"],"desc":"area","sym":"Library"},"geometry":{"type":"Point","coordinates":[-107.99101,51.55455]}},{"type":"Feature","properties":{"name":"Saskatoon Public Library (Frances Morrison Central Library)","routes":["C3","CA"],"desc":"Public Library (Main Branch)","sym":"Library"},"geometry":{"type":"Point","coordinates":[-106.66021,52.12944]}},{"type":"Feature","properties":{"name":"Sault Ste. Marie Public Library - North Branch","routes":["C1","C2","C3","CA"],"desc":"area","sym":"Library"},"geometry":{"type":"Point","coordinates":[-84.3258,46.53443]}},{"type":"Feature","properties":{"name":"Schreiber Public Library","routes":["C1","C2","C3","CA"],"desc":"residential area","sym":"Library"},"geometry":{"type":"Point","coordinates":[-87.26762,48.80785]}},{"type":"Feature","properties":{"name":"Shoal Lake Community Library","routes":["C3","CA"],"desc":"residential area","sym":"Library"},"geometry":{"type":"Point","coordinates":[-100.59122,50.43797]}},{"type":"Feature","properties":{"name":"Sicamous Library | ORL Branch","routes":["C1","CN","CA"],"desc":"area","sym":"Library"},"geometry":{"type":"Point","coordinates":[-118.98253,50.83685]}},{"type":"Feature","properties":{"name":"Surrey Libraries - City Centre Branch","routes":["C1","C2","CN"],"desc":"City Centre Library","sym":"Library"},"geometry":{"type":"Point","coordinates":[-122.84949,49.19058]}},{"type":"Feature","properties":{"name":"Thessalon Public Library","routes":["C1","C2","C3","CA"],"desc":"residential area","sym":"Library"},"geometry":{"type":"Point","coordinates":[-83.55654,46.25685]}},{"type":"Feature","properties":{"name":"Thunder Bay Public Library","routes":["C1","C2","C3"],"desc":"Thunder Bay Public Library","sym":"Library"},"geometry":{"type":"Point","coordinates":[-89.224,48.43623]}},{"type":"Feature","properties":{"name":"Tofino - Vancouver Island Regional Library","routes":["C2","CA"],"desc":"Vancouver Island Regional Library","sym":"Library"},"geometry":{"type":"Point","coordinates":[-125.90753,49.15382]}},{"type":"Feature","properties":{"name":"Toronto Public Library - Fort York","routes":["C2"],"desc":"Toronto Public Library - Fort York","sym":"Library"},"geometry":{"type":"Point","coordinates":[-79.40038,43.63922]}},{"type":"Feature","properties":{"name":"Truro Library","routes":["C3","CN"],"desc":"library","sym":"Library"},"geometry":{"type":"Point","coordinates":[-63.2785,45.36446]}},{"type":"Feature","properties":{"name":"Vancouver Island Regional Library - Nanaimo Harbourfront Branch","routes":["C2","C3","CN","CA","CW"],"desc":"Vancouver Island Regional Library - Nanaimo Harbourfront Branch","sym":"Library"},"geometry":{"type":"Point","coordinates":[-123.93636,49.16528]}},{"type":"Feature","properties":{"name":"Vancouver Public Library","routes":["C2","CN","CA","CW"],"desc":"Vancouver Public Library","sym":"Library"},"geometry":{"type":"Point","coordinates":[-123.11558,49.27965]}},{"type":"Feature","properties":{"name":"Youngstown Municipal Library","routes":["C3"],"desc":"Youngstown Public Library","sym":"Library"},"geometry":{"type":"Point","coordinates":[-111.20683,51.52916]}}]}