{"type":"FeatureCollection","features":[{"type":"Feature","properties":{"name":"Confederation College Residence - Sibley Hall1","routes":["C1","C2","C3"],"provs":["ON"],"desc":"description: Details from Google Maps<br>960 William St, Thunder Bay, ON P7B 6V1<br>confederationresidence.ca<br>+1 807-475-6381<br>Type: Student Residence","sym":"Lodging"},"geometry":{"type":"Point","coordinates":[-89.26705,48.40028]}},{"type":"Feature","properties":{"name":"Glendenning Hall","routes":["C1","CA","CL"],"provs":["PE"],"desc":"description: Details from Google Maps<br>331 Grafton St, Charlottetown, PE C1A 1L9<br>www.stayathollandcollege.com<br>+1 902-367-7702<br>Type: Student Residence","sym":"Lodging"},"geometry":{"type":"Point","coordinates":[-63.11985,46.24007]}},{"type":"Feature","properties":{"name":"Grenfell Campus Guest Accommodations1","routes":["C3","CA"],"provs":["NL"],"desc":"description: Details from Google Maps<br>20 University Dr, Corner Brook, NL A2H 5G4<br>grenfell.mun.ca<br>+1 709-637-6255<br>Type: Student Residence","sym":"Lodging"},"geometry":{"type":"Point","coordinates":[-57.93468,48.93846]}},{"type":"Feature","properties":{"name":"Lakehead University Residence - Thunder Bay Campus","routes":["C1","C2","C3"],"provs":["ON"],"desc":"description: Summer Guest Accommodations<br>Details from Google Maps<br>955 Oliver Rd, Thunder Bay, ON P7B 5E1<br>www.lakeheadu.ca<br>+1 807-343-8512<br>Type: Student Residence","sym":"Lodging"},"geometry":{"type":"Point","coordinates":[-89.26414,48.41814]}},{"type":"Feature","properties":{"name":"Residence & Conference Centre - Ottawa Downtown1","routes":["C1","C3","CN","CA"],"provs":["ON"],"desc":"description: Details from Google Maps<br>150 Hazel St, Ottawa, ON K1S 5T8<br>www.stayrcc.com<br>+1 613-236-3131<br>Type: Student Residence","sym":"Lodging"},"geometry":{"type":"Point","coordinates":[-75.67537,45.40745]}},{"type":"Feature","properties":{"name":"Residences Universit\u00e9 Laval","routes":["C1","C2","C3","CA","CW"],"provs":["QC"],"desc":"description: This tourist accommodation offers<br>860 units<br>Laundry room<br>Breakfast / Lunch / Dinner<br><br>In addition, as a Bienvenue cyclistes!-certified tourist accommodation, it offers<br>*A pump and basic tools for minor repairs<br>A covered, locked location to store your bicycle at night<br>Information about local bicycle networks and cycling services in the area<br>https://www.routeverte.com/en/hebergements/universite-laval-service-des-residences-2/<br>Type: Student Residence","sym":"Lodging"},"geometry":{"type":"Point","coordinates":[-71.26735,46.7805]}},{"type":"Feature","properties":{"name":"R\u00e9sidence maison de ville UQO","routes":["C1","C3","CN","CA"],"provs":["ON","QC"],"desc":"description: *A pump and basic tools for minor repairs, A covered, locked location to store your bicycle at night<br>Information about local bicycle networks and cycling services in the area, Student Residence (University)<br>https://www.routeverte.com/en/hebergements/les-residences-tache-et-les-maisons-de-ville-de-luqo-2/<br>Type: Student Residence","sym":"Lodging"},"geometry":{"type":"Point","coordinates":[-75.73927,45.42096]}},{"type":"Feature","properties":{"name":"UPEI Summer Accommodations1","routes":["C1","CA","CL"],"provs":["PE"],"desc":"description: Details from Google Maps<br>Bill and Denise Andrew Hall, 550 University Ave, Charlottetown, PE C1A 4P3<br>www.upei.ca<br>+1 902-566-0952<br>Type: Student Residence","sym":"Lodging"},"geometry":{"type":"Point","coordinates":[-63.1384,46.25416]}}]}