{"type":"FeatureCollection","features":[{"type":"Feature","properties":{"name":"1.7km to Signal Hill","routes":["C1","C3","CA"],"provs":["NL"],"sym":"Flag, Green"},"geometry":{"type":"Point","coordinates":[-52.69754,47.57163]}},{"type":"Feature","properties":{"name":"1.8km to West Kent Avenue North","routes":["CN","CA","CL"],"provs":["BC"],"sym":"Flag, Green"},"geometry":{"type":"Point","coordinates":[-123.12481,49.19478]}},{"type":"Feature","properties":{"name":"10.6km along Arbitus Greenway to Dunsmear and Hornby (downtown Vancouver)","routes":["CN","CA","CL"],"provs":["BC"],"sym":"Flag, Green"},"geometry":{"type":"Point","coordinates":[-123.14547,49.21071]}},{"type":"Feature","properties":{"name":"100km to Medicine Hat, AB","routes":["C1","CA"],"provs":["AB"],"desc":"area","sym":"Flag, Green"},"geometry":{"type":"Point","coordinates":[-111.80391,50.54022]}},{"type":"Feature","properties":{"name":"100km to next campground","routes":["C3","CA"],"provs":["BC"],"desc":"area","sym":"Flag, Green"},"geometry":{"type":"Point","coordinates":[-121.90833,53.90566]}},{"type":"Feature","properties":{"name":"104km to Cape Spear, NL","routes":["C1","C3","CN"],"provs":["NL"],"sym":"Flag, Green"},"geometry":{"type":"Point","coordinates":[-53.56203,47.45011]}},{"type":"Feature","properties":{"name":"105km to Radium Hot Springs, BC","routes":["C1","CN","CA"],"provs":["BC"],"desc":"area","sym":"Flag, Green"},"geometry":{"type":"Point","coordinates":[-116.97001,51.30463]}},{"type":"Feature","properties":{"name":"107km to Nipigon, ON","routes":["C1","C2","C3"],"provs":["ON"],"sym":"Flag, Green"},"geometry":{"type":"Point","coordinates":[-89.22187,48.43573]}},{"type":"Feature","properties":{"name":"11.2km to Dorian, QC","routes":["C1","C2","C3","CN","CW"],"provs":["QC"],"sym":"Flag, Green"},"geometry":{"type":"Point","coordinates":[-74.10476,45.44225]}},{"type":"Feature","properties":{"name":"111km to Orangeville, ON","routes":["C2","C3"],"provs":["ON"],"desc":"area","sym":"Flag, Green"},"geometry":{"type":"Point","coordinates":[-80.9462,44.56728]}},{"type":"Feature","properties":{"name":"112 km to South Baymouth Ferry","routes":["C1","C2","C3","CN","CL"],"provs":["ON"],"sym":"Flag, Green"},"geometry":{"type":"Point","coordinates":[-81.77018,46.26469]}},{"type":"Feature","properties":{"name":"115km to Ottawa","routes":["C2","CN","CA"],"provs":["ON"],"sym":"Flag, Green"},"geometry":{"type":"Point","coordinates":[-75.67787,44.59356]}},{"type":"Feature","properties":{"name":"115km to Sh\u00e9diac, NB","routes":["C1","C3","CA"],"provs":["NB"],"desc":"area","sym":"Flag, Green"},"geometry":{"type":"Point","coordinates":[-65.32941,46.96887]}},{"type":"Feature","properties":{"name":"142.1km to North Sydney, NS Ferry Terminal via TCH 105","routes":["C1","C3","CN"],"provs":["NS"],"desc":"area","sym":"Flag, Green"},"geometry":{"type":"Point","coordinates":[-61.4044,45.64607]}},{"type":"Feature","properties":{"name":"143km North to Wawa, ON","routes":["C1","C2","C3"],"provs":["ON"],"desc":"forest, park","sym":"Flag, Green"},"geometry":{"type":"Point","coordinates":[-84.75097,46.96825]}},{"type":"Feature","properties":{"name":"143km South to Sawpit Bay (closest motel)","routes":["C1","C2","C3","CA"],"provs":["ON"],"desc":"forest, park","sym":"Flag, Green"},"geometry":{"type":"Point","coordinates":[-84.78494,47.97083]}},{"type":"Feature","properties":{"name":"16.3km to Stanfield International Airport (YHZ) (Enfield)","routes":["C2","CN","CA","CL"],"provs":["NS"],"sym":"Flag, Green"},"geometry":{"type":"Point","coordinates":[-63.59777,44.78577]}},{"type":"Feature","properties":{"name":"16.6km to Downtown Halifax","routes":["C2","CN","CA","CL"],"provs":["NS"],"sym":"Flag, Green"},"geometry":{"type":"Point","coordinates":[-63.66259,44.73041]}},{"type":"Feature","properties":{"name":"163km to Cobourg, ON","routes":["C3","CN","CA","CL"],"provs":["ON"],"sym":"Flag, Green"},"geometry":{"type":"Point","coordinates":[-79.35657,44.6005]}},{"type":"Feature","properties":{"name":"17.8km to Patullo Bridge","routes":["CN","CA","CL"],"provs":["BC"],"sym":"Flag, Green"},"geometry":{"type":"Point","coordinates":[-123.11899,49.20571]}},{"type":"Feature","properties":{"name":"173km to Ottawa","routes":["C2","C3","CL"],"provs":["ON"],"sym":"Flag, Green"},"geometry":{"type":"Point","coordinates":[-76.4993,44.22261]}},{"type":"Feature","properties":{"name":"17km to Cape Spear, NL","routes":["C1","C3","CA"],"provs":["NL"],"sym":"Flag, Green"},"geometry":{"type":"Point","coordinates":[-52.69756,47.5709]}},{"type":"Feature","properties":{"name":"17km to Junction at Downtown Montreal","routes":["C1","C2","CA"],"provs":["QC"],"sym":"Flag, Green"},"geometry":{"type":"Point","coordinates":[-73.73963,45.43892]}},{"type":"Feature","properties":{"name":"2.9km to Airport","routes":["C1","C2","CA"],"provs":["QC"],"desc":"residential area","sym":"Flag, Green"},"geometry":{"type":"Point","coordinates":[-73.73955,45.43892]}},{"type":"Feature","properties":{"name":"21.8km to Junction before NS","routes":["CN","CL"],"provs":["NB"],"sym":"Flag, Green"},"geometry":{"type":"Point","coordinates":[-64.77299,46.08978]}},{"type":"Feature","properties":{"name":"25.3km to Horseshoe Bay Ferry Terminal (to Nanaimo)","routes":["C2","CN","CA","CL","CW"],"provs":["BC"],"sym":"Flag, Green"},"geometry":{"type":"Point","coordinates":[-123.11816,49.28489]}},{"type":"Feature","properties":{"name":"26.7km to Mission, BC","routes":["C1","C2","CN","CL"],"provs":["BC"],"sym":"Flag, Green"},"geometry":{"type":"Point","coordinates":[-122.66704,49.20912]}},{"type":"Feature","properties":{"name":"31.7km to Calgary","routes":["C3","CL"],"provs":["AB"],"sym":"Flag, Green"},"geometry":{"type":"Point","coordinates":[-114.45792,51.1905]}},{"type":"Feature","properties":{"name":"33km TCH to Hope - (cycling allowed)","routes":["C1","C2"],"provs":["BC"],"desc":"motorway, trunk (cycling allowed)","sym":"Flag, Green"},"geometry":{"type":"Point","coordinates":[-121.72807,49.19795]}},{"type":"Feature","properties":{"name":"347km to North Sydney Ferry Terminal via Cape Breton Highlands NP","routes":["C1","C3","CN"],"provs":["NS"],"sym":"Flag, Green"},"geometry":{"type":"Point","coordinates":[-61.40397,45.64712]}},{"type":"Feature","properties":{"name":"35.3km to Halifax Airport (Stanfield International Airport (YHZ) (Enfield))","routes":["C2","CN","CA","CL"],"provs":["NS"],"sym":"Flag, Green"},"geometry":{"type":"Point","coordinates":[-63.58847,44.65921]}},{"type":"Feature","properties":{"name":"35.9km to Thunder Bay via Hwy 102","routes":["C1","C2","C3"],"provs":["ON"],"desc":"area","sym":"Flag, Green"},"geometry":{"type":"Point","coordinates":[-89.64919,48.53396]}},{"type":"Feature","properties":{"name":"35km to North Sydney, NS Ferry Terminal","routes":["C1","C3","CL","CW"],"provs":["NS"],"sym":"Flag, Green"},"geometry":{"type":"Point","coordinates":[-60.56478,46.238]}},{"type":"Feature","properties":{"name":"4.9km to TCH","routes":["C1","C3","CN"],"provs":["AB"],"sym":"Flag, Green"},"geometry":{"type":"Point","coordinates":[-115.08694,51.1025]}},{"type":"Feature","properties":{"name":"41km to Vanderhoof, BC","routes":["C3"],"provs":["BC"],"desc":"forest, park","sym":"Flag, Green"},"geometry":{"type":"Point","coordinates":[-124.60418,54.06114]}},{"type":"Feature","properties":{"name":"42km Through Abbotsford or south bypass Abbotsford to Mission","routes":["C1","C2","CN","CL"],"provs":["BC"],"sym":"Flag, Green"},"geometry":{"type":"Point","coordinates":[-122.49283,49.05945]}},{"type":"Feature","properties":{"name":"47.5km to Amherst, NS","routes":["C3","CN"],"provs":["NB"],"sym":"Flag, Green"},"geometry":{"type":"Point","coordinates":[-64.55176,46.0041]}},{"type":"Feature","properties":{"name":"48km Northeast to Mallorytown, NL","routes":["C3"],"provs":["NL"],"desc":"area","sym":"Flag, Green"},"geometry":{"type":"Point","coordinates":[-54.13512,48.27536]}},{"type":"Feature","properties":{"name":"49.3km to Whycocomagh Provincial Park Campground","routes":["C1","C3","CN"],"provs":["NS"],"desc":"area","sym":"Flag, Green"},"geometry":{"type":"Point","coordinates":[-61.40448,45.64629]}},{"type":"Feature","properties":{"name":"5.1km to Junction","routes":["C2","CN","CA","CL","CW"],"provs":["BC"],"sym":"Flag, Green"},"geometry":{"type":"Point","coordinates":[-123.09977,49.27763]}},{"type":"Feature","properties":{"name":"500m (left/west) to Lochside Trail","routes":["C1","C3","CA","CL","CW"],"provs":["BC"],"desc":"area","sym":"Flag, Green"},"geometry":{"type":"Point","coordinates":[-123.40025,48.64898]}},{"type":"Feature","properties":{"name":"51.9km to Wood Islands Ferry","routes":["C1","CA","CL"],"provs":["PE"],"sym":"Flag, Green"},"geometry":{"type":"Point","coordinates":[-63.12202,46.23823]}},{"type":"Feature","properties":{"name":"53km to Thunder Bay via Kakabeka Falls","routes":["C1","C2","C3"],"provs":["ON"],"sym":"Flag, Green"},"geometry":{"type":"Point","coordinates":[-89.64989,48.53401]}},{"type":"Feature","properties":{"name":"54km to Cape Breton Island (network junction)","routes":["C1","C3","CN","CA"],"provs":["NS"],"sym":"Flag, Green"},"geometry":{"type":"Point","coordinates":[-61.99441,45.62205]}},{"type":"Feature","properties":{"name":"6.2km to TCH 105","routes":["C1","C3","CL","CW"],"provs":["NS"],"desc":"area","sym":"Flag, Green"},"geometry":{"type":"Point","coordinates":[-60.53991,46.28868]}},{"type":"Feature","properties":{"name":"63.1km to New Glasgow via Sideroads","routes":["C1","C3","CN"],"provs":["NS"],"sym":"Flag, Green"},"geometry":{"type":"Point","coordinates":[-62.51593,45.5915]}},{"type":"Feature","properties":{"name":"647m to Departure Bay Ferry","routes":["C2","C3","CN","CA","CW"],"provs":["BC"],"sym":"Flag, Green"},"geometry":{"type":"Point","coordinates":[-123.9515,49.18911]}},{"type":"Feature","properties":{"name":"64km to Campbell River, BC","routes":["C3","CA"],"provs":["BC"],"desc":"area","sym":"Flag, Green"},"geometry":{"type":"Point","coordinates":[-125.91829,50.31146]}},{"type":"Feature","properties":{"name":"64km to Sayward, BC","routes":["C3","CA"],"provs":["BC"],"desc":"area","sym":"Flag, Green"},"geometry":{"type":"Point","coordinates":[-125.27282,50.03329]}},{"type":"Feature","properties":{"name":"65km East to Sayward, BC","routes":["C3","CA"],"provs":["BC"],"desc":"Vancouver Island","sym":"Flag, Green"},"geometry":{"type":"Point","coordinates":[-126.59493,50.21587]}},{"type":"Feature","properties":{"name":"65km west to Woss, BC","routes":["C3","CA"],"provs":["BC"],"desc":"area","sym":"Flag, Green"},"geometry":{"type":"Point","coordinates":[-125.91982,50.31229]}},{"type":"Feature","properties":{"name":"66km East to Crystal Lake Campground (Vermilion Bay)","routes":["C1","C2","C3"],"provs":["ON"],"desc":"forest, park","sym":"Flag, Green"},"geometry":{"type":"Point","coordinates":[-94.24839,49.72622]}},{"type":"Feature","properties":{"name":"68km North to Boston Bar","routes":["C1","C2","CN","CA"],"provs":["BC"],"sym":"Flag, Green"},"geometry":{"type":"Point","coordinates":[-121.45814,49.39371]}},{"type":"Feature","properties":{"name":"6km to North Sydney, NS Ferry Terminal","routes":["C1","C3","CN","CL","CW"],"provs":["NS"],"desc":"area","sym":"Flag, Green"},"geometry":{"type":"Point","coordinates":[-60.28892,46.25105]}},{"type":"Feature","properties":{"name":"6km to Swartz Bay Ferry","routes":["C1","C3","CA","CL","CW"],"provs":["BC"],"sym":"Flag, Green"},"geometry":{"type":"Point","coordinates":[-123.40675,48.6488]}},{"type":"Feature","properties":{"name":"7.2km to Swartz Bay Ferry","routes":["C1","C3","CA","CL","CW"],"provs":["BC"],"sym":"Flag, Green"},"geometry":{"type":"Point","coordinates":[-123.40033,48.64131]}},{"type":"Feature","properties":{"name":"7.3km to Canmore, AB","routes":["C1","C3","CN"],"provs":["AB"],"sym":"Flag, Green"},"geometry":{"type":"Point","coordinates":[-115.91823,51.26901]}},{"type":"Feature","properties":{"name":"7.8km to St. John's International Airport (YYT)","routes":["C1","C3","CA"],"provs":["NL"],"sym":"Flag, Green"},"geometry":{"type":"Point","coordinates":[-52.69756,47.57176]}},{"type":"Feature","properties":{"name":"70.2km to Pickering via Humber River and Waterfront Trail","routes":["C2","CN","CA","CL"],"provs":["ON"],"sym":"Flag, Green"},"geometry":{"type":"Point","coordinates":[-79.63668,43.74774]}},{"type":"Feature","properties":{"name":"70km East to Regina, SK","routes":["C1","CA"],"provs":["SK"],"desc":"area","sym":"Flag, Green"},"geometry":{"type":"Point","coordinates":[-105.4998,50.40524]}},{"type":"Feature","properties":{"name":"70km South to Arnold's Cove, NL","routes":["C3"],"provs":["NL"],"desc":"area","sym":"Flag, Green"},"geometry":{"type":"Point","coordinates":[-54.13408,48.27438]}},{"type":"Feature","properties":{"name":"72km to Mission, BC","routes":["C1","CN","CL"],"provs":["BC"],"sym":"Flag, Green"},"geometry":{"type":"Point","coordinates":[-123.0797,49.03743]}},{"type":"Feature","properties":{"name":"72km to Revelstoke, BC","routes":["C1","CN","CA","CL"],"provs":["BC"],"sym":"Flag, Green"},"geometry":{"type":"Point","coordinates":[-118.97616,50.83777]}},{"type":"Feature","properties":{"name":"8.2km to Junction at Bedford, NS","routes":["C2","CN","CA","CL"],"provs":["NS"],"sym":"Flag, Green"},"geometry":{"type":"Point","coordinates":[-63.60004,44.78248]}},{"type":"Feature","properties":{"name":"82km to Lake Louise, AB","routes":["C1","CN","CA"],"provs":["BC"],"desc":"area","sym":"Flag, Green"},"geometry":{"type":"Point","coordinates":[-116.97238,51.30613]}},{"type":"Feature","properties":{"name":"89.8km to Maple Creek, SK","routes":["C1","C2","CA"],"provs":["AB"],"sym":"Flag, Green"},"geometry":{"type":"Point","coordinates":[-110.70779,50.03273]}},{"type":"Feature","properties":{"name":"92.8km to North Sydney, NS Ferry Terminal","routes":["C1","CA"],"provs":["NS"],"desc":"Cape Breton Island","sym":"Flag, Green"},"geometry":{"type":"Point","coordinates":[-61.10203,45.96258]}},{"type":"Feature","properties":{"name":"95km to Sheppardville, NL (motel)","routes":["C3","CA"],"provs":["NL"],"desc":"Deer Lake","sym":"Flag, Green"},"geometry":{"type":"Point","coordinates":[-57.4207,49.19232]}},{"type":"Feature","properties":{"name":"9km to Downtown Vancouver Via Ontario Street","routes":["CN","CA","CL"],"provs":["BC"],"sym":"Flag, Green"},"geometry":{"type":"Point","coordinates":[-123.11717,49.20614]}},{"type":"Feature","properties":{"name":"Rue Saint-Pierre to Junction at Boulevard Sainte-Rose","routes":["C1","C2","C3","CN","CW"],"provs":["QC"],"sym":"Flag, Green"},"geometry":{"type":"Point","coordinates":[-74.08883,45.46048]}},{"type":"Feature","properties":{"name":"Service Road to Montreal Downtown","routes":["C1","C2","C3","CN","CW"],"provs":["QC"],"sym":"Flag, Green"},"geometry":{"type":"Point","coordinates":[-74.00959,45.38401]}},{"type":"Feature","properties":{"name":"SkyTrain Expo Line to Port Mann Bridge","routes":["C1","C2","CN","CA","CL"],"provs":["BC"],"sym":"Flag, Green"},"geometry":{"type":"Point","coordinates":[-122.88242,49.23123]}},{"type":"Feature","properties":{"name":"to 112b Avenue","routes":["C1","C2","CN","CA","CL"],"provs":["BC"],"sym":"Flag, Green"},"geometry":{"type":"Point","coordinates":[-122.87837,49.20282]}},{"type":"Feature","properties":{"name":"to 81e Avenue","routes":["C1","C2","CN","CA","CL"],"provs":["QC"],"sym":"Flag, Green"},"geometry":{"type":"Point","coordinates":[-73.55737,45.51345]}},{"type":"Feature","properties":{"name":"To Boston Bar or to Manning Park","routes":["C1","C2","CN","CA"],"provs":["BC"],"sym":"Flag, Green"},"geometry":{"type":"Point","coordinates":[-121.44241,49.37721]}},{"type":"Feature","properties":{"name":"to Calgary","routes":["C1","C3","CN","CA"],"provs":["AB"],"sym":"Flag, Green"},"geometry":{"type":"Point","coordinates":[-115.33589,51.07549]}},{"type":"Feature","properties":{"name":"to juction at Peace Bridge","routes":["C1","C3","CN"],"provs":["AB"],"sym":"Flag, Green"},"geometry":{"type":"Point","coordinates":[-114.18297,51.08808]}},{"type":"Feature","properties":{"name":"to Junction at Boulevard Rene-Levesque Est","routes":["C1","C2","C3","CN","CA","CL"],"provs":["QC"],"desc":"forest, park","sym":"Flag, Green"},"geometry":{"type":"Point","coordinates":[-73.6649,45.56347]}},{"type":"Feature","properties":{"name":"to junction at Route Verte 5 and 81e Avenue","routes":["C1","C2","C3","CN","CA","CL"],"provs":["QC"],"sym":"Flag, Green"},"geometry":{"type":"Point","coordinates":[-73.66486,45.56362]}},{"type":"Feature","properties":{"name":"To Lake Louise","routes":["C1","C3","CN","CA"],"provs":["AB"],"sym":"Flag, Green"},"geometry":{"type":"Point","coordinates":[-116.19694,51.4391]}},{"type":"Feature","properties":{"name":"To Nanaimo ferry - Vancouver or Southbound to Victoria","routes":["C2","C3","CN","CA","CW"],"provs":["BC"],"sym":"Flag, Green"},"geometry":{"type":"Point","coordinates":[-124.03521,49.20615]}},{"type":"Feature","properties":{"name":"To Nanaimo ferry or Nanaimo Jinglepot (northbound to","routes":["C3","CN","CA"],"provs":["BC"],"sym":"Flag, Green"},"geometry":{"type":"Point","coordinates":[-123.91944,49.128]}},{"type":"Feature","properties":{"name":"To Nanaimo ferry or Northbound up island","routes":["C2","C3","CN","CA","CW"],"provs":["BC"],"sym":"Flag, Green"},"geometry":{"type":"Point","coordinates":[-124.03486,49.20615]}},{"type":"Feature","properties":{"name":"To Nanaimo or Northbound up island","routes":["C2","C3","CN"],"provs":["BC"],"sym":"Flag, Green"},"geometry":{"type":"Point","coordinates":[-124.25511,49.29979]}},{"type":"Feature","properties":{"name":"To Northbound up island, or west to Tofino","routes":["C2","C3","CN"],"provs":["BC"],"sym":"Flag, Green"},"geometry":{"type":"Point","coordinates":[-124.25507,49.29989]}},{"type":"Feature","properties":{"name":"To Penticton or to Osoyoos","routes":["C1","C2","CN","CA"],"provs":["BC"],"sym":"Flag, Green"},"geometry":{"type":"Point","coordinates":[-119.81903,49.20677]}},{"type":"Feature","properties":{"name":"to United Blvd.","routes":["C1","C2","CN","CA","CL"],"provs":["BC"],"sym":"Flag, Green"},"geometry":{"type":"Point","coordinates":[-122.90025,49.2081]}},{"type":"Feature","properties":{"name":"United Boulevard to Junction at Hougheed Hwy","routes":["C1","C2","CN","CL"],"provs":["BC"],"sym":"Flag, Green"},"geometry":{"type":"Point","coordinates":[-122.81979,49.22768]}},{"type":"Feature","properties":{"name":"X km south to via Fort Frances","routes":["C1","C2","C3"],"provs":["ON"],"sym":"Flag, Green"},"geometry":{"type":"Point","coordinates":[-94.2511,49.72629]}},{"type":"Feature","properties":{"name":"x km to","routes":["C1","C2","CN","CA","CL"],"provs":["BC"],"sym":"Flag, Green"},"geometry":{"type":"Point","coordinates":[-122.86658,49.20798]}},{"type":"Feature","properties":{"name":"X km to 264 Street","routes":["C1","C2","CN","CL"],"provs":["BC"],"sym":"Flag, Green"},"geometry":{"type":"Point","coordinates":[-122.65627,49.10461]}},{"type":"Feature","properties":{"name":"X km to Antigonish, NS","routes":["C1","C3","CN"],"provs":["NS"],"sym":"Flag, Green"},"geometry":{"type":"Point","coordinates":[-62.49757,45.58701]}},{"type":"Feature","properties":{"name":"X km to Bamberton, BC X km to Nanaimo, BC","routes":["C1","C3","CA","CW"],"provs":["BC"],"sym":"Flag, Green"},"geometry":{"type":"Point","coordinates":[-123.39615,48.57247]}},{"type":"Feature","properties":{"name":"x km to Barrie - Brampton - Toronto","routes":["C3","CL"],"provs":["ON"],"sym":"Flag, Green"},"geometry":{"type":"Point","coordinates":[-79.83404,44.48036]}},{"type":"Feature","properties":{"name":"x KM to Bordaux Railway Bridge","routes":["C1","C2","C3","CA"],"provs":["QC"],"sym":"Flag, Green"},"geometry":{"type":"Point","coordinates":[-73.87809,45.53563]}},{"type":"Feature","properties":{"name":"x KM to Calgary","routes":["C1"],"provs":["AB"],"sym":"Flag, Green"},"geometry":{"type":"Point","coordinates":[-114.47253,51.08618]}},{"type":"Feature","properties":{"name":"x KM to Campbelton NB Via Gaspe Peninsula","routes":["C1","C3"],"provs":["QC"],"desc":"area","sym":"Flag, Green"},"geometry":{"type":"Point","coordinates":[-68.23017,48.61089]}},{"type":"Feature","properties":{"name":"x KM to Campbelton, NB","routes":["C1","C3"],"provs":["QC"],"sym":"Flag, Green"},"geometry":{"type":"Point","coordinates":[-68.23037,48.61077]}},{"type":"Feature","properties":{"name":"x KM to Cochrane","routes":["C1","C3","CN"],"provs":["AB"],"sym":"Flag, Green"},"geometry":{"type":"Point","coordinates":[-114.84486,51.17956]}},{"type":"Feature","properties":{"name":"x km to Confederation Bridge","routes":["C1","C3","CN","CA"],"provs":["NB"],"sym":"Flag, Green"},"geometry":{"type":"Point","coordinates":[-64.56468,46.21719]}},{"type":"Feature","properties":{"name":"x KM to Downtown Montreal","routes":["C1","C2","CN","CA","CL"],"provs":["QC"],"desc":"Lachine Canal Park","sym":"Flag, Green"},"geometry":{"type":"Point","coordinates":[-73.56582,45.48584]}},{"type":"Feature","properties":{"name":"x KM to Fredricton, NB","routes":["C1","C2","C3","CA"],"provs":["QC"],"sym":"Flag, Green"},"geometry":{"type":"Point","coordinates":[-69.53717,47.83581]}},{"type":"Feature","properties":{"name":"X km to Golden Ears Bridge","routes":["C1","CN","CL"],"provs":["BC"],"sym":"Flag, Green"},"geometry":{"type":"Point","coordinates":[-122.73262,49.24975]}},{"type":"Feature","properties":{"name":"X km to junction","routes":["C1","C2","CN","CA","CL"],"provs":["BC"],"sym":"Flag, Green"},"geometry":{"type":"Point","coordinates":[-122.88074,49.20552]}},{"type":"Feature","properties":{"name":"x km to Junction after Bridge","routes":["C1","C2","CN","CL"],"provs":["BC"],"sym":"Flag, Green"},"geometry":{"type":"Point","coordinates":[-122.81025,49.20432]}},{"type":"Feature","properties":{"name":"x km to Junction at","routes":["C1","C2","C3"],"provs":["ON"],"sym":"Flag, Green"},"geometry":{"type":"Point","coordinates":[-89.89709,48.60118]}},{"type":"Feature","properties":{"name":"X km to Junction at Island View Road","routes":["C1","C3","CA","CL"],"provs":["BC"],"sym":"Flag, Green"},"geometry":{"type":"Point","coordinates":[-123.36932,48.40878]}},{"type":"Feature","properties":{"name":"x KM to Kingston, ON","routes":["C2","C3","CA","CL"],"provs":["ON"],"sym":"Flag, Green"},"geometry":{"type":"Point","coordinates":[-78.16535,43.95985]}},{"type":"Feature","properties":{"name":"X km to Langley City","routes":["C1","C2","CN","CL"],"provs":["BC"],"sym":"Flag, Green"},"geometry":{"type":"Point","coordinates":[-122.73463,49.11137]}},{"type":"Feature","properties":{"name":"X km to Lochside Trail, x km to Victoria Mile Zero","routes":["C1","C3","CA","CW"],"provs":["BC"],"sym":"Flag, Green"},"geometry":{"type":"Point","coordinates":[-123.52155,48.61632]}},{"type":"Feature","properties":{"name":"X km to Medicine Hat","routes":["C1","C3","CN"],"provs":["AB"],"sym":"Flag, Green"},"geometry":{"type":"Point","coordinates":[-114.07708,51.0531]}},{"type":"Feature","properties":{"name":"x Km to Mission, BC","routes":["C1","CN","CL","CW"],"provs":["BC"],"sym":"Flag, Green"},"geometry":{"type":"Point","coordinates":[-123.04603,49.11193]}},{"type":"Feature","properties":{"name":"X km to Past Golden Ears Bridge","routes":["C1","C2","CN","CL"],"provs":["BC"],"sym":"Flag, Green"},"geometry":{"type":"Point","coordinates":[-122.73418,49.13749]}},{"type":"Feature","properties":{"name":"X km to Pitt Meadows","routes":["C2","CN","CA","CL"],"provs":["BC"],"sym":"Flag, Green"},"geometry":{"type":"Point","coordinates":[-123.03085,49.27738]}},{"type":"Feature","properties":{"name":"x KM to Quebec City","routes":["C1","C2","CN","CA","CL"],"provs":["QC"],"sym":"Flag, Green"},"geometry":{"type":"Point","coordinates":[-73.56594,45.48578]}},{"type":"Feature","properties":{"name":"x KM to Toronto","routes":["C2","C3"],"provs":["ON"],"sym":"Flag, Green"},"geometry":{"type":"Point","coordinates":[-80.94616,44.5672]}},{"type":"Feature","properties":{"name":"x KM to Winnipeg","routes":["C1","C3","CN"],"provs":["MB"],"sym":"Flag, Green"},"geometry":{"type":"Point","coordinates":[-98.46867,49.97487]}}]}