{"type":"FeatureCollection","features":[{"type":"Feature","properties":{"name":"Husky Showers","routes":["C1","CN","CA"],"desc":"Husky","sym":"Shower"},"geometry":{"type":"Point","coordinates":[-116.97028,51.3121]}},{"type":"Feature","properties":{"name":"Nipigon Husky Travel Centre - Showers","routes":["C1","C2","C3","CA"],"desc":"Nipigon Husky Travel Centre","sym":"Shower"},"geometry":{"type":"Point","coordinates":[-88.30441,49.01924]}},{"type":"Feature","properties":{"name":"Petro-Canada Conv Store ($ shower available)","routes":["C1"],"desc":"retail area","sym":"Shower"},"geometry":{"type":"Point","coordinates":[-114.47461,51.08737]}},{"type":"Feature","properties":{"name":"Showers - Cedar Grove Trailer Park (3395 Regional Road 55, Whitefish, ON P0M 3E0)","routes":["C1","CN","CA"],"desc":"Camping","sym":"Shower"},"geometry":{"type":"Point","coordinates":[-81.2632,46.38543]}},{"type":"Feature","properties":{"name":"Steelhead Provincial Park - showers","routes":["CN"],"desc":"area","sym":"Shower"},"geometry":{"type":"Point","coordinates":[-120.86545,50.75677]}}]}