{"type":"FeatureCollection","features":[{"type":"Feature","properties":{"name":"Brentwood Bay - Mill Bay 25min ferry","routes":["C1","C3","CA","CL","CW"],"provs":["BC"],"desc":"Brentwood Bay - Mill Bay","sym":"Boat Ramp"},"geometry":{"type":"Point","coordinates":[-123.49641,48.59241]}},{"type":"Feature","properties":{"name":"Brentwood Bay - Mill Bay ferry 2","routes":["C1","C3","CA","CL","CW"],"provs":["BC"],"desc":"street","sym":"Boat Ramp"},"geometry":{"type":"Point","coordinates":[-123.51799,48.61403]}},{"type":"Feature","properties":{"name":"Brentwood Bay Ferry","routes":["C1","C3","CA","CL","CW"],"provs":["BC"],"sym":"Boat Ramp"},"geometry":{"type":"Point","coordinates":[-123.46568,48.57782]}},{"type":"Feature","properties":{"name":"Caribou-Wood Islands Ferry 1hr 15mins","routes":["CW"],"provs":["PE"],"desc":"Caribou-Wood Islands Ferry","sym":"Boat Ramp"},"geometry":{"type":"Point","coordinates":[-62.71037,45.86485]}},{"type":"Feature","properties":{"name":"Carillon-Pointe Fortune 5min Ferry","routes":["C1","C3","CA"],"provs":["ON","QC"],"desc":"Carillon-Pointe Fortune Ferry","sym":"Boat Ramp"},"geometry":{"type":"Point","coordinates":[-74.37493,45.56284]}},{"type":"Feature","properties":{"name":"Departure Bay - Horseshoe Bay 1hr 40min Ferry","routes":["CW"],"provs":["BC"],"desc":"Departure Bay - Horseshoe Bay","sym":"Boat Ramp"},"geometry":{"type":"Point","coordinates":[-123.60659,49.27497]}},{"type":"Feature","properties":{"name":"Digby Ferry Terminal","routes":["C2","CW"],"provs":["NS"],"desc":"Digby Ferry Terminal","sym":"Boat Ramp"},"geometry":{"type":"Point","coordinates":[-65.75783,44.66219]}},{"type":"Feature","properties":{"name":"Digby-Saint John Ferry","routes":["CW"],"provs":["NB"],"desc":"Digby-Saint John Ferry","sym":"Boat Ramp"},"geometry":{"type":"Point","coordinates":[-65.91004,44.97408]}},{"type":"Feature","properties":{"name":"Englishtown Ferry 8 mins","routes":["C1","C3","CA","CL","CW"],"provs":["NS"],"desc":"Englishtown Ferry","sym":"Boat Ramp"},"geometry":{"type":"Point","coordinates":[-60.54094,46.28931]}},{"type":"Feature","properties":{"name":"Glenora Ferry","routes":["C2","C3","CA","CW"],"provs":["ON"],"desc":"Glenora Ferry","sym":"Boat Ramp"},"geometry":{"type":"Point","coordinates":[-77.05477,44.04454]}},{"type":"Feature","properties":{"name":"Halifax - Dartmouth Ferry","routes":["C2","CN","CA","CL"],"provs":["NS"],"desc":"Halifax - Dartmouth Ferry","sym":"Boat Ramp"},"geometry":{"type":"Point","coordinates":[-63.57121,44.65679]}},{"type":"Feature","properties":{"name":"Hardings Point-Westfield Ferry","routes":["C2","CA"],"provs":["NB"],"desc":"Westfield","sym":"Boat Ramp"},"geometry":{"type":"Point","coordinates":[-66.22167,45.34988]}},{"type":"Feature","properties":{"name":"Kootenay Lake Ferry (free) 35min","routes":["C2","CW"],"provs":["BC"],"desc":"Kootenay Lake Ferry","sym":"Boat Ramp"},"geometry":{"type":"Point","coordinates":[-116.9085,49.65066]}},{"type":"Feature","properties":{"name":"Les Escoumins - Trois Pistoles ferry","routes":[],"provs":["QC"],"desc":"Les Escoumins - Trois Pistoles","sym":"Boat Ramp"},"geometry":{"type":"Point","coordinates":[-69.2918,48.23053]}},{"type":"Feature","properties":{"name":"McLure Reaction Ferry","routes":["CN","CW"],"provs":["BC"],"desc":"McLure Ferry","sym":"Boat Ramp"},"geometry":{"type":"Point","coordinates":[-120.24149,51.04124]}},{"type":"Feature","properties":{"name":"North Sydney - Port Aux Basques Ferry (North Atlantic Ocea)","routes":["CW"],"provs":["NS"],"desc":"North Sydney - Port Aux Basques Ferry","sym":"Boat Ramp"},"geometry":{"type":"Point","coordinates":[-59.78833,46.75983]}},{"type":"Feature","properties":{"name":"North Sydney Ferry","routes":["C1","C3","CN","CL","CW"],"provs":["NS"],"sym":"Boat Ramp"},"geometry":{"type":"Point","coordinates":[-60.24539,46.20917]}},{"type":"Feature","properties":{"name":"North Sydney-Argentia Ferry 16hrs","routes":["CW"],"provs":["NS"],"desc":"North Sydney-Argentia Ferry","sym":"Boat Ramp"},"geometry":{"type":"Point","coordinates":[-58.37606,46.31571]}},{"type":"Feature","properties":{"name":"Prince Rupert - Port Hardy (Inside Passage) 1","routes":["C3","CW"],"provs":["BC"],"desc":"Prince Rupert to Port Hardy","sym":"Boat Ramp"},"geometry":{"type":"Point","coordinates":[-130.35397,54.29767]}},{"type":"Feature","properties":{"name":"Prince Rupert - Port Hardy (Inside Passage) 17hr 45min ferry","routes":["CW"],"provs":["BC"],"desc":"Prince Rupert - Port Hardy (Inside Passage)","sym":"Boat Ramp"},"geometry":{"type":"Point","coordinates":[-128.53225,52.35795]}},{"type":"Feature","properties":{"name":"Quebec - Levis 10mins ferry","routes":["C1","C2","C3","CA","CW"],"provs":["QC"],"desc":"Quebec - Levis","sym":"Boat Ramp"},"geometry":{"type":"Point","coordinates":[-71.19348,46.81099]}},{"type":"Feature","properties":{"name":"Quyon Ferry","routes":[],"provs":["QC"],"desc":"Quyon Ferry","sym":"Boat Ramp"},"geometry":{"type":"Point","coordinates":[-76.22513,45.5136]}},{"type":"Feature","properties":{"name":"Rivi\u00e8re-Du-Loup - Saint-Sim\u00e9on Ferry","routes":["C1","C2","C3"],"provs":["QC"],"desc":"Rivi\u00e8re-Du-Loup - Saint-Sim\u00e9on","sym":"Boat Ramp"},"geometry":{"type":"Point","coordinates":[-69.7277,47.79948]}},{"type":"Feature","properties":{"name":"Sorel-Saint-Ignace-de-Loyola Ferry - 12 mins crossing","routes":["C1","C2","C3","CN","CW"],"provs":["QC"],"desc":"Sorel-Saint-Ignace-de-Loyola\n\n109 Rue du Traversier, Sorel-Tracy, QC J3P 4G1\n\nwww.traversiers.com","sym":"Boat Ramp"},"geometry":{"type":"Point","coordinates":[-73.11677,46.05527]}},{"type":"Feature","properties":{"name":"South Baymouth - Tobermory 2hr Ferry","routes":["CW"],"provs":["ON"],"desc":"South Baymouth - Tobermory Ferry","sym":"Boat Ramp"},"geometry":{"type":"Point","coordinates":[-81.84594,45.41092]}},{"type":"Feature","properties":{"name":"Swartz Bay - Tsawwassen 1h35min ferry","routes":["CL","CW"],"provs":["BC"],"desc":"Swartz Bay - Tsawwassen","sym":"Boat Ramp"},"geometry":{"type":"Point","coordinates":[-123.28725,48.89482]}},{"type":"Feature","properties":{"name":"Traverse Oka-Hudson","routes":["C1","C3","CN","CW"],"provs":["QC"],"desc":"Traverse Oka-Hudson","sym":"Boat Ramp"},"geometry":{"type":"Point","coordinates":[-74.09658,45.45203]}}]}