{"type":"FeatureCollection","features":[{"type":"Feature","properties":{"name":"Auberge de Jeunesse du Manoir des Sapins (# \u00e9tablissement: 153742)1","routes":["C3"],"provs":["QC"],"desc":"description: Details from Google Maps<br>180 Bd Perron, Sainte-F\u00e9licit\u00e9, QC G0J 2K0<br>www.manoirdessapins.com<br>+1 418-733-8182<br>Type: Hostel","sym":"Lodging"},"geometry":{"type":"Point","coordinates":[-67.34068,48.90106]}},{"type":"Feature","properties":{"name":"Auberge de la Visitation","routes":["C1","C2","C3","CA","CW"],"provs":["QC"],"desc":"description: In addition, as a Bienvenue cyclistes!-certified tourist accommodation, it offers<br>A pump and basic tools for minor repairs<br>A covered, locked location to store your bicycle at night<br>Information about local bicycle networks and cycling services in the area,<br>This tourist accommodation offers<br>8 units<br>Bike washing station<br>Laundry room<br>https://www.routeverte.com/en/hebergements/auberge-de-la-visitation-2/<br>Type: Hostel","sym":"Lodging"},"geometry":{"type":"Point","coordinates":[-71.17852,46.80718]}},{"type":"Feature","properties":{"name":"Auberge Internationale de Quebec1","routes":["C1","C2","C3","CA","CW"],"provs":["QC"],"desc":"description: <br>Type: Hostel","sym":"Lodging"},"geometry":{"type":"Point","coordinates":[-71.21134,46.81239]}},{"type":"Feature","properties":{"name":"Auberge Internationale de Rivi\u00e8re-du-Loup1","routes":["C1","C2","C3","CA"],"provs":["QC"],"desc":"description: Details from Google Maps<br>46 Rue de l'H\u00f4tel de Ville, Rivi\u00e8re-du-Loup, QC G5R 1L5<br>aubergeriviere-du-loup.qc.ca<br>+1 418-862-7566<br>Type: Hostel","sym":"Lodging"},"geometry":{"type":"Point","coordinates":[-69.53554,47.83723]}},{"type":"Feature","properties":{"name":"Auberge Le Bocage des Trois-Pistoles","routes":["C1","C3"],"provs":["QC"],"desc":"description: This tourist accommodation offers<br>1 unit<br>Bike washing station<br>Laundry room<br>Breakfast<br><br>In addition, as a Bienvenue cyclistes!-certified tourist accommodation, it offers<br>*A pump and basic tools for minor repairs<br>A covered, locked location to store your bicycle at night<br>Information about local bicycle networks and cycling services in the area<br><br>https://www.routeverte.com/en/hebergements/auberge-le-bocage-des-trois-pistoles-2/ (in a house)<br>Type: Hostel","sym":"Lodging"},"geometry":{"type":"Point","coordinates":[-69.11713,48.15864]}},{"type":"Feature","properties":{"name":"Auberge Saintlo Montr\u00e9al","routes":["C1","C2","CN","CA","CL"],"provs":["QC"],"desc":"description: (formerly Hi-Montr\u00e9al Youth Hostel)<br>Approved Accommodation #34<br>Type: Hostel","sym":"Lodging"},"geometry":{"type":"Point","coordinates":[-73.57295,45.49396]}},{"type":"Feature","properties":{"name":"Auberg\u00e9lit inc.","routes":["C1","C2","C3","CA"],"provs":["QC"],"desc":"description: This tourist accommodation offers<br>5 units<br>Bike washing station<br>Breakfast<br><br>In addition, as a Bienvenue cyclistes!-certified tourist accommodation, it offers<br>*A pump and basic tools for minor repairs<br>A covered, locked location to store your bicycle at night<br>Information about local bicycle networks and cycling services in the area<br>https://www.routeverte.com/en/hebergements/aubergelit-2/ Inn<br>Type: Hostel","sym":"Lodging"},"geometry":{"type":"Point","coordinates":[-70.27124,47.21234]}},{"type":"Feature","properties":{"name":"Banff International Hostel1","routes":["C1","C3"],"provs":["AB"],"desc":"description: Details from Google Maps<br>449 Banff Ave, Banff, AB T1L 1A6<br>www.banffinternationalhostel.com<br>+1 403-985-7744<br>Type: Hostel","sym":"Lodging"},"geometry":{"type":"Point","coordinates":[-115.56463,51.18293]}},{"type":"Feature","properties":{"name":"Bear on the Lake Guesthouse","routes":["C1","CA"],"provs":["NS"],"desc":"description: Details from Google Maps<br>Inverness County, NS B0E 3M0, Canada<br>bearonthelake.com<br>+1 866-718-5253<br>Type: Hostel","sym":"Lodging"},"geometry":{"type":"Point","coordinates":[-61.05443,45.97476]}},{"type":"Feature","properties":{"name":"C&N Backpackers","routes":["C2"],"provs":["BC"],"desc":"description: <br>Type: Hostel","sym":"Lodging"},"geometry":{"type":"Point","coordinates":[-125.56392,48.94677]}},{"type":"Feature","properties":{"name":"City Hostel-- HI-ST.JOHN'S","routes":["C1","C3","CA"],"provs":["NL"],"desc":"description: <br>Type: Hostel","sym":"Lodging"},"geometry":{"type":"Point","coordinates":[-52.70246,47.57079]}},{"type":"Feature","properties":{"name":"Dreamcatcher Hostel Ltd","routes":["C1","CN","CA"],"provs":["BC"],"desc":"description: Approved Accommodation #23<br>Details from Google Maps<br>528 9 Ave N, Golden, BC V0A 1H0<br>dreamcatcherhostel.com<br>+1 250-439-1090<br>Type: Hostel","sym":"Lodging"},"geometry":{"type":"Point","coordinates":[-116.96718,51.30139]}},{"type":"Feature","properties":{"name":"HI / Auberge Internationale de Trois-Rivieres","routes":["C1","C2","C3","CN","CA","CW"],"provs":["QC"],"desc":"description: <br>Type: Hostel","sym":"Lodging"},"geometry":{"type":"Point","coordinates":[-72.54504,46.34353]}},{"type":"Feature","properties":{"name":"HI Banff Alpine Centre","routes":["C1","C3"],"provs":["AB"],"desc":"description: Details from Google Maps<br>801 Hidden Ridge Way, Banff, AB T1L 1B3<br>hihostels.ca<br>+1 403-762-4123<br>Type: Hostel","sym":"Lodging"},"geometry":{"type":"Point","coordinates":[-115.54835,51.18508]}},{"type":"Feature","properties":{"name":"HI Calgary City Centre","routes":["C1","C3"],"provs":["AB"],"desc":"description: Details from Google Maps<br>520 7 Ave SE, Calgary, AB T2G 0J6<br>hihostels.ca<br>+1 403-269-8239<br>Type: Hostel","sym":"Lodging"},"geometry":{"type":"Point","coordinates":[-114.05208,51.04636]}},{"type":"Feature","properties":{"name":"HI Castle Mountain Wilderness Hostel1","routes":["C1","C3","CN"],"provs":["AB"],"desc":"description: Details from Google Maps<br>Highway 1A &amp; Hwy 93 South, Castle Junction, AB T0L<br>hihostels.ca<br>+1 866-762-4122<br>Type: Hostel","sym":"Lodging"},"geometry":{"type":"Point","coordinates":[-115.91724,51.26774]}},{"type":"Feature","properties":{"name":"HI Charlottetown Backpackers Inn1","routes":["C1","CA","CL"],"provs":["PE"],"desc":"description: <br>Type: Hostel","sym":"Lodging"},"geometry":{"type":"Point","coordinates":[-63.12173,46.23622]}},{"type":"Feature","properties":{"name":"HI Halifax Heritage House / Halifax International Hostel","routes":["C2","CN","CA","CL"],"provs":["NS"],"desc":"description: <br>Type: Hostel","sym":"Lodging"},"geometry":{"type":"Point","coordinates":[-63.57075,44.64109]}},{"type":"Feature","properties":{"name":"HI Jasper","routes":["C3","CA"],"provs":["AB"],"desc":"description: (wifi, bicycle storage)<br>Details from Google Maps<br>708 Sleepy Hollow Rd, Jasper, AB T0E 1E0<br>hihostels.ca<br>+1 587-870-2395<br>Type: Hostel","sym":"Lodging"},"geometry":{"type":"Point","coordinates":[-118.0828,52.87074]}},{"type":"Feature","properties":{"name":"HI Lake Louise Alpine Centre (Hostel)1","routes":["C1","C3","CN","CA"],"provs":["AB"],"desc":"description: Details from Google Maps<br>203 Village Rd, Lake Louise, AB T0L 1E0<br>hihostels.ca<br>+1 403-522-2200<br>Type: Hostel","sym":"Lodging"},"geometry":{"type":"Point","coordinates":[-116.18271,51.42764]}},{"type":"Feature","properties":{"name":"HI Nanaimo - Painted Turtle Guesthouse1","routes":["C2","C3","CN","CA","CW"],"provs":["BC"],"desc":"description: <br>Type: Hostel","sym":"Lodging"},"geometry":{"type":"Point","coordinates":[-123.93713,49.16639]}},{"type":"Feature","properties":{"name":"HI Penticton Hostel","routes":["C1","CA"],"provs":["BC"],"desc":"description: Approved Accommodation #26<br>Type: Hostel","sym":"Lodging"},"geometry":{"type":"Point","coordinates":[-119.5898,49.49643]}},{"type":"Feature","properties":{"name":"HI Prince Rupert, Pioneer Backpackers Inn","routes":["C3","CW"],"provs":["BC"],"desc":"description: Details from Google Maps<br>167 3 Ave E, Prince Rupert, BC V8J 1K4<br>+1 888-794-9998<br>Type: Hostel","sym":"Lodging"},"geometry":{"type":"Point","coordinates":[-130.31965,54.31619]}},{"type":"Feature","properties":{"name":"HI Vancouver Downtown","routes":["C2","CN","CA","CL"],"provs":["BC"],"desc":"description: <br>Type: Hostel","sym":"Lodging"},"geometry":{"type":"Point","coordinates":[-123.13287,49.27977]}},{"type":"Feature","properties":{"name":"Highlands Hostel","routes":["C3"],"provs":["NS"],"desc":"description: Details from Google Maps<br>29295 Cabot Trail, Cape North, NS B0C 1G0<br>www.highlandshostel.ca<br>+1 902-383-2371<br>Type: Hostel","sym":"Lodging"},"geometry":{"type":"Point","coordinates":[-60.50337,46.88402]}},{"type":"Feature","properties":{"name":"Ocean Island Inn Backpackers Suites","routes":["C1","C3","CA","CL"],"provs":["BC"],"desc":"description: *has secture bicycle storage in basement<br>Details from Google Maps<br>791 Pandora Ave, Victoria, BC V8W 1N9<br>www.oceanisland.com<br>+1 250-385-1789<br>Type: Hostel","sym":"Lodging"},"geometry":{"type":"Point","coordinates":[-123.36198,48.42761]}},{"type":"Feature","properties":{"name":"Ottawa Backpackers Inn1","routes":["C1","C3","CN","CA"],"provs":["ON","QC"],"desc":"description: Details from Google Maps<br>203 York St, Ottawa, ON K1N 5T7<br>www.ottawahostel.com<br>+1 613-241-3402<br>Type: Hostel","sym":"Lodging"},"geometry":{"type":"Point","coordinates":[-75.68828,45.4304]}},{"type":"Feature","properties":{"name":"Pacific Spirit Hostel1","routes":["C2","CA","CL","CW"],"provs":["BC"],"desc":"description: <br>Type: Hostel","sym":"Lodging"},"geometry":{"type":"Point","coordinates":[-123.25868,49.26493]}},{"type":"Feature","properties":{"name":"Raging Elk Adventure Lodging (HI Fernie / The Raging Elk Hostel)","routes":["C2","CA"],"provs":["BC"],"desc":"description: The Raging Elk Hostel (laundry, wifi, bike wash station)<br>Type: Hostel","sym":"Lodging"},"geometry":{"type":"Point","coordinates":[-115.06274,49.50786]}},{"type":"Feature","properties":{"name":"Saintlo Ottawa Jail Hostel (formerly Hi Ottawa Jail Hostel)","routes":["C1","C3","CN","CA"],"provs":["ON"],"desc":"description: (laundry)<br>Type: Hostel","sym":"Lodging"},"geometry":{"type":"Point","coordinates":[-75.68859,45.42503]}},{"type":"Feature","properties":{"name":"Samesun Banff (Hostel)","routes":["C1","C3"],"provs":["AB"],"desc":"description: Details from Google Maps<br>433 Banff Ave, Banff, AB T1L 1B4<br>samesun.com<br>+1 403-762-4499<br>Type: Hostel","sym":"Lodging"},"geometry":{"type":"Point","coordinates":[-115.56615,51.18253]}},{"type":"Feature","properties":{"name":"Samesun Kelowna (Samesun Kelowna Backpakers Hostel)","routes":["C1","CA"],"provs":["BC"],"desc":"description: <br>Type: Hostel","sym":"Lodging"},"geometry":{"type":"Point","coordinates":[-119.4983,49.88338]}},{"type":"Feature","properties":{"name":"Samesun Vancouver","routes":["C2","CN","CA","CL"],"provs":["BC"],"desc":"description: <br>Type: Hostel","sym":"Lodging"},"geometry":{"type":"Point","coordinates":[-123.12324,49.27895]}},{"type":"Feature","properties":{"name":"Sleeping Giant Guesthouse","routes":["C1","C2","C3"],"provs":["ON"],"desc":"description: Details from Google Maps<br>139 Machar Ave, Thunder Bay, ON P7B 2Y7<br>+1 807-629-3995<br>Type: Hostel","sym":"Lodging"},"geometry":{"type":"Point","coordinates":[-89.23028,48.42911]}},{"type":"Feature","properties":{"name":"The Canmore Hotel Hostel1","routes":["C1","C3","CN","CA"],"provs":["AB"],"desc":"description: Details from Google Maps<br>738 8 St, Canmore, AB T1W 2B6<br>https://www.thecanmorehotel.com/<br>Type: Hostel","sym":"Lodging"},"geometry":{"type":"Point","coordinates":[-115.3606,51.08938]}},{"type":"Feature","properties":{"name":"The Haven Hostel1","routes":["C1","C2","C3"],"provs":["ON"],"desc":"description: Details from Google Maps<br>226 Ambrose St, Thunder Bay, ON P7B 1L4<br>thehavenhostel.ca<br>+1 807-285-1142<br>Type: Hostel","sym":"Lodging"},"geometry":{"type":"Point","coordinates":[-89.22321,48.43301]}},{"type":"Feature","properties":{"name":"The Laughing Llama International Hostel","routes":["C1","CA"],"provs":["BC"],"desc":"description: <br>Type: Hostel","sym":"Lodging"},"geometry":{"type":"Point","coordinates":[-119.27651,50.26584]}},{"type":"Feature","properties":{"name":"The Officers Quarters","routes":["C1","C3"],"provs":["NB"],"desc":"description: Details from Google Maps<br>15 Cole Crescent, Miramichi, NB E1N 6K2<br>+1 506-352-0252<br>Type: Hostel","sym":"Lodging"},"geometry":{"type":"Point","coordinates":[-65.44899,47.01394]}},{"type":"Feature","properties":{"name":"Tofino Hostel / HI Whalers On The Point Guesthouse","routes":["C2","CA"],"provs":["BC"],"desc":"description: Tofino Hostel / HI Whalers On The Point Guesthouse<br>Type: Hostel","sym":"Lodging"},"geometry":{"type":"Point","coordinates":[-125.91167,49.15306]}},{"type":"Feature","properties":{"name":"Turtle Hostel","routes":["C1","C3","CA","CL"],"provs":["BC"],"desc":"description: Details from Google Maps<br>1608 Quadra St, Victoria, BC V8W 2L4<br>www.turtlehostel.ca<br>+1 250-381-3210<br>Type: Hostel","sym":"Lodging"},"geometry":{"type":"Point","coordinates":[-123.35919,48.42831]}},{"type":"Feature","properties":{"name":"UWinnipeg Downtown Hostel","routes":["C1","C2","C3","CN"],"provs":["MB"],"desc":"description: Details from Google Maps<br>370 Langside St, Winnipeg, MB R3B 2T4<br>uwhostel.com<br>+1 204-789-1486<br>Type: Hostel","sym":"Lodging"},"geometry":{"type":"Point","coordinates":[-97.1565,49.89007]}},{"type":"Feature","properties":{"name":"Vedder River Inn1","routes":["C2","CA","CL"],"provs":["BC"],"desc":"description: <br>Type: Hostel","sym":"Lodging"},"geometry":{"type":"Point","coordinates":[-121.95925,49.10798]}},{"type":"Feature","properties":{"name":"Vernon Hostel","routes":["C1","CA"],"provs":["BC"],"desc":"description: <br>Type: Hostel","sym":"Lodging"},"geometry":{"type":"Point","coordinates":[-119.2765,50.264]}}]}