{"type":"FeatureCollection","features":[{"type":"Feature","properties":{"name":"Bamberton Campsite (Bamberton Provincial Park)","routes":["C1","C3","CA","CL","CW"],"provs":["BC"],"desc":"description: Details from Google Maps<br>Cowichan Valley F, BC V0R 2P4<br>https://bcparks.ca/bamberton-park/<br>+1 250-474-1336<br>Type: Provincial Park Campground<br>ID:","sym":"Campground"},"geometry":{"type":"Point","coordinates":[-123.52917,48.6057]}},{"type":"Feature","properties":{"name":"Ghost Reservoir Provincial Recreation Area","routes":["C1","C3","CN"],"provs":["AB"],"desc":"description: Details from Google Maps<br>Bighorn No. 8, AB T0L 1N0<br>https://albertaparks.ca/parks/kananaskis/ghost-reservoir-pra/<br>+1 403-678-0760<br>Type: Provincial Park Campground<br>ID: 295.0","sym":"Campground"},"geometry":{"type":"Point","coordinates":[-114.71787,51.22177]}},{"type":"Feature","properties":{"name":"Murphys Point Provincial Park - Hogg Bay Campground","routes":["C3"],"provs":["ON"],"desc":"description: Details from Google Maps<br>2243 Elm Grove Rd, Perth, ON K7H 3C7<br>https://www.ontarioparks.ca/park/murphyspoint/camping<br>Type: Provincial Park Campground<br>ID: 319.0","sym":"Campground"},"geometry":{"type":"Point","coordinates":[-76.22978,44.77835]}},{"type":"Feature","properties":{"name":"Quinsam Campground (Elk Falls Provincial Park)","routes":["C3","CA"],"provs":["BC"],"desc":"description: ID#154<br>Details from Google Maps<br>Campbell River Rd, Campbell River, BC V0P 1N0<br>bcparks.ca<br>+1 250-850-7125<br>Type: Provincial Park Campground<br>ID: 154.0","sym":"Campground"},"geometry":{"type":"Point","coordinates":[-125.2956,50.03683]}},{"type":"Feature","properties":{"name":"Sproat Lake Provincial Park Campsite","routes":["C2","CA"],"provs":["BC"],"desc":"description: Details from Google Maps<br>BC-4, Kleecoot, BC V0R 1W0<br>+1 250-474-1336<br>https://bcparks.ca/sproat-lake-park/<br>Type: Provincial Park Campground<br>ID: 162.0","sym":"Campground"},"geometry":{"type":"Point","coordinates":[-124.9281,49.29213]}},{"type":"Feature","properties":{"name":"Whycocomagh Provincial Park1","routes":["C1","CA"],"provs":["NS"],"desc":"description: 2024 Operating Season: June 7 to October 21, 2024<br>89 Provincial Park Road, Whycocomagh, NS B0E 3M0<br>Natural Resources and Renewables Office Whycocomagh<br>Details from Google Maps<br>89 Provincial Park Rd, Whycocomagh, NS B0E 3M0<br>https://parks.novascotia.ca/park/whycocomagh<br>+1 902-756-2339<br>Type: Provincial Park Campground<br>ID: 141.0","sym":"Campground"},"geometry":{"type":"Point","coordinates":[-61.10447,45.96701]}}]}