{"type":"FeatureCollection","features":[{"type":"Feature","properties":{"name":"A&L Cycle (201 Rosser Ave, Brandon, MB R7A 0J8)","routes":["C1","CA"],"provs":["MB"],"desc":"A&L Cycle<br><br>201 Rosser Ave, Brandon, MB R7A 0J8<br><br>Approved Bike Shop #69","sym":"Bike Trail"},"geometry":{"type":"Point","coordinates":[-99.94114,49.84868]}},{"type":"Feature","properties":{"name":"Abby Bike Shop (2760 Gladwin Rd #104, Abbotsford, BC V2T 4S6)","routes":["C2","CN","CL"],"provs":["BC"],"desc":"Abby Bike Shop<br><br>2760 Gladwin Rd #104, Abbotsford, BC V2T 4S6<br><br>+16047762453<br><br>Approved Bike Shop #67","sym":"Bike Trail"},"geometry":{"type":"Point","coordinates":[-122.31444,49.05236]}},{"type":"Feature","properties":{"name":"Adventure365 (444 Barry Downe Rd Unit 3, Greater Sudbury, ON P3A 3T3)","routes":["C1","CN","CL"],"provs":["ON"],"desc":"Adventure365<br><br>444 Barry Downe Rd Unit 3, Greater Sudbury, ON P3A 3T3<br><br>Approved Bike Shop #70","sym":"Bike Trail"},"geometry":{"type":"Point","coordinates":[-80.9437,46.50595]}},{"type":"Feature","properties":{"name":"Alpenland Crowsnest Pass (does bike repair) (13131 20 Ave, Blairmore, AB T0K 0E0)","routes":["C2","CA"],"provs":["AB"],"desc":"Alpenland Crowsnest Pass (does bike repair)<br><br>13131 20 Ave, Blairmore, AB T0K 0E0<br><br>Approved Bike Shop #71","sym":"Bike Trail"},"geometry":{"type":"Point","coordinates":[-114.43586,49.60772]}},{"type":"Feature","properties":{"name":"Alpenland Ski & Cycle (1202 3 Ave S, Lethbridge, AB T1J 0J9)","routes":["C2","CA"],"provs":["AB"],"desc":"Alpenland Ski & Cycle<br><br>1202 3 Ave S, Lethbridge, AB T1J 0J9<br><br>Approved Bike Shop #72","sym":"Bike Trail"},"geometry":{"type":"Point","coordinates":[-112.82908,49.69615]}},{"type":"Feature","properties":{"name":"Ascent Cycle Ltd (330 18 St S, Lethbridge, AB T1J 4Y6)","routes":["C2","CA"],"provs":["AB"],"desc":"Ascent Cycle<br><br>330 18 St S, Lethbridge, AB T1J 4Y6<br><br>Approved Bike Shop #73","sym":"Bike Trail"},"geometry":{"type":"Point","coordinates":[-112.81656,49.69623]}},{"type":"Feature","properties":{"name":"Atelier de v\u00e9lo communautaire Bill's / Bill\u2019s Community Bike Shop (2365 Rue Grand Trunk, Montr\u00e9al, QC H3K 1M8)","routes":["C1","C2","CN","CA","CL","One-way_Direction_Arrows"],"provs":["QC"],"desc":"Atelier de v\u00e9lo communautaire Bill's / Bill\u2019s Community Bike Shop<br><br>2365 Rue Grand Trunk, Montr\u00e9al, QC H3K 1M8<br><br>(514) 932-6202 ext. 232<br><br>Approved Bike Shop #82","sym":"Bike Trail"},"geometry":{"type":"Point","coordinates":[-73.56414,45.47957]}},{"type":"Feature","properties":{"name":"B!KE: The Peterborough Community Bike Shop (293 George St N, Peterborough, ON K9J 3H3)","routes":[],"provs":["ON"],"desc":"B!KE: The Peterborough Community Bike Shop<br><br>293 George St N, Peterborough, ON K9J 3H3<br><br>Approved Bike Shop #76","sym":"Bike Trail"},"geometry":{"type":"Point","coordinates":[-78.31997,44.30249]}},{"type":"Feature","properties":{"name":"Banff Soul Ski and Bike (203a Bear St, Banff, AB T1L 1G2)","routes":["C1","C3","CA"],"provs":["AB"],"desc":"Banff Soul Ski and Bike<br><br>203a Bear St, Banff, AB T1L 1G2<br><br>+14037601650<br><br>Approved Bike Shop #77","sym":"Bike Trail"},"geometry":{"type":"Point","coordinates":[-115.5725,51.17693]}},{"type":"Feature","properties":{"name":"Banks Bikes Inc.","routes":["C2"],"provs":["NS"],"desc":"Pete's","sym":"Bike Trail"},"geometry":{"type":"Point","coordinates":[-64.35946,45.09227]}},{"type":"Feature","properties":{"name":"Bent Spokes Bicycle Shop (329 St. George St, Moncton, NB E1C 1W8)","routes":["CN","CL"],"provs":["NB"],"desc":"Bent Spokes Bicycle Shop<br><br>329 St. George St, Moncton, NB E1C 1W8<br><br>+15062332453<br><br>Approved Bike Shop #78","sym":"Bike Trail"},"geometry":{"type":"Point","coordinates":[-64.78705,46.09037]}},{"type":"Feature","properties":{"name":"Bicycle Cafe (1012 Victoria St, Kamloops, BC V2C 2C4)","routes":["CN","CA"],"provs":["BC"],"desc":"Bicycle Cafe<br><br>1012 Victoria St, Kamloops, BC V2C 2C4<br><br>+12508282453<br><br>Approved Bike Shop #80","sym":"Bike Trail"},"geometry":{"type":"Point","coordinates":[-120.31599,50.67435]}},{"type":"Feature","properties":{"name":"Bicycle Cafe (630 8 St, Canmore, AB T1W 2B5)","routes":["C1","C3","CN","CA"],"provs":["AB"],"desc":"Bicycle Cafe<br><br>630 8 St, Canmore, AB T1W 2B5<br><br>+14036783021<br><br>Approved Bike Shop #79","sym":"Bike Trail"},"geometry":{"type":"Point","coordinates":[-115.35775,51.08928]}},{"type":"Feature","properties":{"name":"Bicycle Depot (835 Albion Rd, Etobicoke, ON M9V 1A3)","routes":["C2","CN","CA","CL"],"provs":["ON"],"desc":"Bicycle Depot<br><br>835 Albion Rd, Etobicoke, ON M9V 1A3<br><br>+14167411452","sym":"Bike Trail"},"geometry":{"type":"Point","coordinates":[-79.55966,43.73442]}},{"type":"Feature","properties":{"name":"Bicycle technicans available by appointment only","routes":["C1","CA"],"provs":["SK"],"desc":"area","sym":"Bike Trail"},"geometry":{"type":"Point","coordinates":[-102.93018,50.4056]}},{"type":"Feature","properties":{"name":"Bicycle World - 24 Ninth St E, Cornwall, ON K6H 2T8","routes":["C2"],"provs":["ON"],"desc":"24 Ninth St E, Cornwall, ON K6H 2T8","sym":"Bike Trail"},"geometry":{"type":"Point","coordinates":[-74.73323,45.02842]}},{"type":"Feature","properties":{"name":"Bike Again! (5664 Charles St, Halifax, NS B3K 1K4)","routes":["C2","CN","CA","CL","One-way_Direction_Arrows"],"provs":["NS"],"desc":"Bike Again!<br><br>5664 Charles St, Halifax, NS B3K 1K4<br><br>+19024292202<br><br>Approved Bike Shop #81","sym":"Bike Trail"},"geometry":{"type":"Point","coordinates":[-63.59134,44.65488]}},{"type":"Feature","properties":{"name":"Bike Bros. (128 River Ave, Cochrane, AB T4C 2C2)","routes":["C3","CL"],"provs":["AB"],"desc":"Bike Bros.<br><br>128 River Ave, Cochrane, AB T4C 2C2<br><br>(403) 932-7010<br><br>Approved Bike Shop #83","sym":"Bike Trail"},"geometry":{"type":"Point","coordinates":[-114.46449,51.18592]}},{"type":"Feature","properties":{"name":"Bike Doctor (623 Main St, Saskatoon, SK S7H 0J8)","routes":["C3","CA"],"provs":["SK"],"desc":"Bike Doctor<br><br>623 Main St, Saskatoon, SK S7H 0J8<br><br>Approved Bike Shop #104","sym":"Bike Trail"},"geometry":{"type":"Point","coordinates":[-106.6551,52.11691]}},{"type":"Feature","properties":{"name":"Bike Monkey (130 Esplanade St, Truro, NS B2N 2K3)","routes":["C3","CN"],"provs":["NS"],"desc":"Bike Monkey<br><br>130 Esplanade St, Truro, NS B2N 2K3<br><br>+19028437111<br><br>Approved Bike Shop #84","sym":"Bike Trail"},"geometry":{"type":"Point","coordinates":[-63.27562,45.36276]}},{"type":"Feature","properties":{"name":"Bike Root Community Bike Shop (University of Calgary, Calgary, AB T2N 1N4)","routes":["C1","C3","CN"],"provs":["AB"],"desc":"Bike Root Community Bike Shop<br><br>University of Calgary, Calgary, AB T2N 1N4<br><br>Approved Bike Shop #170","sym":"Bike Trail"},"geometry":{"type":"Point","coordinates":[-114.13091,51.07535]}},{"type":"Feature","properties":{"name":"Bike Works (178 Thorne Ave, Saint John, NB E2J 1W9)","routes":["C2","CW"],"provs":["NB"],"desc":"Bike Works<br><br>178 Thorne Ave, Saint John, NB E2J 1W9<br><br>+15066522453<br><br>Approved Bike Shop #86","sym":"Bike Trail"},"geometry":{"type":"Point","coordinates":[-66.04476,45.28583]}},{"type":"Feature","properties":{"name":"BikeBike Inc. (130-1439 10 Ave SE, Calgary, AB T2G 0X1)","routes":["C1","C3","CN"],"provs":["AB"],"desc":"BikeBike Inc.<br><br>130-1439 10 Ave SE, Calgary, AB T2G 0X1<br><br>+14034572453<br><br>Approved Bicycle Shop #33","sym":"Bike Trail"},"geometry":{"type":"Point","coordinates":[-114.02997,51.03825]}},{"type":"Feature","properties":{"name":"Bikeface Cycling (269 10th St E, Owen Sound, ON N4K 1S4)","routes":["C2","C3"],"provs":["ON"],"desc":"Bikeface Cycling<br><br>269 10th St E, Owen Sound, ON N4K 1S4<br><br>+15193769777<br><br>Approved Bike Shop #87","sym":"Bike Trail"},"geometry":{"type":"Point","coordinates":[-80.94192,44.56769]}},{"type":"Feature","properties":{"name":"Bikes & Beyond - 227 Henderson Hwy, Winnipeg, MB R2L 1M1","routes":["C1","C2","C3"],"provs":["MB"],"desc":"Bikes & Beyond<br><br>227 Henderson Hwy, Winnipeg, MB R2L 1M1","sym":"Bike Trail"},"geometry":{"type":"Point","coordinates":[-97.11451,49.91409]}},{"type":"Feature","properties":{"name":"Bishop's Family Cycles (730 Pandora Ave, Victoria, BC V8W 0E4)","routes":["C1","C3","CA","CL","One-way_Direction_Arrows"],"provs":["BC"],"desc":"Bishop's Family Cycles<br><br>730 Pandora Ave, Victoria, BC V8W 0E4<br><br>+17786000878<br><br>Approved Bike Shop #66","sym":"Bike Trail"},"geometry":{"type":"Point","coordinates":[-123.36307,48.42803]}},{"type":"Feature","properties":{"name":"Boh's Cycle & Sporting Goods (821 Main St N, Moose Jaw, SK S6H 0W8)","routes":["C1","CA"],"provs":["SK"],"desc":"Boh's Cycle & Sporting Goods<br><br>821 Main St N, Moose Jaw, SK S6H 0W8<br><br>+13066920477<br><br>Approved Bike Shop #88","sym":"Bike Trail"},"geometry":{"type":"Point","coordinates":[-105.53453,50.39726]}},{"type":"Feature","properties":{"name":"Bow Cycle & Sports (6501 Bowness Rd NW, Calgary, AB T3B 0E8)","routes":["C1","C3","CN"],"provs":["AB"],"desc":"Bow Cycle<br><br>6501 Bowness Rd NW, Calgary, AB T3B 0E8<br><br>+14032885422<br><br>Approved Bike Shop #89","sym":"Bike Trail"},"geometry":{"type":"Point","coordinates":[-114.18243,51.08645]}},{"type":"Feature","properties":{"name":"Brentwood Cycle (2136 Keating Cross Rd, Saanichton, BC V8M 2A6)","routes":["C1","C3","CA","CW"],"provs":["BC"],"desc":"Brentwood Cycle<br><br>Keating Centre<br><br>2136 Keating Cross Rd, Saanichton, BC V8M 2A6<br><br>+12506524649<br><br>Approved Bicycle Shop #13","sym":"Bike Trail"},"geometry":{"type":"Point","coordinates":[-123.41167,48.56575]}},{"type":"Feature","properties":{"name":"Broad Street Cycles (1419 Broad St, Victoria, BC V8W 2B2)","routes":["C1","C3","CA","CL","One-way_Direction_Arrows"],"provs":["BC"],"desc":"Broad Street Cycles<br><br>1419 Broad St, Victoria, BC V8W 2B2<br><br>+12503851739<br><br>Approved Bicycle Shop #37","sym":"Bike Trail"},"geometry":{"type":"Point","coordinates":[-123.36573,48.42781]}},{"type":"Feature","properties":{"name":"Brown's Sports & Cycle Company (Sports) (2447 Bloor St W, Toronto, ON M6S 1P7)","routes":["C2","CA","CL"],"provs":["ON"],"desc":"Brown's Sports & Cycle Company (Sports)<br><br>2447 Bloor St W, Toronto, ON M6S 1P7<br><br>+14167634176<br><br>Approved Bike Shop #90","sym":"Bike Trail"},"geometry":{"type":"Point","coordinates":[-79.48441,43.64915]}},{"type":"Feature","properties":{"name":"Burnt Bikes (call ahead for open hours) (132 2 Ave, Burns Lake, BC V0J 1E0)","routes":["C3","CA"],"provs":["BC"],"desc":"Burnt Bikes<br><br>132 2 Ave, Burns Lake, BC V0J 1E0<br><br>+12506920033<br><br>Approved Bike Shop #91","sym":"Bike Trail"},"geometry":{"type":"Point","coordinates":[-125.76099,54.22906]}},{"type":"Feature","properties":{"name":"Caledon Hills Cycling (15640 McLaughlin Rd, Inglewood, ON L7C 1M3)","routes":["C2"],"provs":["ON"],"desc":"Caledon Hills Cycling<br><br>15640 McLaughlin Rd, Inglewood, ON L7C 1M3<br><br>+19058381698<br><br>Approved Bike Shop #92","sym":"Bike Trail"},"geometry":{"type":"Point","coordinates":[-79.93277,43.7958]}},{"type":"Feature","properties":{"name":"Canary Cycles (7 Lemarchant Rd, St. John's, NL A1C 2G4)","routes":["C1","C3","CA","One-way_Direction_Arrows"],"provs":["NL"],"desc":"Canary Cycles<br><br>7 Lemarchant Rd, St. John's, NL A1C 2G4<br><br>+17095795972<br><br>Approved Bike Shop #93","sym":"Bike Trail"},"geometry":{"type":"Point","coordinates":[-52.71493,47.56383]}},{"type":"Feature","properties":{"name":"Cap's Bicycles Langley (20306 Logan Ave, Langley, BC V3A 4L7)","routes":["C1","C2","CN","CL"],"provs":["BC"],"desc":"Caps Bicycles<br><br>20306 Logan Ave, Langley, BC V3A 4L7<br><br>+16045347718<br><br>Approved Bike Shop #94","sym":"Bike Trail"},"geometry":{"type":"Point","coordinates":[-122.65974,49.10837]}},{"type":"Feature","properties":{"name":"Chain Reaction Bicycles Toronto (4231 Dundas St W, Etobicoke, ON M8X 1Y3)","routes":["C2","CN","CA","CL"],"provs":["ON"],"desc":"Chain Reaction Bicycles Toronto<br><br>4231 Dundas St W, Etobicoke, ON M8X 1Y3<br><br>+14162345300<br><br>Approved Bike Shop #58","sym":"Bike Trail"},"geometry":{"type":"Point","coordinates":[-79.51299,43.65951]}},{"type":"Feature","properties":{"name":"Cheapskates","routes":["C1","CA"],"provs":["ON"],"desc":"274 Main St E, North Bay, ON P1B 1B1 (705) 495-4736 Locally owned bike shop and retail offerings. https://cheapskatesports.com/","sym":"Bike Trail"},"geometry":{"type":"Point","coordinates":[-79.46169,46.30798]}},{"type":"Feature","properties":{"name":"Chucky\u2019s Cycle Shop (pickup and drop off only)","routes":["C3","CW"],"provs":["BC"],"desc":"Offers pick up and drop off cycle maintenance and repairs. As well as supply Parts and Accessories for your own do it yourself experience.","sym":"Bike Trail"},"geometry":{"type":"Point","coordinates":[-130.31859,54.31871]}},{"type":"Feature","properties":{"name":"Circuit Cycle & Sports (5012 50 St, Millet, AB T0C 1Z0)","routes":[],"provs":["AB"],"desc":"Circuit Cycle & Sports<br><br>5012 50 St, Millet, AB T0C 1Z0<br><br>+17803875340<br><br>Approved Bicycle Shop #31","sym":"Bike Trail"},"geometry":{"type":"Point","coordinates":[-113.47283,53.09588]}},{"type":"Feature","properties":{"name":"Cit-E Cycles Electric Bikes - Victoria (2612 Bridge St #100, Victoria, BC V8T 4S9)","routes":["C1","C3","CA","CL","One-way_Direction_Arrows"],"provs":["BC"],"desc":"Cit-E Cycles Electric Bikes - Victoria<br><br>2612 Bridge St #100, Victoria, BC V8T 4S9<br><br>+12503828329<br><br>Approved Bike Shop #55","sym":"Bike Trail"},"geometry":{"type":"Point","coordinates":[-123.37331,48.43641]}},{"type":"Feature","properties":{"name":"Coastal Cycles (1612 Island Hwy #1, Victoria, BC V9B 1H8)","routes":["C1","C3","CA","CL","One-way_Direction_Arrows"],"provs":["BC"],"desc":"Coastal Cycles<br><br>1612 Island Hwy #1, Victoria, BC V9B 1H8<br><br>(250) 391-1980<br><br>Approved Bicycle Shop #18","sym":"Bike Trail"},"geometry":{"type":"Point","coordinates":[-123.46107,48.4554]}},{"type":"Feature","properties":{"name":"Columbia Cycle & Ski (375 Laurier St, Invermere, BC V0A 1K0)","routes":["CN"],"provs":["BC"],"desc":"Columbia Cycle & Ski<br><br>375 Laurier St, Invermere, BC V0A 1K0<br><br>+12503426164<br><br>Approved Bike Shop #95","sym":"Bike Trail"},"geometry":{"type":"Point","coordinates":[-116.02616,50.51386]}},{"type":"Feature","properties":{"name":"Country Wide Sports (does do bike tune ups) (2860 Hamblin Frontage Rd Houston, BC, Canada V0J1Z0)","routes":["C3","CA"],"provs":["BC"],"desc":"Country Wide Sports<br><br>2860 Hamblin Frontage Rd Houston, BC, Canada V0J1Z0<br><br>+12508450022<br><br>Approved Bike Shop #96","sym":"Bike Trail"},"geometry":{"type":"Point","coordinates":[-126.66319,54.39504]}},{"type":"Feature","properties":{"name":"Cowichan Cycles (2692 James St, Duncan, BC V9L 2X6)","routes":["C3"],"provs":["BC"],"desc":"Cowichan Cycles<br><br>2692 James St, Duncan, BC V9L 2X6","sym":"Bike Trail"},"geometry":{"type":"Point","coordinates":[-123.70412,48.78201]}},{"type":"Feature","properties":{"name":"Cranky's Bike Shop (2961 272 St, Aldergrove, BC V4W 3R3)","routes":["C2","CN","CL"],"provs":["BC"],"desc":"Cranky's Bike Shop<br><br>2961 272 St, Aldergrove, BC V4W 3R3<br><br>+16048561688<br><br>Approved Bike Shop #97","sym":"Bike Trail"},"geometry":{"type":"Point","coordinates":[-122.47098,49.05699]}},{"type":"Feature","properties":{"name":"Cycle Active - E-bikes & Bike Repair (19 Drewry Ave, North York, ON M2M 1C9)","routes":["CN","CL"],"provs":["ON"],"desc":"Cycle Active - E-bikes & Bike Repair<br><br>19 Drewry Ave, North York, ON M2M 1C9<br><br>+16472453111","sym":"Bike Trail"},"geometry":{"type":"Point","coordinates":[-79.41841,43.78678]}},{"type":"Feature","properties":{"name":"Cycle Dubuc - V\u00e9lo/Mobilit\u00e9/R\u00e9paration (223 Chem. de la Beauce, Beauharnois, QC J6N 2N5)","routes":["C2","CN"],"provs":["QC"],"desc":"223 Chem. de la Beauce, Beauharnois, QC J6N 2N5<br><br>Approved Bicycle Shop #6","sym":"Bike Trail"},"geometry":{"type":"Point","coordinates":[-73.86253,45.30901]}},{"type":"Feature","properties":{"name":"Cycle Logic (1443 3rd Ave, Prince George, BC V2L 3G1)","routes":["C3","CL"],"provs":["BC"],"desc":"Cycle Logic<br><br>1443 3rd Ave, Prince George, BC V2L 3G1<br><br>(250) 614-7223<br><br>Approved Bike Shop #98","sym":"Bike Trail"},"geometry":{"type":"Point","coordinates":[-122.74811,53.91744]}},{"type":"Feature","properties":{"name":"Cycle Logic - Kamloops (222 Victoria St, Kamloops, BC V2C 2A2)","routes":["CN","CA"],"provs":["BC"],"desc":"Cycle Logic<br><br>222 Victoria St, Kamloops, BC V2C 2A2<br><br>+12503744515<br><br>Approved Bike Shop #99","sym":"Bike Trail"},"geometry":{"type":"Point","coordinates":[-120.33578,50.676]}},{"type":"Feature","properties":{"name":"Cycle Solutions (35 West St, Corner Brook, NL A2H 2Y6)","routes":["C3","CA"],"provs":["NL"],"desc":"Cycle Solutions<br><br>35 West St, Corner Brook, NL A2H 2Y6<br><br>+17096347100<br><br>Approved Bike Shop #64","sym":"Bike Trail"},"geometry":{"type":"Point","coordinates":[-57.94302,48.95209]}},{"type":"Feature","properties":{"name":"Cyclepath (2010 Strachan Rd SE Suite 1, Medicine Hat, AB T1B 0M9)","routes":["C1","C2","CA"],"provs":["AB"],"desc":"Cyclepath<br><br>2010 Strachan Rd SE Suite 1, Medicine Hat, AB T1B 0M9<br><br>+14035262274<br><br>Approved Bike Shop #101","sym":"Bike Trail"},"geometry":{"type":"Point","coordinates":[-110.6425,49.99619]}},{"type":"Feature","properties":{"name":"Cycles West (100 Burnside Rd W, Victoria, BC V9A 1B8)","routes":["C1","C3","CA","CL","One-way_Direction_Arrows"],"provs":["BC"],"desc":"Cycles West<br><br>100 Burnside Rd W, Victoria, BC V9A 1B8<br><br>+12504742477<br><br>Approved Bicycle Shop #26","sym":"Bike Trail"},"geometry":{"type":"Point","coordinates":[-123.38728,48.45091]}},{"type":"Feature","properties":{"name":"Cyclesmith (2553 Agricola St, Halifax, NS B3K 4C4)","routes":["C2","CN","CA","CL","One-way_Direction_Arrows"],"provs":["NS"],"desc":"Cyclesmith<br><br>2553 Agricola St, Halifax, NS B3K 4C4<br><br>+19024251756<br><br>Approved Bike Shop #102","sym":"Bike Trail"},"geometry":{"type":"Point","coordinates":[-63.59288,44.65505]}},{"type":"Feature","properties":{"name":"Cycling Elements (2 Wellington St, Orangeville, ON L9W 2L3)","routes":["C2","CA"],"provs":["ON"],"desc":"Cycling Elements<br><br>2 Wellington St, Orangeville, ON L9W 2L3<br><br>+15193074100<br><br>Approved Bike Shop #103","sym":"Bike Trail"},"geometry":{"type":"Point","coordinates":[-80.09235,43.91961]}},{"type":"Feature","properties":{"name":"Cyclo Service (289 Rue Saint-Paul, Qu\u00e9bec, QC G1K 3W6)","routes":["C1","C2","C3","CA","CW"],"provs":["QC"],"desc":"Cyclo Service<br><br>289 Rue Saint-Paul, Qu\u00e9bec, QC G1K 3W6<br><br>Approved Bike Shop #106","sym":"Bike Trail"},"geometry":{"type":"Point","coordinates":[-71.21123,46.81678]}},{"type":"Feature","properties":{"name":"Cyclosph\u00e8re Sport (13376 boulevard du, Bd du Cur\u00e9-Labelle, Mirabel, QC J7J 1G9)","routes":["C3","CN"],"provs":["QC"],"desc":"Cyclosph\u00e8re Sport<br><br>13376 boulevard du, Bd du Cur\u00e9-Labelle, Mirabel, QC J7J 1G9<br><br>+14504308356<br><br>Approved Bike Shop #65","sym":"Bike Trail"},"geometry":{"type":"Point","coordinates":[-73.92074,45.69832]}},{"type":"Feature","properties":{"name":"Cycology Bikes Inc. (926 Columbia Ave, Castlegar, BC V1N 1H2)","routes":["C2","CA"],"provs":["BC"],"desc":"Cycology Bikes<br><br>926 Columbia Ave, Castlegar, BC V1N 1H2<br><br>Approved Bike Shop #108","sym":"Bike Trail"},"geometry":{"type":"Point","coordinates":[-117.66425,49.31553]}},{"type":"Feature","properties":{"name":"Cyco\u2019s (25 Hawthorne Ave, Ottawa, ON K1S 0A9)","routes":["C1","C3","CN","CA"],"provs":["ON"],"desc":"Cyco\u2019s<br><br>25 Hawthorne Ave, Ottawa, ON K1S 0A9<br><br>Approved Bike Shop #107","sym":"Bike Trail"},"geometry":{"type":"Point","coordinates":[-75.68186,45.41219]}},{"type":"Feature","properties":{"name":"Double o Bikes (8905 Main St, Osoyoos, BC V0H 1V0)","routes":["C2","CA"],"provs":["BC"],"desc":"Double o Bikes<br><br>8905 Main St, Osoyoos, BC V0H 1V0<br><br>Approved Bike Shop #109","sym":"Bike Trail"},"geometry":{"type":"Point","coordinates":[-119.46973,49.0325]}},{"type":"Feature","properties":{"name":"Doug's Bicycle Sales & Service (159 College St W, Belleville, ON K8P 2G7)","routes":[],"provs":["ON"],"desc":"Doug's Bicycle Sales & Service<br><br>159 College St W, Belleville, ON K8P 2G7<br><br>+16139669161<br><br>Approved Bicycle Shop #30","sym":"Bike Trail"},"geometry":{"type":"Point","coordinates":[-77.40036,44.17434]}},{"type":"Feature","properties":{"name":"Dr. Cycle Service (By appointment only)","routes":["C1","C3"],"provs":["ON","QC"],"desc":"(By Appointment only)<br><br>1803 St Joseph Blvd Unit 115, Ottawa, ON K1C 6E7<br><br>+16132528627<br><br>Approved Bike Shop #56","sym":"Bike Trail"},"geometry":{"type":"Point","coordinates":[-75.54789,45.46229]}},{"type":"Feature","properties":{"name":"Dream Cyclery (390 Queens Quay W #111, Toronto, ON M5V 3A6)","routes":["C2"],"provs":["ON"],"desc":"Dream Cyclery<br><br>390 Queens Quay W #111, Toronto, ON M5V 3A6<br><br>Approved Bike Shop #68","sym":"Bike Trail"},"geometry":{"type":"Point","coordinates":[-79.39038,43.63821]}},{"type":"Feature","properties":{"name":"Dutch Cycle Repair (1336 Lorne St, Regina, SK S4R 2K1)","routes":["C1"],"provs":["SK"],"desc":"Dutch Cycle Repair<br><br>1336 Lorne St, Regina, SK S4R 2K1<br><br>Approved Bike Shop #110","sym":"Bike Trail"},"geometry":{"type":"Point","coordinates":[-104.61407,50.45765]}},{"type":"Feature","properties":{"name":"E2-Sport (1950 Notre-Dame St W, Montreal, Quebec H3J 1M8)","routes":["C1","C2","CN","CA","CL","One-way_Direction_Arrows"],"provs":["QC"],"desc":"E2-Sport<br><br>1950 Notre-Dame St W, Montreal, Quebec H3J 1M8<br><br>Approved Bike Shop #111","sym":"Bike Trail"},"geometry":{"type":"Point","coordinates":[-73.56942,45.48677]}},{"type":"Feature","properties":{"name":"Experience Cycling (482 Trans-Canada Hwy, Duncan, BC V9L 3R6)","routes":["C3","CL","CW"],"provs":["BC"],"desc":"Experience Cycling<br><br>482 Trans-Canada Hwy, Duncan, BC V9L 3R6<br><br>Approved Bike Shop #112","sym":"Bike Trail"},"geometry":{"type":"Point","coordinates":[-123.69839,48.78022]}},{"type":"Feature","properties":{"name":"Fairfield Bike Shop (390 Moss St, Victoria, BC V8V 4N1)","routes":["C1","C3","CA","CL","One-way_Direction_Arrows"],"provs":["BC"],"desc":"Fairfield Bike Shop<br><br>390 Moss St, Victoria, BC V8V 4N1<br><br>+12503812453<br><br>Approved Bike Shop #47","sym":"Bike Trail"},"geometry":{"type":"Point","coordinates":[-123.34904,48.41501]}},{"type":"Feature","properties":{"name":"Fix Coffee + Bikes (80 Gladstone Ave, Toronto, ON M6J 3K9)","routes":["C2","CL"],"provs":["ON"],"desc":"Fix Coffee + Bikes<br><br>80 Gladstone Ave, Toronto, ON M6J 3K9<br><br>+14165464349<br><br>Approved Bike Shop #45","sym":"Bike Trail"},"geometry":{"type":"Point","coordinates":[-79.42817,43.64504]}},{"type":"Feature","properties":{"name":"Flying Monkey Bike Shop & Coffee Bar (6 Main St N, Campbellville, ON L0P 1B0)","routes":[],"provs":["ON"],"desc":"Flying Monkey Bike Shop & Coffee Bar<br><br>6 Main St N, Campbellville, ON L0P 1B0<br><br>Approved Bike Shop #44<br><br>+12894580202","sym":"Bike Trail"},"geometry":{"type":"Point","coordinates":[-79.98242,43.48717]}},{"type":"Feature","properties":{"name":"Forks Bicycle Shop (121 Jason St, Owen Sound, ON N4K 5N7)","routes":["C2","C3"],"provs":["ON"],"desc":"Forks Bicycle Shop<br><br>121 Jason St, Owen Sound, ON N4K 5N7<br><br>+15193717800<br><br>Approved Bike Shop #60","sym":"Bike Trail"},"geometry":{"type":"Point","coordinates":[-80.98923,44.56332]}},{"type":"Feature","properties":{"name":"Fort Street Cycle (1025 Fort Street, Victoria, BC V8V 3K5)","routes":["C1","C3","CA","CL","One-way_Direction_Arrows"],"provs":["BC"],"desc":"Fort Street Cycle<br><br>1025 Fort Street, Victoria, BC V8V 3K5<br><br>+12503846665<br><br>Approved Bike Shop #43","sym":"Bike Trail"},"geometry":{"type":"Point","coordinates":[-123.3558,48.42349]}},{"type":"Feature","properties":{"name":"Framework Cycle & Fitness (333 George St, Sydney, NS B1P 1J7)","routes":["C1","C3","CN","CL","CW"],"provs":["NS"],"desc":"Framework Cycle & Fitness<br><br>333 George St, Sydney, NS B1P 1J7<br><br>+19025671909","sym":"Bike Trail"},"geometry":{"type":"Point","coordinates":[-60.19291,46.13985]}},{"type":"Feature","properties":{"name":"Freedom Bikes (533 Main St, Penticton, BC V2A 5C6)","routes":["C1","CA"],"provs":["BC"],"desc":"Freedom Bikes<br><br>533 Main St, Penticton, BC V2A 5C6<br><br>Approved Bike Shop #113","sym":"Bike Trail"},"geometry":{"type":"Point","coordinates":[-119.59075,49.49532]}},{"type":"Feature","properties":{"name":"Freeride Mountain Sports (153 Water St, St. John's, NL A1C 1B1)","routes":["C1","C3","CA","One-way_Direction_Arrows"],"provs":["NL"],"desc":"Freeride Mountain Sports<br><br>153 Water St, St. John's, NL A1C 1B1<br><br>Approved Bike Shop #114","sym":"Bike Trail"},"geometry":{"type":"Point","coordinates":[-52.70528,47.56559]}},{"type":"Feature","properties":{"name":"Fresh Air - Thunder Bay (Outdoor Store - does bike repairs)","routes":["C1","C2","C3"],"provs":["ON"],"desc":"710 Balmoral St, Thunder Bay, ON P7C 5V3","sym":"Bike Trail"},"geometry":{"type":"Point","coordinates":[-89.25804,48.39545]}},{"type":"Feature","properties":{"name":"Fuca Cycles (5871 Sooke Rd, Sooke, BC V9Z 0C3)","routes":[],"provs":["BC"],"desc":"Fuca Cycles<br><br>5871 Sooke Rd, Sooke, BC V9Z 0C3<br><br>+17786772069<br><br>Approved Bike Shop #74","sym":"Bike Trail"},"geometry":{"type":"Point","coordinates":[-123.67867,48.39003]}},{"type":"Feature","properties":{"name":"Gearheads (3067 Petawawa Blvd, Petawawa, ON K8H 1X9)","routes":["C1","CA"],"provs":["ON"],"desc":"Gearheads<br><br>3067 Petawawa Blvd, Petawawa, ON K8H 1X9<br><br>Approved Bike Shop #115","sym":"Bike Trail"},"geometry":{"type":"Point","coordinates":[-77.26245,45.88996]}},{"type":"Feature","properties":{"name":"Gearhub Sports (401 1st Ave, Fernie, BC V0B 1M0)","routes":["C2","CA"],"provs":["BC"],"desc":"Gearhub Sports<br><br>401 1st Ave, Fernie, BC V0B 1M0<br><br>Approved Bike Shop #116","sym":"Bike Trail"},"geometry":{"type":"Point","coordinates":[-115.06164,49.50208]}},{"type":"Feature","properties":{"name":"GEARS Bike Shop Mississauga (176 Lakeshore Rd W, Mississauga, ON L5H 1G4)","routes":[],"provs":["ON"],"desc":"176 Lakeshore Rd W, Mississauga, ON L5H 1G4<br><br>+19052712400<br><br>Approved Bicycle Shop #10","sym":"Bike Trail"},"geometry":{"type":"Point","coordinates":[-79.58987,43.548]}},{"type":"Feature","properties":{"name":"Gears Bike Shop Toronto (599 King St E, Toronto, ON M5A 0E9)","routes":["C2"],"provs":["ON"],"desc":"Gears Bike Shop Toronto<br><br>599 King St E, Toronto, ON M5A 0E9<br><br>+14168554327<br><br>Approved Bike Shop #59","sym":"Bike Trail"},"geometry":{"type":"Point","coordinates":[-79.35588,43.65685]}},{"type":"Feature","properties":{"name":"Gerick Cycle & Ski (702 Baker St, Nelson, BC V1L 4J6)","routes":["C2"],"provs":["BC"],"desc":"Gerick Cycle & Ski<br><br>702 Baker St, Nelson, BC V1L 4J6<br><br>Approved Bike Shop #117","sym":"Bike Trail"},"geometry":{"type":"Point","coordinates":[-117.29105,49.49294]}},{"type":"Feature","properties":{"name":"Gerick Sports (320 Cranbrook Street North, Cranbrook, BC V1C 3R3)","routes":["C2"],"provs":["BC"],"desc":"Gerick Sports<br><br>320 Cranbrook Street North, Cranbrook, BC V1C 3R3<br><br>Approved Bike Shop #118","sym":"Bike Trail"},"geometry":{"type":"Point","coordinates":[-115.76388,49.51575]}},{"type":"Feature","properties":{"name":"Giant Langley (118-20353 64 Ave, Langley, BC V2Y 1N5)","routes":["C1","C2","CN","CL"],"provs":["BC"],"desc":"Giant Langley<br><br>118-20353 64 Ave, Langley, BC V2Y 1N5<br><br>+16045343993<br><br>Approved Bike Shop #54","sym":"Bike Trail"},"geometry":{"type":"Point","coordinates":[-122.65947,49.1192]}},{"type":"Feature","properties":{"name":"Giant Victoria (631 Yates St, Victoria, BC V8W 1L2)","routes":["C1","C3","CA","CL","One-way_Direction_Arrows"],"provs":["BC"],"desc":"631 Yates St, Victoria, BC V8W 1L2<br><br>+17782656646<br><br>Approved Bicycle Shop #19","sym":"Bike Trail"},"geometry":{"type":"Point","coordinates":[-123.3661,48.42631]}},{"type":"Feature","properties":{"name":"Goldstream Bikes (694 Goldstream Ave unit 116, Victoria, BC V9B 2X1)","routes":["C1","C3","CA","CL","One-way_Direction_Arrows"],"provs":["BC"],"desc":"Goldstream Bikes<br><br>694 Goldstream Ave unit 116, Victoria, BC V9B 2X1<br><br>+12504741948<br><br>Approved Bicycle Shop #35","sym":"Bike Trail"},"geometry":{"type":"Point","coordinates":[-123.49431,48.44726]}},{"type":"Feature","properties":{"name":"Grant's Sports Excellence (128 Main St, Grand Falls-Windsor, NL A2B 1J7)","routes":["C3","CA"],"provs":["NL"],"desc":"Grant's Sports Excellence<br><br>128 Main St, Grand Falls-Windsor, NL A2B 1J7<br><br>Approved Bike Shop #119","sym":"Bike Trail"},"geometry":{"type":"Point","coordinates":[-55.6659,48.948]}},{"type":"Feature","properties":{"name":"Gravity Sports (648 3rd St SE, Medicine Hat, AB T1A 0H5)","routes":["C1","C2","CA"],"provs":["AB"],"desc":"Gravity Sports<br><br>648 3rd St SE, Medicine Hat, AB T1A 0H5<br><br>Approved Bike Shop #120","sym":"Bike Trail"},"geometry":{"type":"Point","coordinates":[-110.67459,50.04023]}},{"type":"Feature","properties":{"name":"Green Man Bikes (3202A Happy Valley Rd, Victoria, BC V9C 2V8)","routes":["C1","C3"],"provs":["BC"],"desc":"3202A Happy Valley Rd, Victoria, BC V9C 2V8<br><br>+17784322453<br><br>Approved Bicycle Shop #8","sym":"Bike Trail"},"geometry":{"type":"Point","coordinates":[-123.52507,48.43312]}},{"type":"Feature","properties":{"name":"Halifax Cycles Inc. (3600 Kempt Rd, Halifax, NS B3K 4X8)","routes":["C2","CN","CA","CL","One-way_Direction_Arrows"],"provs":["NS"],"desc":"Halifax Cycles<br><br>3600 Kempt Rd, Halifax, NS B3K 4X8<br><br>Approved Bike Shop #121","sym":"Bike Trail"},"geometry":{"type":"Point","coordinates":[-63.61756,44.66213]}},{"type":"Feature","properties":{"name":"Higher Ground Sports (501A, 9 Ave N, Golden, BC V0A 1H0)","routes":["C1","CN","CA"],"provs":["BC"],"desc":"Higher Ground Sports<br><br>501A, 9 Ave N, Golden, BC V0A 1H0<br><br>Approved Bike Shop #125","sym":"Bike Trail"},"geometry":{"type":"Point","coordinates":[-116.9668,51.29986]}},{"type":"Feature","properties":{"name":"Hometown Source For Sports (does bike repairs) (11 3 Ave N, Yorkton, SK S3N 1C1)","routes":["C3","CA"],"provs":["SK"],"desc":"Hometown Source For Sports (does bike repairs)<br><br>11 3 Ave N, Yorkton, SK S3N 1C1<br><br>Approved Bike Shop #122","sym":"Bike Trail"},"geometry":{"type":"Point","coordinates":[-102.45974,51.21083]}},{"type":"Feature","properties":{"name":"Hub Cycle (33 Inglis Pl, Truro, NS B2N 4B5)","routes":["C3","CN"],"provs":["NS"],"desc":"Hub Cycle<br><br>33 Inglis Pl, Truro, NS B2N 4B5<br><br>Approved Bike Shop #123","sym":"Bike Trail"},"geometry":{"type":"Point","coordinates":[-63.27614,45.36385]}},{"type":"Feature","properties":{"name":"Jack's Cycle (45735 Thomas Rd Unit 1, Chilliwack, BC V2R 3N3)","routes":["C1","C2","CA"],"provs":["BC"],"desc":"Jack's Cycle<br><br>45735 Thomas Rd Unit 1, Chilliwack, BC V2R 3N3<br><br>Approved Bike Shop #124","sym":"Bike Trail"},"geometry":{"type":"Point","coordinates":[-121.95896,49.10691]}},{"type":"Feature","properties":{"name":"Jessome's Source For Sports (692 Rue Victoria, Edmundston, NB E3V 3S9)","routes":["C2","CA"],"provs":["NB"],"desc":"Jessome's Source For Sports<br><br>692 Rue Victoria, Edmundston, NB E3V 3S9<br><br>Approved Bike Shop #126","sym":"Bike Trail"},"geometry":{"type":"Point","coordinates":[-68.34194,47.38915]}},{"type":"Feature","properties":{"name":"Jim's Bike Shop (200 Halifax St, Moncton, NB E1C 9S2)","routes":["CN","CL"],"provs":["NB"],"desc":"Jim's Bike Shop<br><br>200 Halifax St, Moncton, NB E1C 9S2<br><br>+15068722769<br><br>Approved Bike Shop #53","sym":"Bike Trail"},"geometry":{"type":"Point","coordinates":[-64.81275,46.09619]}},{"type":"Feature","properties":{"name":"JK's Bicycleitis (1623 Bay St, Victoria, BC V8R 2B7)","routes":["C1","C3","CA","CL","One-way_Direction_Arrows"],"provs":["BC"],"desc":"JK's Bicycleitis<br><br>1623 Bay St, Victoria, BC V8R 2B7<br><br>+12503702282<br><br>Approved Bicycle Shop #42","sym":"Bike Trail"},"geometry":{"type":"Point","coordinates":[-123.3346,48.43389]}},{"type":"Feature","properties":{"name":"Jumping Slug Community Cyclery (4282 10th Ave, Port Alberni, BC V9Y 4X3)","routes":["C2","CA"],"provs":["BC"],"desc":"Jumping Slug Community Cyclery<br><br>4282 10th Ave, Port Alberni, BC V9Y 4X3<br><br>Approved Bike Shop #127","sym":"Bike Trail"},"geometry":{"type":"Point","coordinates":[-124.79856,49.25375]}},{"type":"Feature","properties":{"name":"Kamikaze (470 First St, Collingwood, ON L9Y 1B8)","routes":["C3"],"provs":["ON"],"desc":"Kamikaze<br><br>470 First St, Collingwood, ON L9Y 1B8<br><br>Approved Bike Shop #128","sym":"Bike Trail"},"geometry":{"type":"Point","coordinates":[-80.23144,44.50104]}},{"type":"Feature","properties":{"name":"Koops' Bike Shop Ltd (1659 Nicholson St S, Prince George, BC V2N 1V7)","routes":["C3","CL"],"provs":["BC"],"desc":"Koops' Bike Shop<br><br>1659 Nicholson St S, Prince George, BC V2N 1V7<br><br>(250) 563-4828<br><br>Approved Bike Shop #129","sym":"Bike Trail"},"geometry":{"type":"Point","coordinates":[-122.7871,53.9088]}},{"type":"Feature","properties":{"name":"Lake Country Cycle","routes":["C1","CL"],"provs":["BC"],"sym":"Bike Trail"},"geometry":{"type":"Point","coordinates":[-119.40377,50.04903]}},{"type":"Feature","properties":{"name":"Life Cycles Bike Shop (1-1707 Salton Rd, Abbotsford, BC V2S 7P2)","routes":["C2","CN","CL"],"provs":["BC"],"desc":"Life Cycles Bike Shop<br><br>1-1707 Salton Rd, Abbotsford, BC V2S 7P2<br><br>Approved Bike Shop #130","sym":"Bike Trail"},"geometry":{"type":"Point","coordinates":[-122.28817,49.03319]}},{"type":"Feature","properties":{"name":"London Bicycle Caf\u00e9 (355 Clarence St, London, ON N6A 3M4)","routes":[],"provs":["ON"],"desc":"London Bicycle Caf\u00e9<br><br>355 Clarence St, London, ON N6A 3M4<br><br>+12262892670<br><br>Appoved Bike Shop #46","sym":"Bike Trail"},"geometry":{"type":"Point","coordinates":[-81.24688,42.98264]}},{"type":"Feature","properties":{"name":"Long Alley Bicycles (6164 Quinpool Rd, Halifax, NS B3L 1A3)","routes":["C2","CN","CA","CL","One-way_Direction_Arrows"],"provs":["NS"],"desc":"Long Alley Bicycles<br><br>6164 Quinpool Rd, Halifax, NS B3L 1A3<br><br>Approved Bike Shop #131","sym":"Bike Trail"},"geometry":{"type":"Point","coordinates":[-63.59525,44.6458]}},{"type":"Feature","properties":{"name":"Ma Bicyclette (2985 Rue Saint-Patrick, Montr\u00e9al, QC H3K 1B9)","routes":["C1","C2","CN","CA","CL","One-way_Direction_Arrows"],"provs":["QC"],"desc":"Ma Bicyclette<br><br>(2985 Rue Saint-Patrick, Montr\u00e9al, QC H3K 1B9)<br><br>+18778150150<br><br>Approved Bike Shop #75","sym":"Bike Trail"},"geometry":{"type":"Point","coordinates":[-73.57467,45.47795]}},{"type":"Feature","properties":{"name":"MacQueen's Bike Shop & Island Tours (430 Queen St, Charlottetown, PE C1A 4E7)","routes":["C1","CA","CL"],"provs":["PE"],"desc":"Macqueen's Bike Shop & Island Tours<br><br>430 Queen St, Charlottetown, PE C1A 4E7<br><br>+19023682453<br><br>Approved Bicycle Shop #24","sym":"Bike Trail"},"geometry":{"type":"Point","coordinates":[-63.13596,46.24242]}},{"type":"Feature","properties":{"name":"Macs Cycle Centre (3627 Shelbourne St, Victoria, BC V8P 4H1)","routes":["C1","C3","CA","CL","One-way_Direction_Arrows"],"provs":["BC"],"desc":"Macs Cycle Centre<br><br>Shelbourne Plaza<br><br>3627 Shelbourne St, Victoria, BC V8P 4H1<br><br>+12504777612<br><br>Approved Bicycle Shop #11","sym":"Bike Trail"},"geometry":{"type":"Point","coordinates":[-123.33228,48.45937]}},{"type":"Feature","properties":{"name":"Martin Cycle And Small Engine (31 Patrick Ave, Renfrew, ON K7V 3G6)","routes":["C1","CN","CA"],"provs":["ON"],"desc":"Martin Cycle And Small Engine<br><br>31 Patrick Ave, Renfrew, ON K7V 3G6<br><br>Approved Bike Shop #132","sym":"Bike Trail"},"geometry":{"type":"Point","coordinates":[-76.68658,45.47336]}},{"type":"Feature","properties":{"name":"Marty's Mountain Cycle: MMC (1-1258 Esquimalt Rd, Victoria, BC V9A 3P3)","routes":["C1","C3","CA","CL","One-way_Direction_Arrows"],"provs":["BC"],"desc":"Marty's Mountain Cycle: MMC<br><br>1-1258 Esquimalt Rd, Victoria, BC V9A 3P3<br><br>Approved Bicycle Shop #20","sym":"Bike Trail"},"geometry":{"type":"Point","coordinates":[-123.41567,48.43012]}},{"type":"Feature","properties":{"name":"McBike & Sport (1191 Main St, Smithers, BC V0J 2N1)","routes":["C3","CA"],"provs":["BC"],"desc":"McBike & Sport<br><br>1191 Main St, Smithers, BC V0J 2N0<br><br>+12508475009<br><br>Approved Bike Shop #133","sym":"Bike Trail"},"geometry":{"type":"Point","coordinates":[-127.1712,54.78037]}},{"type":"Feature","properties":{"name":"MEC Halifax (1550 Granville St, Halifax, NS B3J 1X1)","routes":["C2","CN","CA","CL","One-way_Direction_Arrows"],"provs":["NS"],"desc":"MEC Halifax<br><br>1550 Granville St, Halifax, NS B3J 1X1<br><br>Approved Bike Shop #134","sym":"Bike Trail"},"geometry":{"type":"Point","coordinates":[-63.57267,44.64549]}},{"type":"Feature","properties":{"name":"MEC Vancouver (111 E 2nd Ave, Vancouver, BC V5T 1B4)","routes":["C2","CN","CA","CL","CW"],"provs":["BC"],"desc":"MEC Vancouver<br><br>111 E 2nd Ave, Vancouver, BC V5T 1B4<br><br>Approved Bike Shop #135","sym":"Bike Trail"},"geometry":{"type":"Point","coordinates":[-123.10229,49.26943]}},{"type":"Feature","properties":{"name":"MEC Victoria (1450 Government St, Victoria, BC V8W 1Z2)","routes":["C1","C3","CA","CL","One-way_Direction_Arrows"],"provs":["BC"],"desc":"Mountain Equipment Company<br><br>1450 Government St, Victoria, BC V8W 1Z2<br><br>+12503862667<br><br>Approved Bicycle Shop #32","sym":"Bike Trail"},"geometry":{"type":"Point","coordinates":[-123.36731,48.42824]}},{"type":"Feature","properties":{"name":"MEC Winnipeg (Outdoor gear and bike shop)","routes":["C1","C2","C3"],"provs":["MB"],"desc":"Mountain Equipment Co-Op","sym":"Bike Trail"},"geometry":{"type":"Point","coordinates":[-97.1435,49.89406]}},{"type":"Feature","properties":{"name":"Mighty Riders (10 E Broadway, Vancouver, BC V5T 1V6)","routes":["C2","CN","CA","CL","CW"],"provs":["BC"],"desc":"Mighty Riders<br><br>10 E Broadway, Vancouver, BC V5T 1V6<br><br>+16048798705<br><br>Approved Bicycle Shop #22","sym":"Bike Trail"},"geometry":{"type":"Point","coordinates":[-123.10464,49.26287]}},{"type":"Feature","properties":{"name":"Mike's Bike Shop (67 Englehart St, Dieppe, NB E1A 8K2)","routes":["C3","CN","CL"],"provs":["NB"],"desc":"Mike's Bike Shop<br><br>67 Englehart St, Dieppe, NB E1A 8K2<br><br>+15068527100<br><br>Approved Bike Shop #52","sym":"Bike Trail"},"geometry":{"type":"Point","coordinates":[-64.70155,46.10151]}},{"type":"Feature","properties":{"name":"Mountain City Cycle (120 5th St, Courtenay, BC V9N 1J4)","routes":["C3"],"provs":["BC"],"desc":"Mountain City Cycle<br><br>120 5th St, Courtenay, BC V9N 1J4<br><br>Approved Bike Shop #137","sym":"Bike Trail"},"geometry":{"type":"Point","coordinates":[-124.996,49.69168]}},{"type":"Feature","properties":{"name":"M\u00e9o Bicycle Service (3330 County Road 17, L'Orignal, ON K0B 1K0)","routes":["C1","C3"],"provs":["ON"],"desc":"M\u00e9o Bicycle Service<br><br>3330 County Road 17, L'Orignal, ON K0B 1K0<br><br>Approved Bike Shop #136","sym":"Bike Trail"},"geometry":{"type":"Point","coordinates":[-74.80609,45.58172]}},{"type":"Feature","properties":{"name":"North Bay Cycleworks (593 John St, North Bay, ON P1B 2M9)","routes":["C1","CA"],"provs":["ON"],"desc":"North Bay Cycleworks<br><br>593 John St, North Bay, ON P1B 2M9<br><br>+17054725662<br><br>Approved Bike Shop #100","sym":"Bike Trail"},"geometry":{"type":"Point","coordinates":[-79.45486,46.30509]}},{"type":"Feature","properties":{"name":"North Park Bike Shop (1833 Cook St, Victoria, BC V8T 3P5)","routes":["C1","C3","CA","CL","One-way_Direction_Arrows"],"provs":["BC"],"desc":"North Park Bike Shop<br><br>1833 Cook St, Victoria, BC V8T 3P5<br><br>+12503862453<br><br>Approved Bicycle Shop #14","sym":"Bike Trail"},"geometry":{"type":"Point","coordinates":[-123.3527,48.43005]}},{"type":"Feature","properties":{"name":"North Star Cycle & Sports (7210 Market St, Port Hardy, BC V0N 2P0)","routes":["C3","CW"],"provs":["BC"],"desc":"North Star Cycle & Sports<br><br>7210 Market St, Port Hardy, BC V0N 2P0<br><br>Approved Bike Shop #138","sym":"Bike Trail"},"geometry":{"type":"Point","coordinates":[-127.49245,50.72243]}},{"type":"Feature","properties":{"name":"Northern Cycle (889 Westney Rd S, Ajax, ON L1S 3M4)","routes":["C2"],"provs":["ON"],"desc":"Northern Cycle<br><br>889 Westney Rd S, Ajax, ON L1S 3M4<br><br>Approved Bike Shop #139","sym":"Bike Trail"},"geometry":{"type":"Point","coordinates":[-79.01937,43.83058]}},{"type":"Feature","properties":{"name":"Oak Bay Bicycles (1990 Oak Bay Ave, Victoria, BC V8R 1E2)","routes":["C1","C3","CA","CL","One-way_Direction_Arrows"],"provs":["BC"],"desc":"Oak Bay Bicycles<br><br>1990 Oak Bay Ave, Victoria, BC V8R 1E2<br><br>+12505984111<br><br>Approved Bicycle Shop #28","sym":"Bike Trail"},"geometry":{"type":"Point","coordinates":[-123.32291,48.4266]}},{"type":"Feature","properties":{"name":"Olympia Cycle & Ski (326 St Mary's Rd, Winnipeg, MB R2H 1J9)","routes":["C1","C2","C3"],"provs":["MB"],"desc":"Olympia Cycle & Ski<br><br>326 St Mary's Rd, Winnipeg, MB R2H 1J9<br><br>Approved Bike Shop #140","sym":"Bike Trail"},"geometry":{"type":"Point","coordinates":[-97.1144,49.87205]}},{"type":"Feature","properties":{"name":"Outbound Cycle & Sport (3011 Louie Dr, Westbank, BC V4T 3E3)","routes":["C1"],"provs":["BC"],"desc":"Outbound Cycle & Sport<br><br>3011 Louie Dr, Westbank, BC V4T 3E3<br><br>Approved Bike Shop #141","sym":"Bike Trail"},"geometry":{"type":"Point","coordinates":[-119.6169,49.83643]}},{"type":"Feature","properties":{"name":"Outside Bike and Ski (1160 Railway Ave Unit 110, Canmore, AB T1W 1P4)","routes":["C1","C3","CN","CA"],"provs":["AB"],"desc":"Outside Bike and Ski<br><br>1160 Railway Ave Unit 110, Canmore, AB T1W 1P4<br><br>Approved Bike Shop #142","sym":"Bike Trail"},"geometry":{"type":"Point","coordinates":[-115.35681,51.09254]}},{"type":"Feature","properties":{"name":"P M Bikes (797 Goldstream Ave, Victoria, BC V9B 2X5)","routes":["C1","C3","CA","CL","One-way_Direction_Arrows"],"provs":["BC"],"desc":"P M Bikes<br><br>797 Goldstream Ave, Victoria, BC V9B 2X5<br><br>+12504783312<br><br>Approved Bicycle Shop #4","sym":"Bike Trail"},"geometry":{"type":"Point","coordinates":[-123.50075,48.44877]}},{"type":"Feature","properties":{"name":"Pedal Works Bike Shop (15 Cheadle St W, Swift Current, SK S9H 0B1)","routes":["C1","CA"],"provs":["SK"],"desc":"Pedal Works Bike Shop<br><br>15 Cheadle St W, Swift Current, SK S9H 0B1<br><br>Approved Bike Shop #143","sym":"Bike Trail"},"geometry":{"type":"Point","coordinates":[-107.80059,50.28363]}},{"type":"Feature","properties":{"name":"PedalSport (9020 Young Rd, Chilliwack, BC V2P 4R8)","routes":["C1","C2"],"provs":["BC"],"desc":"PedalSport<br><br>9020 Young Rd, Chilliwack, BC V2P 4R8<br><br>+16047952453<br><br>Approved Bicycle Shop #21","sym":"Bike Trail"},"geometry":{"type":"Point","coordinates":[-121.95227,49.16595]}},{"type":"Feature","properties":{"name":"Phat Moose Cycles (98 Hawthorne Ave, Ottawa, ON K1S 0B1)","routes":["C1","C3","CN","CA"],"provs":["ON"],"desc":"Phat Moose Cycles<br><br>98 Hawthorne Ave, Ottawa, ON K1S 0B1<br><br>Approved Bike Shop #144","sym":"Bike Trail"},"geometry":{"type":"Point","coordinates":[-75.68039,45.41252]}},{"type":"Feature","properties":{"name":"Pictou County Cycle & Repair Service (2619 Westville Rd, New Glasgow, NS B2H 5C6)","routes":["C1","C3","CN","CL","One-way_Direction_Arrows"],"provs":["NS"],"desc":"Pictou County Cycle & Repair Service<br><br>2619 Westville Rd, New Glasgow, NS B2H 5C6<br><br>Approved Bike Shop #145","sym":"Bike Trail"},"geometry":{"type":"Point","coordinates":[-62.68436,45.57775]}},{"type":"Feature","properties":{"name":"PitStop Bikes Victoria (1014 Cook St, Victoria, BC V8V 3Z5)","routes":["C1","C3","CA","CL","One-way_Direction_Arrows"],"provs":["BC"],"desc":"PitStop Bikes Victoria<br><br>1014 Cook St, Victoria, BC V8V 3Z5<br><br>+17784403750<br><br>Approved Bicycle Shop #29","sym":"Bike Trail"},"geometry":{"type":"Point","coordinates":[-123.35451,48.42261]}},{"type":"Feature","properties":{"name":"Potenza Cycle & Fitness (5732 Hwy 7 Unit #1A, Woodbridge, ON L4L 3A2)","routes":["C2","CN","CA","CL"],"provs":["ON"],"desc":"Potenza Cycle & Fitness<br><br>5732 Hwy 7 Unit #1A, Woodbridge, ON L4L 3A2<br><br>Approved Bike Shop #146","sym":"Bike Trail"},"geometry":{"type":"Point","coordinates":[-79.61418,43.77749]}},{"type":"Feature","properties":{"name":"Q.J. Johnny (198 King St W, Brockville, ON K6V 3R5)","routes":["C2","CN","CA"],"provs":["ON"],"desc":"Q.J. Johnny<br><br>198 King St W, Brockville, ON K6V 3R5<br><br>+16133425543<br><br>Approved Bike Shop #147","sym":"Bike Trail"},"geometry":{"type":"Point","coordinates":[-75.68773,44.5878]}},{"type":"Feature","properties":{"name":"R.E.D Cycles (4618 Straume Ave, Terrace, BC V8G 2C3)","routes":["C3","CA"],"provs":["BC"],"desc":"R.E.D Cycles<br><br>4618 Straume Ave, Terrace, BC V8G 2C3<br><br>+12506151025<br><br>Approved Bike Shop #148","sym":"Bike Trail"},"geometry":{"type":"Point","coordinates":[-128.58773,54.52451]}},{"type":"Feature","properties":{"name":"Re-Buy-Cycle Shop (2920 Jacklin Rd Unit 110, Victoria, BC V9B 3Y5)","routes":["C1","C3","CA","CL","One-way_Direction_Arrows"],"provs":["BC"],"desc":"Re-Buy-Cycle Shop<br><br>2920 Jacklin Rd Unit 110, Victoria, BC V9B 3Y5<br><br>+17786799560<br><br>Approved Bike Shop #39","sym":"Bike Trail"},"geometry":{"type":"Point","coordinates":[-123.51061,48.44405]}},{"type":"Feature","properties":{"name":"Rebels Bike Shop (116 Roseberry St, Campbellton, NB E3N 2G9)","routes":["C1","C3","CA"],"provs":["NB"],"desc":"Rebels Bike Shop<br><br>116 Roseberry St, Campbellton, NB E3N 2G9<br><br>Approved Bike Shop #149","sym":"Bike Trail"},"geometry":{"type":"Point","coordinates":[-66.68035,48.00364]}},{"type":"Feature","properties":{"name":"Rebound Cycle (902 8 St, Canmore, AB T1W 2B8)","routes":["C1","C3","CN","CA"],"provs":["AB"],"desc":"Rebound Cycle<br><br>902 8 St, Canmore, AB T1W 2B8<br><br>Approved Bike Shop #152","sym":"Bike Trail"},"geometry":{"type":"Point","coordinates":[-115.36368,51.08937]}},{"type":"Feature","properties":{"name":"Recyclistas Bike Shop (25 Crease Ave, Victoria, BC V8Z 1S4)","routes":["C1","C3","CA","CL","One-way_Direction_Arrows"],"provs":["BC"],"desc":"Recyclistas Bike Shop<br><br>25 Crease Ave, Victoria, BC V8Z 1S4<br><br>+12504188867<br><br>Approved Bike Shop #38","sym":"Bike Trail"},"geometry":{"type":"Point","coordinates":[-123.37827,48.45573]}},{"type":"Feature","properties":{"name":"Rollin' Thunder Bike & Ski (485 Memorial Ave, Thunder Bay, ON P7B 3Y6)","routes":["C1","C2","C3"],"provs":["ON"],"desc":"Rollin' Thunder Bike & Ski<br><br>485 Memorial Ave, Thunder Bay, ON P7B 3Y6<br><br>Approved Bike Shop #150","sym":"Bike Trail"},"geometry":{"type":"Point","coordinates":[-89.23713,48.42168]}},{"type":"Feature","properties":{"name":"Ruckus Skis Boards & Bikes Ltd (2629 Vance Rd, Prince George, BC V2N 1N5)","routes":["C3","CA","CL"],"provs":["BC"],"desc":"Ruckus Skis Boards & Bikes<br><br>2629 Vance Rd, Prince George, BC V2N 1N5<br><br>Approved Bike Shop #151","sym":"Bike Trail"},"geometry":{"type":"Point","coordinates":[-122.77275,53.88085]}},{"type":"Feature","properties":{"name":"Russ Hay's Bike Shop (2426 Bevan Ave, Sidney, BC V8L 1W1)","routes":["C1","C3","CA","CL","CW"],"provs":["BC"],"desc":"Russ Hay's Bike Shop<br><br>2426 Bevan Ave, Sidney, BC V8L 1W1<br><br>+12506561512<br><br>Approved Bicycle Shop #41","sym":"Bike Trail"},"geometry":{"type":"Point","coordinates":[-123.39955,48.64778]}},{"type":"Feature","properties":{"name":"Russ Hay's The Bicycle Shop (Hillside) 650 Hillside Ave, Victoria, BC V8T 1Z2","routes":["C1","C3","CA","CL","One-way_Direction_Arrows"],"provs":["BC"],"desc":"Russ Hay's The Bicycle Shop<br><br>650 Hillside Ave, Victoria, BC V8T 1Z2<br><br>+12503844722<br><br>Approved Bicycle Shop #17","sym":"Bike Trail"},"geometry":{"type":"Point","coordinates":[-123.36818,48.43829]}},{"type":"Feature","properties":{"name":"Savage's Bicycle Center (441 King St, Fredericton, NB E3B 1E5)","routes":["C2"],"provs":["NB"],"desc":"Savage's Bicycle Center<br><br>441 King St, Fredericton, NB E3B 1E5<br><br>Approved Bike Shop #153","sym":"Bike Trail"},"geometry":{"type":"Point","coordinates":[-66.64181,45.96173]}},{"type":"Feature","properties":{"name":"Seasons Outdoors (7330 Riverside Dr #103, Grand Forks, BC V0H 1H0)","routes":["C2"],"provs":["BC"],"desc":"Seasons Outdoors<br><br>7330 Riverside Dr #103, Grand Forks, BC V0H 1H0<br><br>Approved Bike Shop #154","sym":"Bike Trail"},"geometry":{"type":"Point","coordinates":[-118.43604,49.03375]}},{"type":"Feature","properties":{"name":"Senders Bike Shop (call for appointment) (384 Seyforth Dr, Vanderhoof, BC V0J 3A2)","routes":["C3","CA"],"provs":["BC"],"desc":"Senders Bike Shop<br><br>384 Seyforth Dr, Vanderhoof, BC V0J 3A2<br><br>+12505670929<br><br>Approved Bike Shop #155","sym":"Bike Trail"},"geometry":{"type":"Point","coordinates":[-124.00051,54.03033]}},{"type":"Feature","properties":{"name":"Sessions Ride Company (609 Notre Dame Ave, Sudbury, ON P3C 5L4)","routes":["C1","CN","CL"],"provs":["ON"],"desc":"Sessions Ride Company<br><br>609 Notre Dame Ave, Sudbury, ON P3C 5L4<br><br>Approved Bike Shop #156","sym":"Bike Trail"},"geometry":{"type":"Point","coordinates":[-80.98703,46.50657]}},{"type":"Feature","properties":{"name":"Simon's Bike Shop (Library Square, 345 Robson St #203, Vancouver, BC V6B 6B3)","routes":["C2","CN","CA","CL","CW"],"provs":["BC"],"desc":"Simon's Bike Shop<br><br>Library Square, 345 Robson St #203, Vancouver, BC V6B 6B3<br><br>+16046021181<br><br>Approved Bike Shop #48","sym":"Bike Trail"},"geometry":{"type":"Point","coordinates":[-123.11589,49.27926]}},{"type":"Feature","properties":{"name":"Sixth Avenue Sports (835 6 Ave, Hope, BC V0X 1L0)","routes":["C1","C2","CN","CA"],"provs":["BC"],"desc":"Sixth Avenue Sports<br><br>835 6 Ave, Hope, BC V0X 1L0<br><br>+16048692345<br><br>Approved Bike Shop #50","sym":"Bike Trail"},"geometry":{"type":"Point","coordinates":[-121.43436,49.38138]}},{"type":"Feature","properties":{"name":"Skookum Cycle & Ski Ltd (141 Shuswap St N, Salmon Arm, BC V1E 4N6)","routes":["C1","CN","CA"],"provs":["BC"],"desc":"Skookum Cycle & Ski Ltd<br><br>141 Shuswap St N, Salmon Arm, BC V1E 4N6<br><br>Approved Bike Shop #157","sym":"Bike Trail"},"geometry":{"type":"Point","coordinates":[-119.28541,50.70085]}},{"type":"Feature","properties":{"name":"Skookum Cycle & Ski Revelstoke (116 MacKenzie Ave, Revelstoke, BC V0E 2S0)","routes":["C1","CA"],"provs":["BC"],"desc":"Skookum Revelstoke Bike & Ski<br><br>116 MacKenzie Ave, Revelstoke, BC V0E 2S0<br><br>Approved Bike Shop #158","sym":"Bike Trail"},"geometry":{"type":"Point","coordinates":[-118.19481,50.99889]}},{"type":"Feature","properties":{"name":"Skyride - Bike Sales & Service (4815 Silver Star Rd, Vernon, BC V1B 3K3)","routes":["C1"],"provs":["BC"],"desc":"Skyride - Bike Sales & Service<br><br>4815 Silver Star Rd, Vernon, BC V1B 3K3<br><br>Approved Bike Shop #159","sym":"Bike Trail"},"geometry":{"type":"Point","coordinates":[-119.25194,50.28242]}},{"type":"Feature","properties":{"name":"Sovereign Cycle (3480 Carrington Rd #110, West Kelowna, BC V4T 3C1)","routes":["C1"],"provs":["BC"],"desc":"Sovereign Cycle<br><br>3480 Carrington Rd #110, West Kelowna, BC V4T 3C1<br><br>Approved Bike Shop #160","sym":"Bike Trail"},"geometry":{"type":"Point","coordinates":[-119.61203,49.83743]}},{"type":"Feature","properties":{"name":"St-Pierre Sport De Sorel (1108 Chem. des Patriotes, Sorel-Tracy, QC J3P 6L9)","routes":["C1","C2","C3","CN","CW"],"provs":["QC"],"desc":"St-Pierre Sport De Sorel<br><br>1108 Chem. des Patriotes, Sorel-Tracy, QC J3P 6L9<br><br>Approved Bike Shop #161","sym":"Bike Trail"},"geometry":{"type":"Point","coordinates":[-73.12604,46.01387]}},{"type":"Feature","properties":{"name":"Straight Line Bicycle & Skis (461 2 Ave, Fernie, BC V0B 1M0)","routes":["C2","CA"],"provs":["BC"],"desc":"Straight Line Bicycle & Skis<br><br>461 2 Ave, Fernie, BC V0B 1M0<br><br>Approved Bike Shop #162","sym":"Bike Trail"},"geometry":{"type":"Point","coordinates":[-115.06185,49.50294]}},{"type":"Feature","properties":{"name":"Straight Up Cycles (3198 Quadra St #4, Victoria, BC V8X 1G1)","routes":["C1","C3","CA","CL","One-way_Direction_Arrows"],"provs":["BC"],"desc":"Straight Up Cycles<br><br>3198 Quadra St #4, Victoria, BC V8X 1G1<br><br>+12504801944<br><br>Approved Bicycle Shop #27","sym":"Bike Trail"},"geometry":{"type":"Point","coordinates":[-123.36215,48.44866]}},{"type":"Feature","properties":{"name":"Stream N Wood (135 17th St N, Brandon, MB R7A 1G6)","routes":["C1","CA"],"provs":["MB"],"desc":"Stream N Wood<br><br>135 17th St N, Brandon, MB R7A 1G6<br><br>Approved Bike Shop #163","sym":"Bike Trail"},"geometry":{"type":"Point","coordinates":[-99.96085,49.8529]}},{"type":"Feature","properties":{"name":"Stunty's Bikes & Repairs (Panda Square, Scarborough, ON M1B 6G4)","routes":["C2","CA","CL"],"provs":["ON"],"desc":"Stunty's Bikes & Repairs<br><br>Panda Square, Scarborough, ON M1B 6G4<br><br>+14372301527","sym":"Bike Trail"},"geometry":{"type":"Point","coordinates":[-79.18402,43.80703]}},{"type":"Feature","properties":{"name":"Summit Cycles and Sports (1021 Canyon St, Creston, BC V0B 1G0)","routes":["C2","CA"],"provs":["BC"],"desc":"Summit Cycles and Sports<br><br>1021 Canyon St, Creston, BC V0B 1G0<br><br>Approved Bike Shop #164","sym":"Bike Trail"},"geometry":{"type":"Point","coordinates":[-116.5124,49.09543]}},{"type":"Feature","properties":{"name":"Sunflower Bicycle Repair (838 Shuswap Ave, Chase, BC V0E 1M0)","routes":["CN"],"provs":["BC"],"desc":"Sunflower Bicycle Repair<br><br>838 Shuswap Ave, Chase, BC V0E 1M0<br><br>Approved Bike Shop #165","sym":"Bike Trail"},"geometry":{"type":"Point","coordinates":[-119.6869,50.82053]}},{"type":"Feature","properties":{"name":"Swicked Cycles Ltd.","routes":["C3","CA"],"provs":["BC"],"desc":"area","sym":"Bike Trail"},"geometry":{"type":"Point","coordinates":[-125.27058,50.02872]}},{"type":"Feature","properties":{"name":"The Bicycle Specialist (198 Church St, Amherst, NS B4H 3C7)","routes":["C3","CA"],"provs":["NS"],"desc":"The Bicycle Specialist<br><br>198 Church St, Amherst, NS B4H 3C7<br><br>Approved Bike Shop #167","sym":"Bike Trail"},"geometry":{"type":"Point","coordinates":[-64.19756,45.82694]}},{"type":"Feature","properties":{"name":"The Bike Barn (300 Westminster Ave W, Penticton, BC V2A 1K2)","routes":["C1","CA"],"provs":["BC"],"desc":"The Bike Barn<br><br>300 Westminster Ave W, Penticton, BC V2A 1K2<br><br>+12504924140<br><br>Approved Bike Shop #23","sym":"Bike Trail"},"geometry":{"type":"Point","coordinates":[-119.59796,49.49905]}},{"type":"Feature","properties":{"name":"The Bike Garage (66 William St N, Lindsay, ON K9V 4A2)","routes":["C3","CA"],"provs":["ON"],"desc":"The Bike Garage<br><br>66 William St N, Lindsay, ON K9V 4A2<br><br>Approved Bike Shop #168","sym":"Bike Trail"},"geometry":{"type":"Point","coordinates":[-78.7377,44.35731]}},{"type":"Feature","properties":{"name":"The Bike Pedaler (61 Portland St, Dartmouth, NS B2Y 1H1)","routes":["C2","CN","CA","CL","One-way_Direction_Arrows"],"provs":["NS"],"desc":"The Bike Pedaler<br><br>61 Portland St, Dartmouth, NS B2Y 1H1<br><br>Approved Bike Shop #169","sym":"Bike Trail"},"geometry":{"type":"Point","coordinates":[-63.56706,44.66537]}},{"type":"Feature","properties":{"name":"The Bike Stop of Orillia & Sports (84 Colborne St W, Orillia, ON L3V 2Y7)","routes":["C3","CN","CA","CL"],"provs":["ON"],"desc":"84 Colborne St W, Orillia, ON L3V 2Y7<br><br>+17053252453<br><br>Approved Bike Shop #61","sym":"Bike Trail"},"geometry":{"type":"Point","coordinates":[-79.42212,44.60597]}},{"type":"Feature","properties":{"name":"The Crank & Sprocket Bicycle Co. (88 Laclie St #2, Orillia, ON L3V 4M8)","routes":["C3","CN","CA","CL"],"provs":["ON"],"desc":"The Crank & Sprocket Bicycle Co.<br><br>88 Laclie St #2, Orillia, ON L3V 4M8<br><br>Approved Bike Shop #171","sym":"Bike Trail"},"geometry":{"type":"Point","coordinates":[-79.41558,44.61328]}},{"type":"Feature","properties":{"name":"The Cyclery (1115 Bank St, Ottawa, ON K1S 3X4)","routes":["C1","C3","CN","CA"],"provs":["ON"],"desc":"1115 Bank St, Ottawa, ON K1S 3X4<br><br>+16137302856<br><br>Approved Bicycle Shop #25","sym":"Bike Trail"},"geometry":{"type":"Point","coordinates":[-75.68287,45.39363]}},{"type":"Feature","properties":{"name":"The Guide's Hut (671 2 Ave, Fernie, BC V0B 1M0)","routes":["C2","CA"],"provs":["BC"],"desc":"The Guide's Hut<br><br>671 2 Ave, Fernie, BC V0B 1M0<br><br>Approved Bike Shop #172","sym":"Bike Trail"},"geometry":{"type":"Point","coordinates":[-115.06031,49.5045]}},{"type":"Feature","properties":{"name":"The Hardwear Company (Bicycle repair) (106 Main St S, Kenora, ON P9N 1S9)","routes":["C1","C2","C3","CA"],"provs":["ON"],"desc":"The Hardwear Company<br><br>106 Main St S, Kenora, ON P9N 1S9<br><br>Approved Bike Shop #173","sym":"Bike Trail"},"geometry":{"type":"Point","coordinates":[-94.4903,49.76763]}},{"type":"Feature","properties":{"name":"The Pedaler Cycling Tours (321 Belleville St, Victoria, BC V8V 1W3)","routes":["C1","C3","CA","CL","One-way_Direction_Arrows"],"provs":["BC"],"desc":"The Pedaler Cycling Tours<br><br>321 Belleville St, Victoria, BC V8V 1W3<br><br>+17782657433<br><br>Approved Bike Shop #63","sym":"Bike Trail"},"geometry":{"type":"Point","coordinates":[-123.37449,48.42145]}},{"type":"Feature","properties":{"name":"The Sacred Ride (213 Baker St, Nelson, BC V1L 4H4)","routes":["C2"],"provs":["BC"],"desc":"The Sacred Ride<br><br>213 Baker St, Nelson, BC V1L 4H4<br><br>Approved Bike Shop #174","sym":"Bike Trail"},"geometry":{"type":"Point","coordinates":[-117.29789,49.49064]}},{"type":"Feature","properties":{"name":"Tofino Bike Co (1180 Pacific Rim Hwy, Tofino, BC V0R 2Z0)","routes":["C2","CA"],"provs":["BC"],"desc":"Tofino Bike Co<br><br>1180 Pacific Rim Hwy, Tofino, BC V0R 2Z0<br><br>Approved Bike Shop #175","sym":"Bike Trail"},"geometry":{"type":"Point","coordinates":[-125.89338,49.12672]}},{"type":"Feature","properties":{"name":"Total Cyclery & Sports (241 Pitt St, Cornwall, ON K6J 3P8)","routes":["C2"],"provs":["ON","QC"],"desc":"Total Cyclery<br><br>241 Pitt St, Cornwall, ON K6J 3P8<br><br>Approved Bike Shop #176","sym":"Bike Trail"},"geometry":{"type":"Point","coordinates":[-74.72903,45.01938]}},{"type":"Feature","properties":{"name":"Trek Bicycle Kingston (477 Princess St, Kingston, ON K7L 1C3)","routes":["C2","C3","CL"],"provs":["ON"],"desc":"Trek Bicycle Kingston<br><br>477 Princess St, Kingston, ON K7L 1C3<br><br>Approved Bike Shop #177","sym":"Bike Trail"},"geometry":{"type":"Point","coordinates":[-76.4948,44.23435]}},{"type":"Feature","properties":{"name":"Trek Bicycle Maple Ridge (21626 Lougheed Hwy., Maple Ridge, BC V2X 2S1)","routes":["C1","CN","CL"],"provs":["BC"],"desc":"Trek Bicycle Maple Ridge<br><br>21626 Lougheed Hwy., Maple Ridge, BC V2X 2S1<br><br>Approved Bike Shop #178","sym":"Bike Trail"},"geometry":{"type":"Point","coordinates":[-122.62249,49.2169]}},{"type":"Feature","properties":{"name":"Trek Bicycle Store (Catherine Street) (338 Catherine St, Victoria, BC V9A 1E7)","routes":["C1","C3","CA","CL","One-way_Direction_Arrows"],"provs":["BC"],"desc":"Trek Bicycle Store (Catherine Street)<br><br>338 Catherine St, Victoria, BC V9A 1E7<br><br>+12503807877<br><br>Approved Bicycle Shop #16","sym":"Bike Trail"},"geometry":{"type":"Point","coordinates":[-123.38488,48.42998]}},{"type":"Feature","properties":{"name":"Two Tired Boys (2450 Saskatchewan Ave W unit a02, Portage la Prairie, MB R1N 3N8)","routes":["C1","C3","CN","CA"],"provs":["MB"],"desc":"Two Tired Boys<br><br>2450 Saskatchewan Ave W unit a02, Portage la Prairie, MB R1N 3N8<br><br>Approved Bike Shop #179","sym":"Bike Trail"},"geometry":{"type":"Point","coordinates":[-98.33042,49.97482]}},{"type":"Feature","properties":{"name":"Ukee Bikes (1559 Imperial Ln, Ucluelet, BC V0R 3A0)","routes":["C2"],"provs":["BC"],"desc":"Ukee Bikes<br><br>1559 Imperial Ln, Ucluelet, BC V0R 3A0<br><br>Approved Bike Shop #180","sym":"Bike Trail"},"geometry":{"type":"Point","coordinates":[-125.54483,48.94185]}},{"type":"Feature","properties":{"name":"Valley Stove & Cycle (353 Main St, Kentville, NS B4N 1K7)","routes":["C2"],"provs":["NS"],"desc":"Valley Stove & Cycle<br><br>353 Main St, Kentville, NS B4N 1K7<br><br>Approved Bike Shop #181","sym":"Bike Trail"},"geometry":{"type":"Point","coordinates":[-64.49457,45.07711]}},{"type":"Feature","properties":{"name":"Vedder Mountain Bike Co. (5658 Vedder Rd #102, Chilliwack, BC V2R 3N5)","routes":["C1","C2","CA"],"provs":["BC"],"desc":"Vedder Mountain Bike Co.<br><br>5658 Vedder Rd #102, Chilliwack, BC V2R 3N5<br><br>Approved Bike Shop #182","sym":"Bike Trail"},"geometry":{"type":"Point","coordinates":[-121.96099,49.10533]}},{"type":"Feature","properties":{"name":"Velo Max Cycling (Velo Max Cycling (inside Caper Gas Belle Cote) 10787 Cabot Trail Rd, Belle C\u00f4te, NS B0E 1C0","routes":["C3"],"provs":["NS"],"desc":"contact to arrange appointment<br><br>https://www.facebook.com/velomaxcycling/<br><br>10787 Cabot Trail Rd, Belle C\u00f4te, NS B0E 1C0<br><br>Approved Bike Shop #183","sym":"Bike Trail"},"geometry":{"type":"Point","coordinates":[-61.09655,46.44986]}},{"type":"Feature","properties":{"name":"Velofix Victoria - Mobile Bicycle Repair (call for appointment)","routes":["C1","C3","CA","CL","One-way_Direction_Arrows"],"provs":["BC"],"desc":"+18558356349<br><br>Approved Bike Shop #49","sym":"Bike Trail"},"geometry":{"type":"Point","coordinates":[-123.36535,48.42837]}},{"type":"Feature","properties":{"name":"Velorution (12 Fish Hatchery Rd, Sault Ste. Marie, ON P6A 6J8)","routes":["C1","C2","C3","CA"],"provs":["ON"],"desc":"Velorution<br><br>12 Fish Hatchery Rd, Sault Ste. Marie, ON P6A 6J8<br><br>Approved Bicycle Shop #3<br><br>+1 705 253 9388","sym":"Bike Trail"},"geometry":{"type":"Point","coordinates":[-84.28209,46.57557]}},{"type":"Feature","properties":{"name":"Vicious Cycle (630 Connaught Dr, Jasper, AB T0E 1E0)","routes":["C3","CA"],"provs":["AB"],"desc":"Vicious Cycle<br><br>630 Connaught Dr, Jasper, AB T0E 1E0<br><br>Approved Bike Shop #184","sym":"Bike Trail"},"geometry":{"type":"Point","coordinates":[-118.08142,52.87421]}},{"type":"Feature","properties":{"name":"Wentings' Cycle & Mountain Shop (33245 N Railway Ave, Mission, BC V2V 1E4)","routes":["C1","C2","CN","CA","CL"],"provs":["BC"],"desc":"Wentings Cycle<br><br>33245 N Railway Ave, Mission, BC V2V 1E4<br><br>Approved Bike Shop #185","sym":"Bike Trail"},"geometry":{"type":"Point","coordinates":[-122.30347,49.13404]}},{"type":"Feature","properties":{"name":"Western Cycle (1550 8th Ave, Regina, SK S4R 1E4)","routes":["C1"],"provs":["SK"],"desc":"Western Cycle<br><br>1550 8th Ave, Regina, SK S4R 1E4<br><br>Approved Bike Shop #186","sym":"Bike Trail"},"geometry":{"type":"Point","coordinates":[-104.60291,50.45699]}},{"type":"Feature","properties":{"name":"WestShore Bicycles (800 Kelly Rd #104, Victoria, BC V9B 5T6)","routes":["C1","C3","CA","CL","One-way_Direction_Arrows"],"provs":["BC"],"desc":"WestShore Bicycles<br><br>800 Kelly Rd #104, Victoria, BC V9B 5T6<br><br>+12505906960<br><br>Approved Bicycle Shop #9","sym":"Bike Trail"},"geometry":{"type":"Point","coordinates":[-123.50583,48.43856]}},{"type":"Feature","properties":{"name":"Wheelers Yard Bike Shop (6981 E Saanich Rd #203, Victoria, BC V8Z 5Z2)","routes":["C1","C3","CA","CW"],"provs":["BC"],"desc":"Wheelers Yard Bike Shop 6981 E Saanich Rd #203, Victoria, BC V8Z 5Z2<br><br>+17784264433<br><br>Approved Bike Shop #191","sym":"Bike Trail"},"geometry":{"type":"Point","coordinates":[-123.40272,48.57225]}},{"type":"Feature","properties":{"name":"Wheelhouse","routes":["C1","CA"],"provs":["ON"],"desc":"1055 Cassells St, North Bay, ON P1B 4B1 (705) 223-0403 Locally owned bike shop and retail offerings. https://www.facebook.com/wheelshousebikeshop/","sym":"Bike Trail"},"geometry":{"type":"Point","coordinates":[-79.45829,46.31677]}},{"type":"Feature","properties":{"name":"Wild Bike (4734 Lazelle Ave #102, Terrace, BC V8G 1T2)","routes":["C3","CA"],"provs":["BC"],"desc":"Wild Bike<br><br>4734 Lazelle Ave #102, Terrace, BC V8G 1T2<br><br>+12506355225<br><br>Approved Bike Shop #187","sym":"Bike Trail"},"geometry":{"type":"Point","coordinates":[-128.59766,54.51803]}},{"type":"Feature","properties":{"name":"Wild Ways Adventure Sports (1925 Crowsnest Hwy, BC-3, Christina Lake, BC V0H 1E2)","routes":["C2","CA"],"provs":["BC"],"desc":"Wild Ways Adventure Sports<br><br>1925 BC-3, Christina Lake, BC V0H 1E2<br><br>wildways.com<br><br>+1 250-447-6561<br><br>Approved Bike Shop #188","sym":"Bike Trail"},"geometry":{"type":"Point","coordinates":[-118.21409,49.05509]}},{"type":"Feature","properties":{"name":"Wilson Mountain Sports (Samson Mall, Building A, 101 Lake Louise Dr, Lake Louise, AB T0L 1E0)","routes":["C1","C3","CN","CA"],"provs":["AB"],"desc":"Wilson Mountain Sports<br><br>Samson Mall, Building A, 101 Lake Louise Dr, Lake Louise, AB T0L 1E0<br><br>Approved Bike Shop #189","sym":"Bike Trail"},"geometry":{"type":"Point","coordinates":[-116.17909,51.42561]}},{"type":"Feature","properties":{"name":"Woodcock Cycle Works (433 St Mary's Rd, Winnipeg, MB R2M 3K7)","routes":["C1","C2","C3"],"provs":["MB"],"desc":"Woodcock Cycle Works<br><br>433 St Mary's Rd, Winnipeg, MB R2M 3K7<br><br>+12042535896<br><br>Approved Bike Shop #62","sym":"Bike Trail"},"geometry":{"type":"Point","coordinates":[-97.11218,49.87093]}},{"type":"Feature","properties":{"name":"Yantha Cycle","routes":["C1","CA"],"provs":["ON"],"desc":"recommended from video https://www.youtube.com/watch?v=7jruPfK_ejo (22may2024)","sym":"Bike Trail"},"geometry":{"type":"Point","coordinates":[-77.16139,45.8307]}},{"type":"Feature","properties":{"name":"Yellow Bike Action (Community Bike Repair) 303 York St, Kingston, ON K7K 4M4","routes":["C2","C3","CL"],"provs":["ON"],"desc":"Yellow Bike Action (Community Bike Repair)<br><br>303 York St, Kingston, ON K7K 4M4<br><br>Approved Bike Shop #190","sym":"Bike Trail"},"geometry":{"type":"Point","coordinates":[-76.49987,44.23905]}}]}