{"type":"FeatureCollection","features":[{"type":"Feature","properties":{"name":"Crowsnest Highway and 10th Ave (Eagle RV Park and Campground 151m)","routes":["C1","C2","CN","CA"],"provs":["BC"],"sym":"Triangle, Green"},"geometry":{"type":"Point","coordinates":[-119.8597,49.20504]}},{"type":"Feature","properties":{"name":"Crowsnest Highway and E.C. Manning Provincial Park (Mule Deer Campground 67m)","routes":["C1","C2","CA"],"provs":["BC"],"sym":"Triangle, Green"},"geometry":{"type":"Point","coordinates":[-120.68233,49.09041]}},{"type":"Feature","properties":{"name":"Dunsmuir St and Beatty St (Hotel Willo formerly YWCA Hotel / Residence 228m)","routes":["C2","CN","CA","CL"],"provs":["BC"],"sym":"Triangle, Green"},"geometry":{"type":"Point","coordinates":[-123.11056,49.27993]}},{"type":"Feature","properties":{"name":"Ferry Rd and Mill Bay Rd (Bamberton Provincial Park Campground 2.4km)","routes":["C1","C3","CA","CL","CW"],"provs":["BC"],"sym":"Triangle, Green"},"geometry":{"type":"Point","coordinates":[-123.52154,48.6162]}},{"type":"Feature","properties":{"name":"Fraser Highway and Alley (Aloha RV Park & Campsite 49m)","routes":["C1","C2","CN","CA","CL"],"provs":["BC"],"sym":"Triangle, Green"},"geometry":{"type":"Point","coordinates":[-122.40233,49.0576]}},{"type":"Feature","properties":{"name":"Kawkawa Lake Rd and 7th Ave (Coquihalla Campground 223m)","routes":["C1","C2","CN","CA"],"provs":["BC"],"sym":"Triangle, Green"},"geometry":{"type":"Point","coordinates":[-121.42871,49.3787]}},{"type":"Feature","properties":{"name":"Kettle Valley Rail Trl and Crowsnest Highway (Rivers Edge RV Park 1.7km)","routes":["C1","C2","CA"],"provs":["BC"],"sym":"Triangle, Green"},"geometry":{"type":"Point","coordinates":[-120.50468,49.45891]}},{"type":"Feature","properties":{"name":"Lougheed Highway and Nelson St (Sun Valley Trout Park 833m)","routes":["C1","C2","CN","CA"],"provs":["BC"],"sym":"Triangle, Green"},"geometry":{"type":"Point","coordinates":[-122.3601,49.13964]}},{"type":"Feature","properties":{"name":"No. 3 Rd and Yarrow Central Rd (Vedder River Campground 5.3km)","routes":["C1","C2","CA","CL"],"provs":["BC"],"sym":"Triangle, Green"},"geometry":{"type":"Point","coordinates":[-122.06495,49.08211]}},{"type":"Feature","properties":{"name":"Pandora Ave and Wharf St and Store St (Ocean Island Backpackers Inn 622m)","routes":["C1","C3","CA","CL"],"provs":["BC"],"sym":"Triangle, Green"},"geometry":{"type":"Point","coordinates":[-123.36975,48.42854]}},{"type":"Feature","properties":{"name":"Trans-Canada Highway and Cranberry Ave (Living Forest Oceanside Campground and RV Park 1.1km)","routes":["C2","C3","CN","CA","CW"],"provs":["BC"],"sym":"Triangle, Green"},"geometry":{"type":"Point","coordinates":[-123.91952,49.12803]}},{"type":"Feature","properties":{"name":"Trans-Canada Highway and ramp at Chawuthen Creek (Wild Rose Camping and Rv Park 1.2km)","routes":["C1","C2","CN","CA"],"provs":["BC"],"sym":"Triangle, Green"},"geometry":{"type":"Point","coordinates":[-121.52582,49.36482]}}]}