{"type":"FeatureCollection","features":[{"type":"Feature","properties":{"name":"Aire de service de la Baie-de-Maskinong\u00e9 (toilets, water, restaurant, phone, visitors information)","routes":["C1","C3","CA"],"provs":["QC"],"desc":"area","sym":"Drinking Water"},"geometry":{"type":"Point","coordinates":[-73.00343,46.19577]}},{"type":"Feature","properties":{"name":"Aire de service de Rigaud (toilets, water, restaurant, phone, visitors information)","routes":["C1","C3","CA"],"provs":["QC"],"desc":"Halte Routi\u00e8re de Rigaud","sym":"Drinking Water"},"geometry":{"type":"Point","coordinates":[-74.28388,45.47689]}},{"type":"Feature","properties":{"name":"Aire de service de Rivi\u00e8re-Beaudette (toilets, water, visitors information, phone, restaurant)","routes":["C2"],"provs":["ON","QC"],"desc":"Centre Infotouriste de Rivi\u00e8re-Beaudette","sym":"Drinking Water"},"geometry":{"type":"Point","coordinates":[-74.33854,45.21204]}},{"type":"Feature","properties":{"name":"Aire de service du Point-du-Jour (toilets, water, phone, wifi, snack or vending machine)","routes":["C1","C2","C3"],"provs":["QC"],"desc":"Aire de Services Du Point-Du-Jour","sym":"Drinking Water"},"geometry":{"type":"Point","coordinates":[-73.34952,45.89054]}},{"type":"Feature","properties":{"name":"Bridal Veil Falls Provincial Park (toilets, water)","routes":["C1","C2"],"provs":["BC"],"desc":"forest, park","sym":"Drinking Water"},"geometry":{"type":"Point","coordinates":[-121.74267,49.1844]}},{"type":"Feature","properties":{"name":"Bromley Rock Provincial Park Campground - water","routes":["C1","C2","CA"],"provs":["BC"],"desc":"forest, park","sym":"Drinking Water"},"geometry":{"type":"Point","coordinates":[-120.26169,49.41298]}},{"type":"Feature","properties":{"name":"drinking water","routes":["C1","C3","CA","CL","One-way_Direction_Arrows"],"provs":["BC"],"desc":"area","sym":"Drinking Water"},"geometry":{"type":"Point","coordinates":[-123.36859,48.42261]}},{"type":"Feature","properties":{"name":"Halte Antoine-Desrosiers (toilets, water, phone)","routes":["C1","C2","C3"],"provs":["QC"],"desc":"picnic site","sym":"Drinking Water"},"geometry":{"type":"Point","coordinates":[-72.31873,46.44277]}},{"type":"Feature","properties":{"name":"Halte de Cap-Chat (toilets, water, restaurant, phone)","routes":["C3"],"provs":["QC"],"desc":"Wc","sym":"Drinking Water"},"geometry":{"type":"Point","coordinates":[-66.67873,49.09835]}},{"type":"Feature","properties":{"name":"Halte de Cloridorme (St-Yvon) (toilets, water)","routes":["C3"],"provs":["QC"],"desc":"Wc","sym":"Drinking Water"},"geometry":{"type":"Point","coordinates":[-64.80541,49.16448]}},{"type":"Feature","properties":{"name":"Halte de Deschaillons (Fen\u00eatre sur le fleuve) (toilets, water, visitors information)","routes":["C1","C2","C3"],"provs":["QC"],"desc":"area","sym":"Drinking Water"},"geometry":{"type":"Point","coordinates":[-72.13341,46.54777]}},{"type":"Feature","properties":{"name":"Halte de Fraserville (toilets, water, phone)","routes":["C1","C2","C3","CA"],"provs":["QC"],"desc":"area","sym":"Drinking Water"},"geometry":{"type":"Point","coordinates":[-69.5559,47.80881]}},{"type":"Feature","properties":{"name":"Halte de Gasp\u00e9 (Harbour) (Toilets, water, phone, visitors centre)","routes":["C3","CL"],"provs":["QC"],"desc":"area","sym":"Drinking Water"},"geometry":{"type":"Point","coordinates":[-64.4781,48.82383]}},{"type":"Feature","properties":{"name":"Halte de Kamouraska (toilets, water, snacks or vending machine, phone)","routes":["C1","C2","C3"],"provs":["QC"],"desc":"Wc","sym":"Drinking Water"},"geometry":{"type":"Point","coordinates":[-69.86798,47.48669]}},{"type":"Feature","properties":{"name":"Halte de l'Isle-Verte (toilets, water)","routes":["C1","C3"],"provs":["QC"],"desc":"Wc","sym":"Drinking Water"},"geometry":{"type":"Point","coordinates":[-69.34583,48.00643]}},{"type":"Feature","properties":{"name":"Halte de la Barre-\u00e0-Boulard (toilets, water)","routes":["C1","C2","C3","CA"],"provs":["QC"],"desc":"picnic site","sym":"Drinking Water"},"geometry":{"type":"Point","coordinates":[-71.94809,46.64025]}},{"type":"Feature","properties":{"name":"Halte de la Chaudi\u00e8re-Appalaches (toilets, water, phone, snacks or vending machine, visitors centre)","routes":["C1","C2","C3"],"provs":["QC"],"desc":"information","sym":"Drinking Water"},"geometry":{"type":"Point","coordinates":[-71.2993,46.69816]}},{"type":"Feature","properties":{"name":"Halte de La Durantaye (toilets, water, snacks or vending machine, phone)","routes":["C1","C2","C3"],"provs":["QC"],"desc":"Wc","sym":"Drinking Water"},"geometry":{"type":"Point","coordinates":[-70.92703,46.84186]}},{"type":"Feature","properties":{"name":"Halte de la Marina (toilets, water)","routes":["C3","CN","CA","CL"],"provs":["QC"],"desc":"Wc","sym":"Drinking Water"},"geometry":{"type":"Point","coordinates":[-67.52978,48.85337]}},{"type":"Feature","properties":{"name":"Halte de la Vieille Usine (Saint-Maurice) (toilets, water)","routes":["C3"],"provs":["QC"],"desc":"area","sym":"Drinking Water"},"geometry":{"type":"Point","coordinates":[-64.47919,49.05329]}},{"type":"Feature","properties":{"name":"Halte de Lac-au-Saumon (toilets, water, phone)","routes":["C1","CA"],"provs":["QC"],"desc":"area","sym":"Drinking Water"},"geometry":{"type":"Point","coordinates":[-67.34516,48.42423]}},{"type":"Feature","properties":{"name":"Halte de Lotbini\u00e8re (toilets, water, restaurant)","routes":["C1","C2","C3"],"provs":["QC"],"desc":"area","sym":"Drinking Water"},"geometry":{"type":"Point","coordinates":[-71.9579,46.61095]}},{"type":"Feature","properties":{"name":"Halte de Notre-Dame-du-Portage (water, toilets)","routes":["C1","C2","C3"],"provs":["QC"],"desc":"area","sym":"Drinking Water"},"geometry":{"type":"Point","coordinates":[-69.63747,47.73977]}},{"type":"Feature","properties":{"name":"Halte de Saint-Michel-de-Bellechasse (toilets, water, snacks or vending machine, phone)","routes":["C1","C2","C3"],"provs":["QC"],"desc":"area","sym":"Drinking Water"},"geometry":{"type":"Point","coordinates":[-70.92357,46.84752]}},{"type":"Feature","properties":{"name":"Halte de Saint-Placide (toilets, water)","routes":["C1","C3","CN","CW"],"provs":["QC"],"desc":"Halte Municipale de St-Placide","sym":"Drinking Water"},"geometry":{"type":"Point","coordinates":[-74.21567,45.528]}},{"type":"Feature","properties":{"name":"Halte de Saint-Vallier (toilets, water)","routes":["C1","C2","C3"],"provs":["QC"],"desc":"area","sym":"Drinking Water"},"geometry":{"type":"Point","coordinates":[-70.85631,46.88468]}},{"type":"Feature","properties":{"name":"Halte de Sainte-Anne-de-la-Pocati\u00e8re (toilets, water, restaurant)","routes":["C1","C2","C3"],"provs":["QC"],"desc":"meadow","sym":"Drinking Water"},"geometry":{"type":"Point","coordinates":[-70.09193,47.33905]}},{"type":"Feature","properties":{"name":"Halte de Sainte-Anne-des-Monts (toilets, water, restaurants)","routes":["C3"],"provs":["QC"],"desc":"Wc","sym":"Drinking Water"},"geometry":{"type":"Point","coordinates":[-66.42014,49.15629]}},{"type":"Feature","properties":{"name":"Halte de Val-Brillant (toilets, drinking water)","routes":["C1"],"provs":["QC"],"desc":"forest, park","sym":"Drinking Water"},"geometry":{"type":"Point","coordinates":[-67.56058,48.53927]}},{"type":"Feature","properties":{"name":"Halte des Corsaires-Acadiens-de-la-Petite-Rochelle (toilets, water, visitors information)","routes":["C1","C3","CA"],"provs":["QC","NB"],"sym":"Drinking Water"},"geometry":{"type":"Point","coordinates":[-66.7032,48.03336]}},{"type":"Feature","properties":{"name":"Halte des Monadnocks (toilets, water, snacks or vending mahine, phone)","routes":["C1","C2","C3"],"provs":["QC"],"desc":"service road","sym":"Drinking Water"},"geometry":{"type":"Point","coordinates":[-69.86087,47.49009]}},{"type":"Feature","properties":{"name":"Halte du Cap-Saint-Ignace (toilets, water, visitors information)","routes":["C1","C2","C3"],"provs":["QC"],"desc":"residential area","sym":"Drinking Water"},"geometry":{"type":"Point","coordinates":[-70.46907,47.03069]}},{"type":"Feature","properties":{"name":"Halte du Parc des Rives (toilets, water)","routes":["C3","CL"],"provs":["QC"],"desc":"area","sym":"Drinking Water"},"geometry":{"type":"Point","coordinates":[-67.69709,48.78811]}},{"type":"Feature","properties":{"name":"Halte du Parc Multi-sports (toilets, water)","routes":["C3","CA"],"provs":["QC"],"desc":"area","sym":"Drinking Water"},"geometry":{"type":"Point","coordinates":[-66.50134,49.12548]}},{"type":"Feature","properties":{"name":"Halte Du Phare (toilets, drinking water, resturants)","routes":["C3"],"provs":["QC"],"desc":"Halte Du Phare","sym":"Drinking Water"},"geometry":{"type":"Point","coordinates":[-65.32531,49.25083]}},{"type":"Feature","properties":{"name":"Halte Notre-Dame-de-la-Rive (toilets, water)","routes":["C1","C2","C3"],"provs":["QC"],"desc":"area","sym":"Drinking Water"},"geometry":{"type":"Point","coordinates":[-72.44431,46.39741]}},{"type":"Feature","properties":{"name":"Halte-sur-Mer (toilets, water, wifi)","routes":["C3"],"provs":["QC"],"desc":"area","sym":"Drinking Water"},"geometry":{"type":"Point","coordinates":[-67.96432,48.68392]}},{"type":"Feature","properties":{"name":"Marble Canyon Campground (Kootenay National Park) (Toilets, water)","routes":["CN"],"provs":["BC"],"desc":"Marble Canyon Campground<br><br> (Kootenay National Park)","sym":"Drinking Water"},"geometry":{"type":"Point","coordinates":[-116.11952,51.18438]}},{"type":"Feature","properties":{"name":"Mcminn Park - water","routes":["C1","C3","CW"],"provs":["BC"],"desc":"McMinn Park","sym":"Drinking Water"},"geometry":{"type":"Point","coordinates":[-123.36607,48.50903]}},{"type":"Feature","properties":{"name":"Parc du Lac-Saint-Pierre (toilets, water, snacks or vending machine)","routes":["C1","C2","C3"],"provs":["QC"],"desc":"area","sym":"Drinking Water"},"geometry":{"type":"Point","coordinates":[-72.69954,46.28833]}},{"type":"Feature","properties":{"name":"Place Cl\u00e9ment-Chouinard (toilets, water, restaurant)","routes":["C1","C3"],"provs":["QC"],"desc":"area","sym":"Drinking Water"},"geometry":{"type":"Point","coordinates":[-68.28609,48.58714]}},{"type":"Feature","properties":{"name":"Potable Water at Marina","routes":["C1","C2","C3"],"provs":["ON"],"sym":"Drinking Water"},"geometry":{"type":"Point","coordinates":[-87.5196,48.83392]}},{"type":"Feature","properties":{"name":"Water","routes":["C1","C3","CA","CL","One-way_Direction_Arrows"],"provs":["BC"],"desc":"Water","sym":"Drinking Water"},"geometry":{"type":"Point","coordinates":[-123.35973,48.47599]}},{"type":"Feature","properties":{"name":"Water Bottle Fill Station\u00a0 Lee Park.","routes":["C1","CA"],"provs":["ON"],"desc":"Part of the public washroom at the park.","sym":"Drinking Water"},"geometry":{"type":"Point","coordinates":[-79.45961,46.30023]}},{"type":"Feature","properties":{"name":"Water by Harrison Yacht Pond","routes":["C1","C3","CA","CL","One-way_Direction_Arrows"],"provs":["BC"],"desc":"Water","sym":"Drinking Water"},"geometry":{"type":"Point","coordinates":[-123.37415,48.41012]}},{"type":"Feature","properties":{"name":"Water Fill Station Omischl Sports Complex","routes":["C1","CA"],"provs":["ON"],"desc":"Outdoor taps available.\u00a0 Washroom facilities.","sym":"Drinking Water"},"geometry":{"type":"Point","coordinates":[-79.40999,46.25829]}},{"type":"Feature","properties":{"name":"Water fountain (seasonal)","routes":["C1","C3","CA","CL","One-way_Direction_Arrows"],"provs":["BC"],"desc":"area","sym":"Drinking Water"},"geometry":{"type":"Point","coordinates":[-123.37771,48.45609]}},{"type":"Feature","properties":{"name":"Water fountain at Selkirk Trestle","routes":["C1","C3","CA","CL","One-way_Direction_Arrows"],"provs":["BC"],"desc":"forest, park","sym":"Drinking Water"},"geometry":{"type":"Point","coordinates":[-123.38315,48.43788]}},{"type":"Feature","properties":{"name":"Water1","routes":["C1","C2"],"provs":["BC"],"desc":"Water","sym":"Drinking Water"},"geometry":{"type":"Point","coordinates":[-120.78599,49.06368]}},{"type":"Feature","properties":{"name":"Water2","routes":["C1","C3","CA","CL","CW"],"provs":["BC"],"desc":"Water","sym":"Drinking Water"},"geometry":{"type":"Point","coordinates":[-123.39741,48.59388]}}]}