{"type":"FeatureCollection","features":[{"type":"Feature","properties":{"name":"Jaggars Point Oceanfront Campground","routes":["C2","CW"],"provs":["NS"],"desc":"description: <br>Type: Privately Owned Campground<br>ID:","sym":"Campground"},"geometry":{"type":"Point","coordinates":[-65.7164,44.612]}},{"type":"Feature","properties":{"name":"Kashabowie River Resort","routes":["C2","CA"],"provs":["ON"],"desc":"description: yes tenting <br>https://www.transcanadahighway.com/listing/lake-kashabowie-lodge-campground/<br>Details from Google Maps<br>1 Kash River Rd, Kashabowie, ON P0T 1Y0<br>www.kashabowie.com<br>+1 807-926-2442<br>Type: Privately Owned Campground<br>ID: 301.0","sym":"Campground"},"geometry":{"type":"Point","coordinates":[-90.4175,48.64619]}},{"type":"Feature","properties":{"name":"Living Forest Oceanside Campground & RV Park","routes":["C2","C3","CN","CA","CW"],"provs":["BC"],"desc":"description: ID#119 <br>Details from Google Maps<br>6 Maki Rd, Nanaimo, BC V9R 6N7<br>livingforest.com<br>+1 250-755-1755<br>Type: Privately Owned Campground<br>ID: 119.0","sym":"Campground"},"geometry":{"type":"Point","coordinates":[-123.91208,49.13077]}}]}