{"type":"FeatureCollection","features":[{"type":"Feature","properties":{"name":"Abbotsford VIA Rail","routes":["C1","C2","CN","CA","CL"],"provs":["BC"],"sym":"Crossing"},"geometry":{"type":"Point","coordinates":[-122.27688,49.11688]}},{"type":"Feature","properties":{"name":"Agassiz VIA Rail","routes":["C1","C2"],"provs":["BC"],"sym":"Crossing"},"geometry":{"type":"Point","coordinates":[-121.76424,49.23955]}},{"type":"Feature","properties":{"name":"Alexandria train station - VIA Rail","routes":[],"provs":["ON"],"sym":"Crossing"},"geometry":{"type":"Point","coordinates":[-74.63979,45.31794]}},{"type":"Feature","properties":{"name":"Amherst VIA Rail","routes":["C3","CA"],"provs":["NS"],"sym":"Crossing"},"geometry":{"type":"Point","coordinates":[-64.21257,45.83046]}},{"type":"Feature","properties":{"name":"Ashcroft VIA Rail","routes":["CN"],"provs":["BC"],"sym":"Crossing"},"geometry":{"type":"Point","coordinates":[-121.26929,50.7304]}},{"type":"Feature","properties":{"name":"Bathurst VIA Train Station","routes":["C1","C3","CA"],"provs":["NB"],"sym":"Crossing"},"geometry":{"type":"Point","coordinates":[-65.67065,47.62022]}},{"type":"Feature","properties":{"name":"Belleville VIA Rail","routes":[],"provs":["ON"],"sym":"Crossing"},"geometry":{"type":"Point","coordinates":[-77.37412,44.17963]}},{"type":"Feature","properties":{"name":"Brockville VIA Rail","routes":["C2","CN","CA"],"provs":["ON"],"sym":"Crossing"},"geometry":{"type":"Point","coordinates":[-75.69285,44.59221]}},{"type":"Feature","properties":{"name":"Casselman VIA Rail","routes":[],"provs":["ON"],"sym":"Crossing"},"geometry":{"type":"Point","coordinates":[-75.08733,45.31223]}},{"type":"Feature","properties":{"name":"Cobourg Train Station - VIA Rail","routes":["C2","C3","CA","CL"],"provs":["ON"],"sym":"Crossing"},"geometry":{"type":"Point","coordinates":[-78.17066,43.96789]}},{"type":"Feature","properties":{"name":"Cornwall VIA Rail","routes":["C2"],"provs":["ON"],"sym":"Crossing"},"geometry":{"type":"Point","coordinates":[-74.74364,45.04224]}},{"type":"Feature","properties":{"name":"Dorval VIA Rail","routes":["C1","C2","C3","CA"],"provs":["QC"],"sym":"Crossing"},"geometry":{"type":"Point","coordinates":[-73.74133,45.44875]}},{"type":"Feature","properties":{"name":"Fallowfield train station (Ottawa) - VIA Rail","routes":["C1","C3","CN"],"provs":["ON"],"sym":"Crossing"},"geometry":{"type":"Point","coordinates":[-75.73658,45.29928]}},{"type":"Feature","properties":{"name":"Gananoque train station - VIA Rail","routes":["C2"],"provs":["ON"],"sym":"Crossing"},"geometry":{"type":"Point","coordinates":[-76.17175,44.35838]}},{"type":"Feature","properties":{"name":"Gare de train Coteau - VIA Rail","routes":["C2"],"provs":["QC"],"sym":"Crossing"},"geometry":{"type":"Point","coordinates":[-74.2328,45.27475]}},{"type":"Feature","properties":{"name":"Guildwood train station - VIA Rail","routes":["C2","CL"],"provs":["ON"],"sym":"Crossing"},"geometry":{"type":"Point","coordinates":[-79.19827,43.75472]}},{"type":"Feature","properties":{"name":"Halifax, NS VIA Rail","routes":["C2","CN","CA","CL","One-way_Direction_Arrows"],"provs":["NS"],"sym":"Crossing"},"geometry":{"type":"Point","coordinates":[-63.56818,44.63959]}},{"type":"Feature","properties":{"name":"Jasper VIA Rail","routes":["C3","CA"],"provs":["AB"],"sym":"Crossing"},"geometry":{"type":"Point","coordinates":[-118.07959,52.87619]}},{"type":"Feature","properties":{"name":"Kamloops North","routes":["CN","CA"],"provs":["BC"],"sym":"Crossing"},"geometry":{"type":"Point","coordinates":[-120.34831,50.71816]}},{"type":"Feature","properties":{"name":"Kingston VIA Rail","routes":["C2","C3","CL"],"provs":["ON"],"sym":"Crossing"},"geometry":{"type":"Point","coordinates":[-76.5368,44.25723]}},{"type":"Feature","properties":{"name":"Melville VIA Rail","routes":[],"provs":["SK"],"sym":"Crossing"},"geometry":{"type":"Point","coordinates":[-102.80758,50.9259]}},{"type":"Feature","properties":{"name":"Moncton train station VIA Rail","routes":["CN","CL"],"provs":["NB"],"sym":"Crossing"},"geometry":{"type":"Point","coordinates":[-64.78609,46.0834]}},{"type":"Feature","properties":{"name":"Montreal Central Train Station Via Rail","routes":["C1","C2","CN","CA","CL","One-way_Direction_Arrows"],"provs":["QC"],"sym":"Crossing"},"geometry":{"type":"Point","coordinates":[-73.56662,45.49967]}},{"type":"Feature","properties":{"name":"Napanee VIA Rail","routes":[],"provs":["ON"],"sym":"Crossing"},"geometry":{"type":"Point","coordinates":[-76.95428,44.2535]}},{"type":"Feature","properties":{"name":"North Bend VIA Rail","routes":["CN","CA"],"provs":["BC"],"sym":"Crossing"},"geometry":{"type":"Point","coordinates":[-121.44967,49.87687]}},{"type":"Feature","properties":{"name":"Oshawa VIA Rail","routes":["C2"],"provs":["ON"],"sym":"Crossing"},"geometry":{"type":"Point","coordinates":[-78.88478,43.87101]}},{"type":"Feature","properties":{"name":"Pacific Central Station  VIA Rail","routes":["C2","CN","CA","CL","CW"],"provs":["BC"],"sym":"Crossing"},"geometry":{"type":"Point","coordinates":[-123.09789,49.2737]}},{"type":"Feature","properties":{"name":"Port Hope VIA Rail","routes":["C2"],"provs":["ON"],"sym":"Crossing"},"geometry":{"type":"Point","coordinates":[-78.29884,43.9435]}},{"type":"Feature","properties":{"name":"Portage la Prairie VIA Rail","routes":["C1","C3","CA"],"provs":["MB"],"sym":"Crossing"},"geometry":{"type":"Point","coordinates":[-98.28826,49.97738]}},{"type":"Feature","properties":{"name":"Prince George Via Rail","routes":["C3","CL"],"provs":["BC"],"sym":"Crossing"},"geometry":{"type":"Point","coordinates":[-122.74419,53.91932]}},{"type":"Feature","properties":{"name":"Prince Rupert VIA Rail","routes":["C3","CW"],"provs":["BC"],"sym":"Crossing"},"geometry":{"type":"Point","coordinates":[-130.35196,54.29587]}},{"type":"Feature","properties":{"name":"Qu\u00e9bec City VIA Rail","routes":["C1","C2","C3","CA","CW"],"provs":["QC"],"sym":"Crossing"},"geometry":{"type":"Point","coordinates":[-71.21385,46.81745]}},{"type":"Feature","properties":{"name":"Red Lake Road VIA Rail","routes":[],"provs":["ON"],"sym":"Crossing"},"geometry":{"type":"Point","coordinates":[-93.35765,49.97326]}},{"type":"Feature","properties":{"name":"Rimouski Train Station VIA Rail","routes":["C1","C3"],"provs":["QC"],"sym":"Crossing"},"geometry":{"type":"Point","coordinates":[-68.52149,48.45019]}},{"type":"Feature","properties":{"name":"Rivers VIA Rail","routes":[],"provs":["MB"],"sym":"Crossing"},"geometry":{"type":"Point","coordinates":[-100.23849,50.02887]}},{"type":"Feature","properties":{"name":"Sainte-Foy VIA Rail","routes":["C1","C2","C3"],"provs":["QC"],"sym":"Crossing"},"geometry":{"type":"Point","coordinates":[-71.29765,46.75432]}},{"type":"Feature","properties":{"name":"Saskatoon VIA Rail","routes":["C3","CA"],"provs":["SK"],"sym":"Crossing"},"geometry":{"type":"Point","coordinates":[-106.73835,52.10498]}},{"type":"Feature","properties":{"name":"Skytrain Yvr Airport (bicycles can be easily taken on train)","routes":["CN","CA","CL","CW","One-way_Direction_Arrows"],"provs":["BC"],"desc":"Yvr Airport","sym":"Crossing"},"geometry":{"type":"Point","coordinates":[-123.1782,49.19416]}},{"type":"Feature","properties":{"name":"Smiths Falls VIA Rail","routes":["C3"],"provs":["ON"],"sym":"Crossing"},"geometry":{"type":"Point","coordinates":[-76.02389,44.91253]}},{"type":"Feature","properties":{"name":"Sudbury Jct  VIA Rail","routes":["C1","CN","CL"],"provs":["ON"],"sym":"Crossing"},"geometry":{"type":"Point","coordinates":[-80.90209,46.52461]}},{"type":"Feature","properties":{"name":"Terrace VIA Rail","routes":["C3","CA"],"provs":["BC"],"sym":"Crossing"},"geometry":{"type":"Point","coordinates":[-128.58658,54.51449]}},{"type":"Feature","properties":{"name":"Toronto, ON - Union Station  VIA Rail","routes":["C2"],"provs":["ON"],"sym":"Crossing"},"geometry":{"type":"Point","coordinates":[-79.38057,43.64522]}},{"type":"Feature","properties":{"name":"Trenton Junction VIA Rail","routes":[],"provs":["ON"],"sym":"Crossing"},"geometry":{"type":"Point","coordinates":[-77.59892,44.11528]}},{"type":"Feature","properties":{"name":"Usk VIA Rail","routes":["C3"],"provs":["BC"],"sym":"Crossing"},"geometry":{"type":"Point","coordinates":[-128.41601,54.63648]}},{"type":"Feature","properties":{"name":"Valemount VIA Rail","routes":["CN"],"provs":["BC"],"sym":"Crossing"},"geometry":{"type":"Point","coordinates":[-119.26169,52.83486]}},{"type":"Feature","properties":{"name":"VIA Rail - Gare de Matap\u00e9dia","routes":["C1"],"provs":["QC","NB"],"sym":"Crossing"},"geometry":{"type":"Point","coordinates":[-66.93918,47.97483]}},{"type":"Feature","properties":{"name":"VIA Rail - Gare de Mont-Joli","routes":["C1","C3"],"provs":["QC"],"sym":"Crossing"},"geometry":{"type":"Point","coordinates":[-68.18942,48.58886]}},{"type":"Feature","properties":{"name":"VIA Rail - Gare de Rivi\u00e8re-du-Loup","routes":["C1","C2","C3","CA"],"provs":["QC"],"sym":"Crossing"},"geometry":{"type":"Point","coordinates":[-69.52744,47.82489]}},{"type":"Feature","properties":{"name":"Via Rail Canada Inc Campbelton, NB","routes":["C1","C3","CA"],"provs":["NB"],"sym":"Crossing"},"geometry":{"type":"Point","coordinates":[-66.68073,48.00402]}},{"type":"Feature","properties":{"name":"Via Rail Canada Truro, NS","routes":["C3","CN"],"provs":["NS"],"sym":"Crossing"},"geometry":{"type":"Point","coordinates":[-63.27569,45.36269]}},{"type":"Feature","properties":{"name":"Via Rail Station Miramichi City","routes":["C1","C3"],"provs":["NB"],"sym":"Crossing"},"geometry":{"type":"Point","coordinates":[-65.57429,47.00367]}},{"type":"Feature","properties":{"name":"VIA Rail Sudbury","routes":["C1","CN","CL"],"provs":["ON"],"sym":"Crossing"},"geometry":{"type":"Point","coordinates":[-80.9919,46.48736]}},{"type":"Feature","properties":{"name":"Washago VIA station","routes":["CN"],"provs":["ON"],"sym":"Crossing"},"geometry":{"type":"Point","coordinates":[-79.33502,44.74895]}},{"type":"Feature","properties":{"name":"Waterfront Skytrain - you can take the bicycle on the skytrain easily (to get to the airport)","routes":["C2","CN","CA","CL","CW"],"provs":["BC"],"desc":"Waterfront Station","sym":"Crossing"},"geometry":{"type":"Point","coordinates":[-123.11163,49.28589]}},{"type":"Feature","properties":{"name":"Watrous  VIA Rail","routes":[],"provs":["SK"],"sym":"Crossing"},"geometry":{"type":"Point","coordinates":[-105.46843,51.67099]}},{"type":"Feature","properties":{"name":"White River VIA Rail","routes":["C1","C2","C3"],"provs":["ON"],"sym":"Crossing"},"geometry":{"type":"Point","coordinates":[-85.28233,48.58931]}},{"type":"Feature","properties":{"name":"Winnipeg VIA Rail Union Station","routes":["C1","C2","C3"],"provs":["MB"],"sym":"Crossing"},"geometry":{"type":"Point","coordinates":[-97.13358,49.88939]}}]}