{"type":"FeatureCollection","features":[{"type":"Feature","properties":{"name":"[CW WB]\u00a0Channel-Port aux Basques, NL [C3] (Ferry Dock) to North Sydney, NS 001","provs":["NL"],"km":0.5},"geometry":{"type":"LineString","coordinates":[[-59.13871,47.57739],[-59.14203,47.58077]]}},{"type":"Feature","properties":{"name":"[CW] (Northbound) Delta BC Free Bicycle Shuttle (CN) <> Richmond BC (CN) 001","provs":["BC"],"km":3.9},"geometry":{"type":"LineString","coordinates":[[-123.05004,49.11242],[-123.05022,49.11189],[-123.05125,49.11215],[-123.05423,49.10932],[-123.05557,49.10856],[-123.05693,49.10864],[-123.06077,49.11024],[-123.06473,49.11306],[-123.0832,49.12811],[-123.08268,49.12812],[-123.0807,49.1267]]}},{"type":"Feature","properties":{"name":"[CW] (Southbound) Delta BC Free Bicycle Shuttle (CN) <> Richmond BC (CN) 001","provs":["BC"],"km":3.9},"geometry":{"type":"LineString","coordinates":[[-123.0807,49.1267],[-123.07997,49.12607],[-123.08186,49.12609],[-123.08307,49.12764],[-123.06225,49.11076],[-123.0579,49.10851],[-123.05745,49.10799],[-123.05715,49.10682],[-123.05666,49.10686],[-123.05362,49.10985]]}},{"type":"Feature","properties":{"name":"[CW] Abegweit Boulevard 002 PEI WB","provs":["PE"],"km":2.1},"geometry":{"type":"LineString","coordinates":[[-63.69745,46.2546],[-63.69089,46.25538],[-63.6898,46.25521],[-63.68914,46.2547],[-63.68815,46.25495],[-63.69065,46.25714],[-63.69191,46.2574],[-63.7006,46.25505],[-63.70281,46.25338]]}},{"type":"Feature","properties":{"name":"[CW] Balfour BC (C2) <> Kootenay Bay BC Free Ferry (C2) 35mins 001","provs":["BC"],"km":9.0},"geometry":{"type":"LineString","coordinates":[[-116.95997,49.62349],[-116.96062,49.62278],[-116.96035,49.62242],[-116.9596,49.62232],[-116.95379,49.62297],[-116.94861,49.62274],[-116.94588,49.62336],[-116.94127,49.6278],[-116.93806,49.6303],[-116.90126,49.65606],[-116.87334,49.6748]]}},{"type":"Feature","properties":{"name":"[CW] Botsford Parish NB Confederation Bridge shuttle (C1) <> Borden-Carleton PE (C1) 10mins 001","provs":["NB"],"km":1.4},"geometry":{"type":"LineString","coordinates":[[-63.84385,46.13408],[-63.84319,46.13528],[-63.84474,46.1357],[-63.84442,46.13894],[-63.84302,46.14087],[-63.8402,46.14349],[-63.83912,46.14435]]}},{"type":"Feature","properties":{"name":"[CW] Botsford Parish NB Confederation Bridge shuttle (C1) <> Borden-Carleton PE (C1) 10mins 001","provs":["PE"],"km":1.0},"geometry":{"type":"LineString","coordinates":[[-63.70758,46.24915],[-63.70281,46.25338],[-63.70119,46.25414],[-63.69745,46.2546]]}},{"type":"Feature","properties":{"name":"[CW] Botsford Parish NB Confederation Bridge shuttle (C1) <> Borden-Carleton PE (C1) 10mins 001","provs":["NB"],"km":15.5,"shields":[[46.21846,-63.74216]]},"geometry":{"type":"LineString","coordinates":[[-63.83912,46.14435],[-63.80245,46.17342],[-63.76185,46.20244],[-63.75535,46.2074],[-63.74691,46.21424],[-63.70758,46.24915]]}},{"type":"Feature","properties":{"name":"[CW] Brentwood Bay BC \u2194 Mill Bay BC Ferry Crossing 25min 001","provs":["BC"],"km":5.7},"geometry":{"type":"LineString","coordinates":[[-123.46732,48.57725],[-123.46918,48.57721],[-123.47382,48.57874],[-123.48676,48.58412],[-123.49536,48.59046],[-123.50186,48.60155],[-123.51335,48.61161],[-123.51773,48.61398]]}},{"type":"Feature","properties":{"name":"[CW] Gagetown NB Gagetown-Jemseg Free Ferry (CN) <> Jemseg NB (CN) 5mins 001","provs":["NB"],"km":0.5},"geometry":{"type":"LineString","coordinates":[[-66.13977,45.76852],[-66.133,45.76855]]}},{"type":"Feature","properties":{"name":"[CW] Glenora, ON [C3] (Ferry) <> Greater Napanee (Adolphustown), ON 15 mins 001","provs":["ON"],"km":1.0},"geometry":{"type":"LineString","coordinates":[[-77.05064,44.04791],[-77.05775,44.0423],[-77.05919,44.0416]]}},{"type":"Feature","properties":{"name":"[CW] Hudson, QC [C3] (Ferry) <> Oka, QC\u00a010mins 001","provs":["QC"],"km":2.1},"geometry":{"type":"LineString","coordinates":[[-74.10344,45.44303],[-74.1018,45.44427],[-74.09748,45.44963],[-74.09095,45.45918]]}},{"type":"Feature","properties":{"name":"[CW] McLure BC McLure Reaction Ferry (CN) <> (CN) 5mins 001","provs":["BC"],"km":0.1},"geometry":{"type":"LineString","coordinates":[[-120.24214,51.04131],[-120.24063,51.04115]]}},{"type":"Feature","properties":{"name":"[CW] merge with [CW] North Sydney, NS Ferry (C1) <> Argentia, NL (C1) 16hours","provs":["NS"],"km":1.1},"geometry":{"type":"LineString","coordinates":[[-60.24562,46.20907],[-60.24527,46.2085],[-60.24364,46.20751],[-60.23302,46.2074]]}},{"type":"Feature","properties":{"name":"[CW] Nanaimo BC Departure Bay (CN) <> West Vancouver BC Horseshoe Bay Ferry (C2) 1hr 40min 001","provs":["BC"],"km":57.0,"shields":[[49.23911,-123.80508],[49.29898,-123.47397]]},"geometry":{"type":"LineString","coordinates":[[-123.95474,49.19365],[-123.95495,49.19391],[-123.95466,49.19508],[-123.95493,49.1958],[-123.95411,49.1991],[-123.95022,49.20267],[-123.94851,49.20348],[-123.93243,49.20865],[-123.92048,49.21356],[-123.90778,49.21821],[-123.89613,49.22188],[-123.88564,49.22438],[-123.37275,49.31706],[-123.36357,49.31893],[-123.35498,49.32117],[-123.34629,49.32448],[-123.33914,49.32791],[-123.33093,49.33382],[-123.32508,49.34044],[-123.30319,49.37236],[-123.298,49.37812],[-123.29597,49.37953],[-123.29346,49.38084],[-123.28694,49.38292],[-123.28343,49.38371],[-123.27788,49.38387],[-123.27469,49.38325],[-123.27262,49.38202],[-123.27128,49.38024],[-123.27064,49.37761],[-123.27102,49.37627]]}},{"type":"Feature","properties":{"name":"[CW] North Sydney, NS [C1] (Ferry) <> Argentia, NL 16hours 001","provs":["NS"],"km":2.7},"geometry":{"type":"LineString","coordinates":[[-60.23302,46.2074],[-60.22546,46.20877],[-60.21401,46.21655],[-60.20681,46.22265]]}},{"type":"Feature","properties":{"name":"[CW] North Sydney, NS [C1] (Ferry) <> Argentia, NL 16hours 001","provs":["NL"],"km":0.7},"geometry":{"type":"LineString","coordinates":[[-53.96023,47.31165],[-53.96124,47.30884],[-53.96446,47.30644]]}},{"type":"Feature","properties":{"name":"[CW] North Sydney, NS [C1] (Ferry) <> Argentia, NL 16hours 001","provs":["NS"],"km":521.8,"shields":[[46.27987,-60.13144],[46.28661,-59.80901],[46.29043,-59.48464],[46.29903,-59.16045],[46.30442,-58.83604],[46.31147,-58.51172],[46.32011,-58.18739],[46.32668,-57.86296],[46.33697,-57.53869],[46.34262,-57.21412],[46.34938,-56.88955],[46.35659,-56.56509],[46.37976,-56.24291],[46.44078,-55.93013],[46.51776,-55.6246],[46.61336,-55.32958],[46.70878,-55.03448],[46.86111,-54.79679],[47.04586,-54.60991],[47.21072,-54.38807],[47.31584,-54.0979]]},"geometry":{"type":"LineString","coordinates":[[-60.20681,46.22265],[-60.14246,46.27707],[-60.10331,46.287],[-60.03603,46.28816],[-59.90358,46.28473],[-59.78881,46.287],[-59.67182,46.28763],[-59.54831,46.28933],[-59.43265,46.2913],[-59.30614,46.29397],[-59.20117,46.29819],[-59.06396,46.30095],[-58.96978,46.30211],[-58.83523,46.30443],[-58.73053,46.30875],[-58.51401,46.3114],[-58.25989,46.3193],[-58.13225,46.3207],[-58.03134,46.32302],[-57.92034,46.32418],[-57.78924,46.32985],[-57.66975,46.33347],[-57.59239,46.33695],[-57.4343,46.33695],[-57.3186,46.34041],[-57.20726,46.34276],[-57.11308,46.34392],[-56.97181,46.34624],[-56.84796,46.35095],[-56.73972,46.35553],[-56.63881,46.35437],[-56.52277,46.35785],[-56.37732,46.3615],[-56.24191,46.3799],[-56.12355,46.39961],[-55.99973,46.42629],[-55.86462,46.45438],[-55.75587,46.47959],[-55.60568,46.52324],[-55.47838,46.56753],[-55.3655,46.60309],[-55.27152,46.62993],[-55.1522,46.6654],[-55.05625,46.69803],[-54.94269,46.75403],[-54.86789,46.79944],[-54.80011,46.85779],[-54.7283,46.92937],[-54.67269,46.98972],[-54.61057,47.04525],[-54.54254,47.10828],[-54.48444,47.15401],[-54.38956,47.20995],[-54.32299,47.24428],[-54.23541,47.27651],[-54.13463,47.30475],[-54.01904,47.3396],[-53.98898,47.34108],[-53.97057,47.33457],[-53.96253,47.32412],[-53.95955,47.31355],[-53.96023,47.31165]]}},{"type":"Feature","properties":{"name":"[CW] North Sydney, NS [C1] (Ferry) <> Argentia, NL 16hours 001","provs":["NL"],"km":2.8},"geometry":{"type":"LineString","coordinates":[[-53.96446,47.30644],[-53.97995,47.29487],[-53.98767,47.29108],[-53.99177,47.29022]]}},{"type":"Feature","properties":{"name":"[CW] North Sydney, NS [C3] (Ferry) <> Channel-Port aux Basques, NL 7hrs 001","provs":["NS"],"km":105.5,"shields":[[46.29472,-60.15653],[46.49251,-60.0019],[46.68965,-59.845],[46.88559,-59.6845]]},"geometry":{"type":"LineString","coordinates":[[-60.24562,46.20907],[-60.24353,46.20767],[-60.2331,46.20771],[-60.22588,46.20956],[-60.1796,46.26368],[-60.14914,46.30465],[-60.08737,46.38099],[-60.05138,46.42612],[-60.02759,46.45882],[-59.9922,46.50522],[-59.96482,46.53885],[-59.93372,46.58033],[-59.90005,46.6209],[-59.86256,46.66887],[-59.83131,46.70582],[-59.79986,46.74231],[-59.77309,46.77513],[-59.73646,46.82432],[-59.67516,46.89658],[-59.64416,46.93652],[-59.60612,46.98461],[-59.56927,47.02666]]}},{"type":"Feature","properties":{"name":"[CW] Port Hardy BC <> Prince Rupert BC 17hr 45min ferry 001","provs":["BC"],"km":505.7,"shields":[[54.19186,-130.3505],[53.98608,-130.20837],[53.82112,-129.99047],[53.6502,-129.74768],[53.47885,-129.50665],[53.33545,-129.22157],[53.28781,-128.8788],[53.14363,-128.60681],[52.9291,-128.51103],[52.70785,-128.56747],[52.50279,-128.45547],[52.29987,-128.48978],[52.22182,-128.16204],[52.07821,-128.01508],[51.89357,-127.92384],[51.67005,-127.90031],[51.44894,-127.8571],[51.22549,-127.88196],[51.01323,-127.76676],[50.8573,-127.52347]]},"geometry":{"type":"LineString","coordinates":[[-130.35409,54.29781],[-130.35512,54.29857],[-130.3564,54.29874],[-130.35905,54.29846],[-130.36305,54.29649],[-130.36407,54.29332],[-130.36483,54.28497],[-130.3647,54.28101],[-130.36375,54.27244],[-130.35913,54.26351],[-130.35344,54.2536],[-130.34957,54.2441],[-130.35072,54.17931],[-130.35036,54.17338],[-130.33927,54.15614],[-130.3197,54.13321],[-130.29219,54.08921],[-130.25117,54.04573],[-130.23008,54.02775],[-130.22904,54.02633],[-130.20228,53.9742],[-130.19507,53.93723],[-130.19198,53.92328],[-130.18786,53.91843],[-130.12297,53.90205],[-130.10031,53.89537],[-130.08383,53.88748],[-130.07045,53.87716],[-130.05191,53.8638],[-130.00374,53.82987],[-129.90874,53.76711],[-129.87304,53.74563],[-129.81738,53.71494],[-129.77587,53.67875],[-129.75836,53.66044],[-129.71511,53.61892],[-129.69657,53.59936],[-129.68009,53.58836],[-129.63992,53.56023],[-129.61417,53.54554],[-129.54157,53.50065],[-129.3598,53.38682],[-129.32475,53.37138],[-129.28149,53.35479],[-129.1445,53.3105],[-129.13008,53.30681],[-129.11875,53.30619],[-129.05696,53.31604],[-129.02297,53.31604],[-128.91997,53.30681],[-128.90658,53.30681],[-128.89834,53.30619],[-128.89216,53.3025],[-128.86641,53.27418],[-128.80667,53.23474],[-128.6975,53.17305],[-128.69235,53.17058],[-128.6872,53.16935],[-128.64909,53.16502],[-128.63261,53.16194],[-128.6254,53.16008],[-128.61922,53.157],[-128.588,53.12335],[-128.56772,53.09396],[-128.5533,53.05931],[-128.53682,53.03764],[-128.52549,53.01595],[-128.51725,52.97008],[-128.51355,52.94166],[-128.51004,52.92415],[-128.51603,52.89315],[-128.52652,52.87258],[-128.53167,52.83527],[-128.54506,52.77051],[-128.56566,52.71938],[-128.56772,52.70628],[-128.56515,52.69799],[-128.56292,52.69206],[-128.56057,52.68936],[-128.5513,52.68228],[-128.54506,52.67819],[-128.54094,52.67506],[-128.53785,52.67069],[-128.53496,52.65909],[-128.53059,52.64551],[-128.52818,52.64282],[-128.52539,52.64148],[-128.50321,52.63472],[-128.50056,52.63303],[-128.49867,52.63101],[-128.49253,52.62633],[-128.48223,52.5938],[-128.45443,52.49923],[-128.45322,52.47602],[-128.45222,52.46807],[-128.46124,52.45093],[-128.52849,52.38796],[-128.5303,52.38423],[-128.53305,52.34471],[-128.53202,52.33621],[-128.52481,52.32866],[-128.51348,52.31953],[-128.49523,52.30383],[-128.46833,52.28426],[-128.44361,52.26693],[-128.42953,52.25884],[-128.41563,52.25632],[-128.354,52.25149],[-128.27315,52.24613],[-128.16294,52.22226],[-128.13205,52.20712],[-128.10504,52.19184],[-128.10389,52.19072],[-128.10334,52.18869],[-128.10391,52.18717],[-128.10701,52.18442],[-128.11797,52.17902],[-128.12896,52.1726],[-128.13256,52.16881],[-128.13565,52.16281],[-128.13977,52.1508],[-128.13359,52.13879],[-128.13153,52.13405],[-128.1269,52.10538],[-128.1202,52.09589],[-128.1099,52.08513],[-128.10252,52.08197],[-128.0572,52.07627],[-128.04433,52.07564],[-128.00107,52.07944],[-127.99592,52.07975],[-127.99077,52.07912],[-127.94236,52.06604],[-127.93412,52.06255],[-127.93,52.05875],[-127.92227,52.04619],[-127.92914,51.97064],[-127.9233,51.88564],[-127.91609,51.85098],[-127.91884,51.81491],[-127.91867,51.74747],[-127.89026,51.62759],[-127.86866,51.57366],[-127.8484,51.50957],[-127.86992,51.35928],[-127.88168,51.31986],[-127.88434,51.30039],[-127.88588,51.27462],[-127.88502,51.26023],[-127.88502,51.24347],[-127.88348,51.23057],[-127.88039,51.22025],[-127.87112,51.20412],[-127.85825,51.17733],[-127.8222,51.1249],[-127.79336,51.05794],[-127.75061,50.98603],[-127.73671,50.96895],[-127.70409,50.94851],[-127.6871,50.93748],[-127.66289,50.92255],[-127.64247,50.90859],[-127.62032,50.8943],[-127.60642,50.88813],[-127.54977,50.86571],[-127.50689,50.85199],[-127.49881,50.84778],[-127.48879,50.84173],[-127.46887,50.83064],[-127.4441,50.81529],[-127.43848,50.8122],[-127.43684,50.81038],[-127.43591,50.80847],[-127.43574,50.8056],[-127.43897,50.80041],[-127.4404,50.79728],[-127.44171,50.79294],[-127.45289,50.7711],[-127.45721,50.76167],[-127.46212,50.74767],[-127.46397,50.73156],[-127.46404,50.72752],[-127.46261,50.72631],[-127.46098,50.72571],[-127.45687,50.72556]]}},{"type":"Feature","properties":{"name":"[CW] Qu\u00e9bec, QC [C1] (Ferry) <> L\u00e9vis, QC 12 mins 001","provs":["QC"],"km":1.0},"geometry":{"type":"LineString","coordinates":[[-71.2016,46.81182],[-71.19892,46.81182],[-71.19404,46.81102],[-71.18832,46.81066]]}},{"type":"Feature","properties":{"name":"[CW] Saint John, NB [C2] (Ferry) <> Digby, NS 2hrs 15mins 001","provs":["NS"],"km":72.2,"shields":[[45.1564,-66.00128],[44.94433,-65.89547],[44.73178,-65.79192]]},"geometry":{"type":"LineString","coordinates":[[-66.06212,45.25483],[-66.05516,45.25659],[-66.04229,45.23703],[-66.00013,45.15413],[-65.95765,45.07233],[-65.80164,44.75],[-65.77242,44.6952],[-65.76419,44.68566],[-65.76111,44.68057],[-65.75829,44.67493],[-65.7525,44.66645],[-65.75148,44.66422],[-65.75014,44.6593],[-65.75066,44.65845],[-65.75153,44.65789],[-65.7539,44.65772],[-65.7553,44.65847],[-65.75774,44.66152]]}},{"type":"Feature","properties":{"name":"[CW] Saint-Ignace-de-Loyola QC ferry Sorel tracy (CN) <> Sorel-Tracy QC (CN) 12mins 001","provs":["QC"],"km":1.7},"geometry":{"type":"LineString","coordinates":[[-73.11378,46.04802],[-73.11532,46.0517],[-73.11615,46.05484],[-73.11755,46.05591],[-73.12603,46.05956]]}},{"type":"Feature","properties":{"name":"[CW] Swartz Bay, BC (Ferry terminal) to Tsawwassen, BC (ferry terminal) 1h35min ferry (Check BC Ferries website for details)","provs":["BC"],"km":47.3,"shields":[[48.7671,-123.35971],[48.94168,-123.22248]]},"geometry":{"type":"LineString","coordinates":[[-123.41023,48.68959],[-123.40907,48.69044],[-123.40862,48.692],[-123.41021,48.69455],[-123.42933,48.70012],[-123.43914,48.70389],[-123.44052,48.70512],[-123.44129,48.70632],[-123.44175,48.70724],[-123.44173,48.70858],[-123.44028,48.71106],[-123.4359,48.7136],[-123.42038,48.72139],[-123.39424,48.73739],[-123.35546,48.77075],[-123.34931,48.78509],[-123.34596,48.79786],[-123.34368,48.80422],[-123.3426,48.81056],[-123.34388,48.8279],[-123.34704,48.83349],[-123.35218,48.84046],[-123.35409,48.84358],[-123.35472,48.84558],[-123.35453,48.85109],[-123.35114,48.85635],[-123.34671,48.86008],[-123.34143,48.86072],[-123.32653,48.85816],[-123.31483,48.85768],[-123.311,48.8592],[-123.30846,48.86313],[-123.30674,48.86823],[-123.30232,48.87617],[-123.29025,48.89265],[-123.13729,49.00311],[-123.13567,49.00514],[-123.1332,49.00694]]}},{"type":"Feature","properties":{"name":"[CW] Track 002 Confederation Bridge PEI WB","provs":["NB"],"km":0.4},"geometry":{"type":"LineString","coordinates":[[-63.84409,46.1395],[-63.84751,46.13645]]}},{"type":"Feature","properties":{"name":"[CW] Track 007 SB","provs":["BC"],"km":0.0},"geometry":{"type":"LineString","coordinates":[[-123.05015,49.11221],[-123.05004,49.11242]]}},{"type":"Feature","properties":{"name":"[CW] Trois-Rivi\u00e8res QC Navette fluviale B\u00e9cancour - Trois-Rivi\u00e8res - July and August only (CN) <> B\u00e9cancour QC (CN) 001","provs":["QC"],"km":1.7},"geometry":{"type":"LineString","coordinates":[[-72.51784,46.33644],[-72.51807,46.33697],[-72.52129,46.33901],[-72.53817,46.34109]]}},{"type":"Feature","properties":{"name":"[CW] Water Route 3 Canada - Englishtown, NS to Little Bras D'or, NS (proposed) W-E Connected pt2 Englishtown Ferry 2mins","provs":["NS"],"km":0.2},"geometry":{"type":"LineString","coordinates":[[-60.54163,46.28985],[-60.53995,46.28896]]}},{"type":"Feature","properties":{"name":"[CW] Water Route 3 Canada - North Atlantic Ocean to Cape Ray, NL (proposed) W-E Connected pt1 7hr Ferry","provs":["NL"],"km":71.9,"shields":[[47.08227,-59.52544],[47.27874,-59.36505],[47.4765,-59.20765]]},"geometry":{"type":"LineString","coordinates":[[-59.56927,47.02666],[-59.53849,47.06769],[-59.51101,47.09839],[-59.44572,47.17858],[-59.38196,47.25843],[-59.35179,47.29466],[-59.31819,47.33749],[-59.2919,47.36867],[-59.26372,47.40731],[-59.23343,47.44592],[-59.18777,47.50005],[-59.11515,47.56099],[-59.11419,47.56229],[-59.11372,47.56327],[-59.11372,47.56536],[-59.11432,47.56636],[-59.11576,47.56765],[-59.12521,47.57246],[-59.12971,47.57422],[-59.13767,47.57667],[-59.14125,47.57933]]}},{"type":"Feature","properties":{"name":"[CW] Wikwemikong (South Baymouth), ON [C2] (Ferry) <> Tobermory, ON 2hrs 001","provs":["ON"],"km":44.6,"shields":[[45.47571,-81.92534],[45.31241,-81.70622]]},"geometry":{"type":"LineString","coordinates":[[-82.0087,45.55887],[-82.00687,45.5592],[-82.00695,45.55867],[-82.00753,45.55826],[-82.01437,45.55594],[-82.01639,45.55425],[-82.01706,45.55251],[-82.01686,45.55085],[-82.01598,45.5493],[-82.01478,45.54816],[-81.97084,45.51288],[-81.9533,45.49833],[-81.83282,45.4007],[-81.81474,45.38656],[-81.77381,45.35814],[-81.75246,45.34433],[-81.72608,45.32666],[-81.70106,45.30871],[-81.69616,45.30476],[-81.6846,45.2966],[-81.68284,45.29507],[-81.68136,45.29324],[-81.68048,45.29123],[-81.66867,45.26205],[-81.66781,45.26059],[-81.66665,45.25958],[-81.6634,45.25799]]}},{"type":"Feature","properties":{"name":"[CW] Wood Islands, PE [C1] (Ferry) <> Caribou, NS 1hr 15mins 001","provs":["PE"],"km":0.6},"geometry":{"type":"LineString","coordinates":[[-62.74907,45.95414],[-62.75131,45.9524],[-62.75199,45.95054],[-62.75195,45.94983]]}},{"type":"Feature","properties":{"name":"[CW] Wood Islands, PE [C1] (Ferry) <> Caribou, NS 1hr 15mins 001","provs":["NS"],"km":1.5},"geometry":{"type":"LineString","coordinates":[[-62.6786,45.74924],[-62.67886,45.74909],[-62.6833,45.74596],[-62.6847,45.74454],[-62.68657,45.74156],[-62.68847,45.74005],[-62.6893,45.73858]]}},{"type":"Feature","properties":{"name":"[CW] Wood Islands, PE [C1] (Ferry) <> Caribou, NS 1hr 15mins 001","provs":["PE"],"km":24.4,"shields":[[45.84829,-62.7026]]},"geometry":{"type":"LineString","coordinates":[[-62.75195,45.94983],[-62.75167,45.94491],[-62.75011,45.94083],[-62.74514,45.93049],[-62.71783,45.88123],[-62.71244,45.87043],[-62.69793,45.83779],[-62.68637,45.80929],[-62.68125,45.79906],[-62.67662,45.79077],[-62.66586,45.77268],[-62.66362,45.76767],[-62.66228,45.76361],[-62.66118,45.75625],[-62.66182,45.75448],[-62.66284,45.75348],[-62.66826,45.75183],[-62.67471,45.75077],[-62.67696,45.75013],[-62.6786,45.74924]]}}]}