{"type":"FeatureCollection","features":[{"type":"Feature","properties":{"name":"[C1 EB] One-way - St. John's NL (TCH to Blackhead Rd via Petty Harbour Maddox Cove)","provs":["NL"],"km":24.7,"arrows":[[47.50252,-52.85548,47],[47.50815,-52.82057,161],[47.49056,-52.8028,95],[47.48438,-52.768,183],[47.45987,-52.765,113],[47.45837,-52.72647,43],[47.46936,-52.70507,348],[47.49626,-52.70418,20]],"route":"C1"},"geometry":{"type":"LineString","coordinates":[[-52.86603,47.49135],[-52.86485,47.49301],[-52.86428,47.49352],[-52.86299,47.49405],[-52.86264,47.4943],[-52.86169,47.49427],[-52.86086,47.49478],[-52.85866,47.4982],[-52.85795,47.49974],[-52.85679,47.50148],[-52.85608,47.50215],[-52.85457,47.50309],[-52.85365,47.5038],[-52.85198,47.50423],[-52.85154,47.50425],[-52.84789,47.50318],[-52.84755,47.50313],[-52.84201,47.50422],[-52.8419,47.50393],[-52.83197,47.50589],[-52.82967,47.50552],[-52.82876,47.50565],[-52.82876,47.50573],[-52.82814,47.50567],[-52.82795,47.50578],[-52.82766,47.50613],[-52.82546,47.50742],[-52.82475,47.50751],[-52.82423,47.50791],[-52.8236,47.50818],[-52.82282,47.50826],[-52.82206,47.5094],[-52.82151,47.50925],[-52.82099,47.50898],[-52.81982,47.50667],[-52.81956,47.50639],[-52.81929,47.50626],[-52.81727,47.5057],[-52.81698,47.50599],[-52.8163,47.50636],[-52.81584,47.50653],[-52.81547,47.5065],[-52.81513,47.50635],[-52.81397,47.50545],[-52.81305,47.50499],[-52.8077,47.50295],[-52.80762,47.50275],[-52.80767,47.50257],[-52.80847,47.50144],[-52.80877,47.50076],[-52.80895,47.50058],[-52.80982,47.4984],[-52.81062,47.49679],[-52.81075,47.49643],[-52.81105,47.49462],[-52.81135,47.49396],[-52.81014,47.49345],[-52.80577,47.49122],[-52.80466,47.49087],[-52.80289,47.49057],[-52.78848,47.48975],[-52.76767,47.48821],[-52.76858,47.4775],[-52.77081,47.46798],[-52.77099,47.46568],[-52.77175,47.46276],[-52.77173,47.46173],[-52.77044,47.46143],[-52.76411,47.45961],[-52.76247,47.45947],[-52.76137,47.45927],[-52.75966,47.45853],[-52.75828,47.45828],[-52.75724,47.45823],[-52.75551,47.45829],[-52.75359,47.45782],[-52.75282,47.45776],[-52.74934,47.45771],[-52.74546,47.45813],[-52.74396,47.45794],[-52.74109,47.45775],[-52.73921,47.45805],[-52.73847,47.45879],[-52.73802,47.45896],[-52.73468,47.45788],[-52.73292,47.45748],[-52.73222,47.45745],[-52.73104,47.45762],[-52.72905,47.45738],[-52.72854,47.45738],[-52.72802,47.45754],[-52.72649,47.45835],[-52.72508,47.45938],[-52.72493,47.45966],[-52.72483,47.46012],[-52.72484,47.46061],[-52.72503,47.46163],[-52.7247,47.46274],[-52.7247,47.46366],[-52.72461,47.46394],[-52.7243,47.46444],[-52.72399,47.46474],[-52.72301,47.46536],[-52.7221,47.46579],[-52.72106,47.4659],[-52.71826,47.46547],[-52.71778,47.4655],[-52.71646,47.46579],[-52.7159,47.46577],[-52.71419,47.46485],[-52.71329,47.46396],[-52.71202,47.46342],[-52.71173,47.46337],[-52.71142,47.46344],[-52.71114,47.46399],[-52.71097,47.46414],[-52.70821,47.46506],[-52.70617,47.46505],[-52.70493,47.46491],[-52.70462,47.465],[-52.70414,47.46527],[-52.70331,47.46539],[-52.70294,47.46568],[-52.70288,47.46602],[-52.70306,47.46711],[-52.70317,47.46737],[-52.70365,47.4679],[-52.70461,47.46839],[-52.70488,47.46875],[-52.70517,47.46966],[-52.70513,47.46996],[-52.7046,47.47132],[-52.70437,47.47173],[-52.70397,47.47208],[-52.70269,47.47284],[-52.70244,47.47319],[-52.70237,47.47353],[-52.7034,47.47898],[-52.70355,47.48085],[-52.70418,47.48227],[-52.70411,47.4836],[-52.7045,47.48503],[-52.70468,47.48611],[-52.70498,47.48707],[-52.70531,47.49042],[-52.70523,47.49251],[-52.70498,47.49404],[-52.70453,47.49546],[-52.70423,47.49617],[-52.70245,47.49945],[-52.69925,47.50725],[-52.69825,47.50871],[-52.69814,47.50914],[-52.69827,47.50947]]}},{"type":"Feature","properties":{"name":"[C1 WB] One-way - St. John's NL (Temperance St to Trans-Canada Highway Westbound)","provs":["NL"],"km":17.5,"arrows":[[47.56447,-52.71407,250],[47.5577,-52.75824,247],[47.54228,-52.79864,237],[47.52767,-52.83764,222],[47.50669,-52.85669,204]],"route":"C1"},"geometry":{"type":"LineString","coordinates":[[-52.69739,47.57088],[-52.69786,47.57164],[-52.69958,47.57093],[-52.69982,47.57091],[-52.70046,47.57056],[-52.70118,47.57112],[-52.70154,47.57124],[-52.70393,47.57134],[-52.70546,47.57112],[-52.70669,47.5704],[-52.70703,47.5701],[-52.70852,47.56847],[-52.70912,47.56754],[-52.70946,47.56717],[-52.71018,47.56687],[-52.7106,47.56615],[-52.71115,47.56569],[-52.7124,47.56498],[-52.71304,47.56473],[-52.71646,47.56388],[-52.71856,47.56365],[-52.72275,47.56356],[-52.7249,47.56311],[-52.72671,47.56329],[-52.7302,47.56303],[-52.73204,47.56323],[-52.73683,47.56317],[-52.73982,47.56336],[-52.74284,47.56259],[-52.74628,47.56118],[-52.74857,47.56068],[-52.75025,47.55982],[-52.75174,47.55922],[-52.75724,47.55799],[-52.76929,47.55445],[-52.7833,47.54831],[-52.78472,47.54774],[-52.79164,47.54531],[-52.80158,47.54101],[-52.8078,47.53842],[-52.80961,47.53797],[-52.82069,47.53599],[-52.83017,47.53372],[-52.83265,47.53305],[-52.83362,47.53258],[-52.83477,47.53168],[-52.83522,47.53109],[-52.83655,47.52879],[-52.8373,47.52793],[-52.83824,47.52722],[-52.83935,47.52672],[-52.84032,47.5265],[-52.84266,47.52627],[-52.84588,47.52627],[-52.84711,47.52647],[-52.84753,47.5267],[-52.84767,47.52694],[-52.84767,47.52719],[-52.84754,47.52742],[-52.84727,47.5276],[-52.84682,47.52771],[-52.84633,47.52764],[-52.84594,47.5274],[-52.84582,47.52711],[-52.84581,47.52522],[-52.84591,47.52418],[-52.8461,47.52327],[-52.84646,47.52239],[-52.84838,47.51934],[-52.86257,47.49773],[-52.864,47.49544],[-52.86584,47.49223]]}},{"type":"Feature","properties":{"name":"[C2 EB] One-way - Deep Brook NS (Highway 1 under Highway 101)","provs":["NS"],"km":1.6,"arrows":[[44.62514,-65.67425,3]],"route":"C2"},"geometry":{"type":"LineString","coordinates":[[-65.6755,44.61808],[-65.67462,44.61998],[-65.67424,44.62535],[-65.67406,44.62583],[-65.67386,44.62613],[-65.67062,44.62852],[-65.66807,44.63066]]}},{"type":"Feature","properties":{"name":"[C2 EB] One-way - Halifax NS (Hollis Street)","provs":["NS"],"km":1.5,"arrows":[[44.64567,-63.57184,160]],"route":"C2"},"geometry":{"type":"LineString","coordinates":[[-63.5754,44.65157],[-63.57546,44.65153],[-63.57487,44.65114],[-63.57433,44.65055],[-63.56929,44.64067],[-63.56767,44.64105]]}},{"type":"Feature","properties":{"name":"[C2 WB] One-way - Deep Brook NS (Highway 101 over Highway 1)","provs":["NS"],"km":1.7,"arrows":[[44.62537,-65.67256,229]],"route":"C2"},"geometry":{"type":"LineString","coordinates":[[-65.66807,44.63066],[-65.66718,44.62955],[-65.66683,44.62899],[-65.66677,44.6283],[-65.66694,44.6278],[-65.66738,44.62742],[-65.66993,44.62671],[-65.67151,44.62602],[-65.67279,44.62523],[-65.67405,44.62407],[-65.67482,44.62295],[-65.67525,44.62173],[-65.67533,44.6209],[-65.67528,44.61892],[-65.6755,44.61808]]}},{"type":"Feature","properties":{"name":"[C2 WB]\u00a0One-way - Halifax NS (Lower Water Street)","provs":["NS"],"km":1.4,"arrows":[[44.64651,-63.57106,353]],"route":"C2"},"geometry":{"type":"LineString","coordinates":[[-63.56767,44.64105],[-63.56815,44.64119],[-63.57014,44.64479],[-63.57081,44.64557],[-63.57097,44.646],[-63.57117,44.64719],[-63.57153,44.64801],[-63.57189,44.64855],[-63.57208,44.64878],[-63.57332,44.64965],[-63.57382,44.65046],[-63.5754,44.65157]]}},{"type":"Feature","properties":{"name":"[C3 EB] One-way - New Glasgow NS (George Street)","provs":["NS"],"km":0.3,"arrows":[[45.58916,-62.64347,102]],"route":"C3"},"geometry":{"type":"LineString","coordinates":[[-62.64547,45.58946],[-62.64268,45.58904],[-62.64151,45.58934]]}},{"type":"Feature","properties":{"name":"[C3 EB] One-way - St. John's NL (Trans-Canada Highway to Blackhead Rd via Petty Harbour Maddox Cove)","provs":["NL"],"km":24.7,"arrows":[[47.50252,-52.85548,47],[47.50815,-52.82057,161],[47.49056,-52.8028,95],[47.48438,-52.768,183],[47.45987,-52.765,113],[47.45837,-52.72647,43],[47.46936,-52.70507,348],[47.49626,-52.70418,20]],"route":"C3"},"geometry":{"type":"LineString","coordinates":[[-52.86603,47.49135],[-52.86485,47.49301],[-52.86428,47.49352],[-52.86299,47.49405],[-52.86264,47.4943],[-52.86169,47.49427],[-52.86086,47.49478],[-52.85866,47.4982],[-52.85795,47.49974],[-52.85679,47.50148],[-52.85608,47.50215],[-52.85457,47.50309],[-52.85365,47.5038],[-52.85198,47.50423],[-52.85154,47.50425],[-52.84789,47.50318],[-52.84755,47.50313],[-52.84201,47.50422],[-52.8419,47.50393],[-52.83197,47.50589],[-52.82967,47.50552],[-52.82876,47.50565],[-52.82876,47.50573],[-52.82814,47.50567],[-52.82795,47.50578],[-52.82766,47.50613],[-52.82546,47.50742],[-52.82475,47.50751],[-52.82423,47.50791],[-52.8236,47.50818],[-52.82282,47.50826],[-52.82206,47.5094],[-52.82151,47.50925],[-52.82099,47.50898],[-52.81982,47.50667],[-52.81956,47.50639],[-52.81929,47.50626],[-52.81727,47.5057],[-52.81698,47.50599],[-52.8163,47.50636],[-52.81584,47.50653],[-52.81547,47.5065],[-52.81513,47.50635],[-52.81397,47.50545],[-52.81305,47.50499],[-52.8077,47.50295],[-52.80762,47.50275],[-52.80767,47.50257],[-52.80847,47.50144],[-52.80877,47.50076],[-52.80895,47.50058],[-52.80982,47.4984],[-52.81062,47.49679],[-52.81075,47.49643],[-52.81105,47.49462],[-52.81135,47.49396],[-52.81014,47.49345],[-52.80577,47.49122],[-52.80466,47.49087],[-52.80289,47.49057],[-52.78848,47.48975],[-52.76767,47.48821],[-52.76858,47.4775],[-52.77081,47.46798],[-52.77099,47.46568],[-52.77175,47.46276],[-52.77173,47.46173],[-52.77044,47.46143],[-52.76411,47.45961],[-52.76247,47.45947],[-52.76137,47.45927],[-52.75966,47.45853],[-52.75828,47.45828],[-52.75724,47.45823],[-52.75551,47.45829],[-52.75359,47.45782],[-52.75282,47.45776],[-52.74934,47.45771],[-52.74546,47.45813],[-52.74396,47.45794],[-52.74109,47.45775],[-52.73921,47.45805],[-52.73847,47.45879],[-52.73802,47.45896],[-52.73468,47.45788],[-52.73292,47.45748],[-52.73222,47.45745],[-52.73104,47.45762],[-52.72905,47.45738],[-52.72854,47.45738],[-52.72802,47.45754],[-52.72649,47.45835],[-52.72508,47.45938],[-52.72493,47.45966],[-52.72483,47.46012],[-52.72484,47.46061],[-52.72503,47.46163],[-52.7247,47.46274],[-52.7247,47.46366],[-52.72461,47.46394],[-52.7243,47.46444],[-52.72399,47.46474],[-52.72301,47.46536],[-52.7221,47.46579],[-52.72106,47.4659],[-52.71826,47.46547],[-52.71778,47.4655],[-52.71646,47.46579],[-52.7159,47.46577],[-52.71419,47.46485],[-52.71329,47.46396],[-52.71202,47.46342],[-52.71173,47.46337],[-52.71142,47.46344],[-52.71114,47.46399],[-52.71097,47.46414],[-52.70821,47.46506],[-52.70617,47.46505],[-52.70493,47.46491],[-52.70462,47.465],[-52.70414,47.46527],[-52.70331,47.46539],[-52.70294,47.46568],[-52.70288,47.46602],[-52.70306,47.46711],[-52.70317,47.46737],[-52.70365,47.4679],[-52.70461,47.46839],[-52.70488,47.46875],[-52.70517,47.46966],[-52.70513,47.46996],[-52.7046,47.47132],[-52.70437,47.47173],[-52.70397,47.47208],[-52.70269,47.47284],[-52.70244,47.47319],[-52.70237,47.47353],[-52.7034,47.47898],[-52.70355,47.48085],[-52.70418,47.48227],[-52.70411,47.4836],[-52.7045,47.48503],[-52.70468,47.48611],[-52.70498,47.48707],[-52.70531,47.49042],[-52.70523,47.49251],[-52.70498,47.49404],[-52.70453,47.49546],[-52.70423,47.49617],[-52.70245,47.49945],[-52.69925,47.50725],[-52.69825,47.50871],[-52.69814,47.50914],[-52.69827,47.50947]]}},{"type":"Feature","properties":{"name":"[C3 WB] One-way - St. John's NL (Temperance St to Trans-Canada Highway Westbound)","provs":["NL"],"km":17.5,"arrows":[[47.56447,-52.71407,250],[47.5577,-52.75824,247],[47.54228,-52.79864,237],[47.52767,-52.83764,222],[47.50669,-52.85669,204]],"route":"C3"},"geometry":{"type":"LineString","coordinates":[[-52.69739,47.57088],[-52.69786,47.57164],[-52.69958,47.57093],[-52.69982,47.57091],[-52.70046,47.57056],[-52.70118,47.57112],[-52.70154,47.57124],[-52.70393,47.57134],[-52.70546,47.57112],[-52.70669,47.5704],[-52.70703,47.5701],[-52.70852,47.56847],[-52.70912,47.56754],[-52.70946,47.56717],[-52.71018,47.56687],[-52.7106,47.56615],[-52.71115,47.56569],[-52.7124,47.56498],[-52.71304,47.56473],[-52.71646,47.56388],[-52.71856,47.56365],[-52.72275,47.56356],[-52.7249,47.56311],[-52.72671,47.56329],[-52.7302,47.56303],[-52.73204,47.56323],[-52.73683,47.56317],[-52.73982,47.56336],[-52.74284,47.56259],[-52.74628,47.56118],[-52.74857,47.56068],[-52.75025,47.55982],[-52.75174,47.55922],[-52.75724,47.55799],[-52.76929,47.55445],[-52.7833,47.54831],[-52.78472,47.54774],[-52.79164,47.54531],[-52.80158,47.54101],[-52.8078,47.53842],[-52.80961,47.53797],[-52.82069,47.53599],[-52.83017,47.53372],[-52.83265,47.53305],[-52.83362,47.53258],[-52.83477,47.53168],[-52.83522,47.53109],[-52.83655,47.52879],[-52.8373,47.52793],[-52.83824,47.52722],[-52.83935,47.52672],[-52.84032,47.5265],[-52.84266,47.52627],[-52.84588,47.52627],[-52.84711,47.52647],[-52.84753,47.5267],[-52.84767,47.52694],[-52.84767,47.52719],[-52.84754,47.52742],[-52.84727,47.5276],[-52.84682,47.52771],[-52.84633,47.52764],[-52.84594,47.5274],[-52.84582,47.52711],[-52.84581,47.52522],[-52.84591,47.52418],[-52.8461,47.52327],[-52.84646,47.52239],[-52.84838,47.51934],[-52.86257,47.49773],[-52.864,47.49544],[-52.86584,47.49223]]}},{"type":"Feature","properties":{"name":"[C3 WB]\u00a0One-way - New Glasgow NS (Dalhousie St)","provs":["NS"],"km":0.7,"arrows":[[45.5878,-62.64357,284]],"route":"C3"},"geometry":{"type":"LineString","coordinates":[[-62.64151,45.58934],[-62.64143,45.58919],[-62.64147,45.58901],[-62.64162,45.58885],[-62.64204,45.58753],[-62.64589,45.58822],[-62.64598,45.5884],[-62.64547,45.58946]]}},{"type":"Feature","properties":{"name":"[CA]  One-way - Saanich BC (Vernon Ave Hwy 17 to Lochside Trail via Saanich Municipal Hall Parking lot)","provs":["BC"],"km":0.4,"arrows":[[48.45849,-123.37573,305]],"route":"CA"},"geometry":{"type":"LineString","coordinates":[[-123.37333,48.45747],[-123.37526,48.45835],[-123.37543,48.45835],[-123.37603,48.45863],[-123.3752,48.45927],[-123.37543,48.45942],[-123.37542,48.45949],[-123.37476,48.45958],[-123.37464,48.45953]]}},{"type":"Feature","properties":{"name":"[CA] One-way - Saanich BC (Blanchard Street Hwy 17 to Galloping Goose-Lochside Trail via Ravine Way)","provs":["BC"],"km":0.5,"arrows":[[48.45739,-123.37657,127]],"route":"CA"},"geometry":{"type":"LineString","coordinates":[[-123.37847,48.4589],[-123.37821,48.45837],[-123.37786,48.45803],[-123.37647,48.45734],[-123.37665,48.45701],[-123.3773,48.45639],[-123.37758,48.45631],[-123.37741,48.45594],[-123.37745,48.45584],[-123.37765,48.45577]]}},{"type":"Feature","properties":{"name":"[CA] One-way - Saanich BC (Douglas Street to Galloping Goose Lochside Trail Junction)","provs":["BC"],"km":0.2,"arrows":[[48.45533,-123.37759,290]],"route":"CA"},"geometry":{"type":"LineString","coordinates":[[-123.37656,48.45455],[-123.37724,48.45502],[-123.37716,48.45509],[-123.37743,48.45529],[-123.37785,48.45539],[-123.37802,48.4555],[-123.37803,48.45607],[-123.37785,48.45624]]}},{"type":"Feature","properties":{"name":"[CA] One-way - Saanich BC (Trans-Canada Highway to Galloping Goose via Culduthel Road)","provs":["BC"],"km":0.4,"arrows":[[48.45482,-123.37729,134]],"route":"CA"},"geometry":{"type":"LineString","coordinates":[[-123.37966,48.45561],[-123.37818,48.45522],[-123.37746,48.45493],[-123.37667,48.45442],[-123.37625,48.45397],[-123.37724,48.45383]]}},{"type":"Feature","properties":{"name":"[CA] One-way - Saanich BC (Vernon Ave Hwy 17 at Saanich Road to Nigel Gate to Nigel Ave to Lochside Trail)","provs":["BC"],"km":0.5,"arrows":[[48.45758,-123.37322,34]],"route":"CA"},"geometry":{"type":"LineString","coordinates":[[-123.37108,48.45616],[-123.37102,48.45625],[-123.37108,48.45635],[-123.37134,48.45655],[-123.37333,48.45747],[-123.37298,48.45782],[-123.37449,48.45853],[-123.37456,48.45864],[-123.37508,48.45878],[-123.37525,48.45894]]}},{"type":"Feature","properties":{"name":"[CA] One-way - Vancouver BC (Sea Island Way from Airport to Great Canadian Way)","provs":["BC"],"km":1.5,"arrows":[[49.19126,-123.13439,109]],"route":"CA"},"geometry":{"type":"LineString","coordinates":[[-123.14007,49.19336],[-123.13969,49.19317],[-123.13934,49.1932],[-123.13877,49.19304],[-123.1386,49.19294],[-123.13857,49.19283],[-123.13872,49.19252],[-123.13899,49.19221],[-123.1393,49.19219],[-123.13936,49.19232],[-123.14001,49.19235],[-123.13929,49.19238],[-123.13367,49.19109],[-123.13354,49.19098],[-123.13089,49.19083],[-123.13072,49.1909],[-123.13023,49.1909],[-123.13022,49.19084],[-123.12967,49.19096],[-123.12499,49.19094],[-123.12476,49.19082]]}},{"type":"Feature","properties":{"name":"[CA] One-way - Victoria BC (Gorge Road East to Galloping Goose)","provs":["BC"],"km":0.3,"arrows":[[48.4429,-123.37982,103]],"route":"CA"},"geometry":{"type":"LineString","coordinates":[[-123.3819,48.4431],[-123.38108,48.4431],[-123.37888,48.44275],[-123.37896,48.44266],[-123.37915,48.44267],[-123.3798,48.44235]]}},{"type":"Feature","properties":{"name":"[CL NB] One-way - Montreal QC (Rue Saint-Antoine Ouest)","provs":["QC"],"km":1.4,"arrows":[[45.50632,-73.55769,31]],"route":"CL"},"geometry":{"type":"LineString","coordinates":[[-73.56036,45.50128],[-73.56159,45.5017],[-73.55723,45.50686],[-73.55502,45.50986],[-73.55379,45.51201]]}},{"type":"Feature","properties":{"name":"[CL WB] One-way - Montreal QC (Avenue Viger Ouest)","provs":["QC"],"km":1.6,"arrows":[[45.50616,-73.56006,213]],"route":"CL"},"geometry":{"type":"LineString","coordinates":[[-73.55512,45.51245],[-73.55665,45.51072],[-73.55713,45.51002],[-73.55769,45.50891],[-73.55834,45.50799],[-73.56091,45.50525],[-73.56145,45.50433],[-73.56312,45.50208],[-73.56315,45.50194],[-73.56305,45.50189],[-73.56079,45.50089],[-73.56036,45.50128]]}}]}