{"type":"FeatureCollection","features":[{"type":"Feature","properties":{"name":"[CL EB] Aldergrove to Chilliwack (Yarrow), BC [C2] (Yarrow Central Rd at No. 3 Rd) (Vedder River Campground 5.3km) 002","provs":["BC"]},"geometry":{"type":"LineString","coordinates":[[-122.4927,49.05959],[-122.49253,49.02402],[-122.49275,49.01661],[-122.44629,49.01688],[-122.44443,49.01729],[-122.44235,49.01688],[-122.41531,49.0168],[-122.40393,49.01733],[-122.33754,49.0165],[-122.31543,49.01691],[-122.2718,49.01673],[-122.21693,49.01711],[-122.12927,49.01685],[-122.12836,49.01764],[-122.12823,49.03139],[-122.11438,49.03149],[-122.11294,49.03193],[-122.10959,49.03484],[-122.10962,49.04585],[-122.09316,49.04602],[-122.08448,49.0535],[-122.08409,49.05569],[-122.0804,49.05816],[-122.08047,49.08214],[-122.06495,49.08211]]}},{"type":"Feature","properties":{"name":"[CL EB] Anten Mills [C3] (Horseshoe Valley Rd W at Golf Course Rd) to Orillia, ON (Hammock Harbour 487m) 002","provs":["ON"]},"geometry":{"type":"LineString","coordinates":[[-79.834,44.48044],[-79.74861,44.51868],[-79.74551,44.52096],[-79.7258,44.52966],[-79.68404,44.48193],[-79.65156,44.49571],[-79.64921,44.49621],[-79.64493,44.49794],[-79.64203,44.5005],[-79.63669,44.50278],[-79.63014,44.50545],[-79.62723,44.50587],[-79.60103,44.51725],[-79.59753,44.5178],[-79.59184,44.5171],[-79.58448,44.51755],[-79.58111,44.51846],[-79.57159,44.523],[-79.56986,44.52416],[-79.56903,44.52511],[-79.56829,44.52717],[-79.56847,44.53088],[-79.56786,44.53199],[-79.56686,44.53285],[-79.55668,44.53732],[-79.55519,44.53782],[-79.55042,44.53813],[-79.54364,44.54087],[-79.53977,44.54254],[-79.53616,44.54579],[-79.47898,44.57023],[-79.47175,44.57307],[-79.47055,44.57365],[-79.46939,44.57487],[-79.46888,44.57604],[-79.46866,44.57863],[-79.46796,44.57995],[-79.46694,44.58088],[-79.44942,44.58835],[-79.4471,44.58887],[-79.4435,44.59047],[-79.44131,44.59108],[-79.44159,44.59177],[-79.42324,44.59989],[-79.42136,44.60219],[-79.41863,44.60426],[-79.41686,44.60484]]}},{"type":"Feature","properties":{"name":"[CL EB] Borden-Charleton (Highway 10 at Trans-Canada Highway) to Charlottetown, PE via Confederation Trail [C1] (Grafton St at Weymouth St) 003","provs":["PE"]},"geometry":{"type":"LineString","coordinates":[[-63.66635,46.25456],[-63.66769,46.25746],[-63.65692,46.25879],[-63.65517,46.25952],[-63.65374,46.26112],[-63.65116,46.26677],[-63.65104,46.26845],[-63.65157,46.26985],[-63.65507,46.27429],[-63.6559,46.27604],[-63.65564,46.27839],[-63.65448,46.28011],[-63.65326,46.28096],[-63.6044,46.30519],[-63.6016,46.30876],[-63.5975,46.31524],[-63.59762,46.31619],[-63.59833,46.31721],[-63.60204,46.31869],[-63.60318,46.32004],[-63.60304,46.32147],[-63.60102,46.32491],[-63.59193,46.33195],[-63.58503,46.34246],[-63.58365,46.34374],[-63.58181,46.34482],[-63.57135,46.34942],[-63.56049,46.35604],[-63.55893,46.35708],[-63.55434,46.36174],[-63.55272,46.3623],[-63.55156,46.36231],[-63.54414,46.36069],[-63.54222,46.3595],[-63.54052,46.35659],[-63.53872,46.35594],[-63.53315,46.35621],[-63.51942,46.35796],[-63.5114,46.35713],[-63.5045,46.35758],[-63.5009,46.35728],[-63.49875,46.35744],[-63.49458,46.35851],[-63.49289,46.35804],[-63.4912,46.35652],[-63.48959,46.35621],[-63.48775,46.3566],[-63.48597,46.35742],[-63.48121,46.36165],[-63.47905,46.36286],[-63.47573,46.36347],[-63.46751,46.36358],[-63.46168,46.36489],[-63.45732,46.36464],[-63.45639,46.36433],[-63.45446,46.36279],[-63.45059,46.36218],[-63.44974,46.36112],[-63.45009,46.35965],[-63.44995,46.35891],[-63.44928,46.35821],[-63.44821,46.35781],[-63.44263,46.3571],[-63.43923,46.35813],[-63.43277,46.35775],[-63.42729,46.35899],[-63.42478,46.35896],[-63.42272,46.358],[-63.42108,46.35592],[-63.41993,46.3552],[-63.413,46.35448],[-63.41208,46.35411],[-63.41068,46.35217],[-63.40856,46.35092],[-63.40761,46.34913],[-63.40662,46.34839],[-63.40373,46.34764],[-63.3996,46.34805],[-63.39832,46.3474],[-63.39736,46.34601],[-63.39558,46.34549],[-63.39407,46.34579],[-63.39001,46.34795],[-63.38618,46.34843],[-63.37787,46.3478],[-63.37518,46.34653],[-63.37308,46.34641],[-63.37033,46.34812],[-63.36719,46.34826],[-63.36188,46.34977],[-63.3612,46.35023],[-63.35912,46.35329],[-63.3581,46.354],[-63.35508,46.35431],[-63.35071,46.35374],[-63.34951,46.35301],[-63.34802,46.35107],[-63.34497,46.34935],[-63.34441,46.34858],[-63.34412,46.34605],[-63.34235,46.34383],[-63.34216,46.34134],[-63.34066,46.33876],[-63.34229,46.33481],[-63.34178,46.33261],[-63.34348,46.33094],[-63.34354,46.32962],[-63.33982,46.32767],[-63.33928,46.32494],[-63.3318,46.31336],[-63.33156,46.30738],[-63.33072,46.30634],[-63.32871,46.30542],[-63.32593,46.30585],[-63.3215,46.30505],[-63.31553,46.30583],[-63.31182,46.30502],[-63.31015,46.30509],[-63.30824,46.30576],[-63.30418,46.30889],[-63.30348,46.30926],[-63.30211,46.30938],[-63.30095,46.30906],[-63.29849,46.30762],[-63.29489,46.30781],[-63.29391,46.30754],[-63.29309,46.30689],[-63.29255,46.30479],[-63.29133,46.30409],[-63.28925,46.30413],[-63.28541,46.30596],[-63.28358,46.30588],[-63.28266,46.30532],[-63.28219,46.30455],[-63.28187,46.30028],[-63.28061,46.29863],[-63.27824,46.29749],[-63.26762,46.29561],[-63.24755,46.29758],[-63.24048,46.30082],[-63.23655,46.30338],[-63.23321,46.30368],[-63.22823,46.30515],[-63.22593,46.30515],[-63.22262,46.30453],[-63.22059,46.30336],[-63.21678,46.29564],[-63.21481,46.29423],[-63.2105,46.29329],[-63.19685,46.28867],[-63.19393,46.28818],[-63.19199,46.28855],[-63.19053,46.28935],[-63.18811,46.29192],[-63.18678,46.29261],[-63.18077,46.29357],[-63.176,46.29396],[-63.17298,46.29572],[-63.16926,46.29633],[-63.16202,46.29909],[-63.15949,46.29963],[-63.15632,46.2997],[-63.15501,46.29893],[-63.15463,46.29797],[-63.15627,46.29389],[-63.15581,46.29237],[-63.15481,46.29166],[-63.15177,46.29047],[-63.15075,46.28847],[-63.14983,46.28764],[-63.14849,46.28727],[-63.14576,46.2872],[-63.14362,46.28624],[-63.14046,46.28225],[-63.14045,46.28105],[-63.14158,46.27949],[-63.14175,46.27865],[-63.14028,46.27637],[-63.14021,46.27506],[-63.1406,46.27461],[-63.14284,46.27434],[-63.14227,46.27338],[-63.14434,46.27153],[-63.14466,46.27044],[-63.14448,46.26943],[-63.1355,46.25621],[-63.13358,46.25187],[-63.13179,46.24954],[-63.12817,46.24706],[-63.11994,46.24404],[-63.11918,46.24348],[-63.1188,46.24277],[-63.11933,46.24102],[-63.11908,46.24013],[-63.12201,46.23827]]}},{"type":"Feature","properties":{"name":"[CL EB] Cobourg, ON Separated path at Rogers Road [C2] to Westwood Dr at Carlisle St [C2] 002","provs":["ON"]},"geometry":{"type":"LineString","coordinates":[[-78.2027,43.97042],[-78.19674,43.97182],[-78.19592,43.97023],[-78.19644,43.96993],[-78.19575,43.96847]]}},{"type":"Feature","properties":{"name":"[CL EB] Cochrane [C3] (Horse Creek Rd at Highway 1a) to Irricana, AB [C3] (Township Rd 272 at Range Rd 264) 003","provs":["AB"]},"geometry":{"type":"LineString","coordinates":[[-114.51258,51.20628],[-114.51203,51.20742],[-114.51327,51.20914],[-114.51339,51.23419],[-114.51612,51.23862],[-114.51919,51.24655],[-114.52226,51.25112],[-114.52578,51.25764],[-114.52882,51.27072],[-114.27994,51.27066],[-114.27694,51.27016],[-114.27068,51.26743],[-114.26891,51.26713],[-114.26625,51.26763],[-114.26029,51.27036],[-114.25658,51.27069],[-114.05014,51.27085],[-114.04792,51.27055],[-114.01724,51.27076],[-114.01667,51.27055],[-114.01162,51.27067],[-114.00956,51.27033],[-114.00788,51.2706],[-114.00775,51.27112],[-114.00717,51.27103],[-114.0069,51.27312],[-114.00808,51.27412],[-114.00649,51.2746],[-114.00593,51.27518],[-114.00588,51.27836],[-114.00311,51.27838],[-114.00306,51.28048],[-114.00275,51.28215],[-114.0023,51.28291],[-114.00247,51.2831],[-114.00042,51.28294],[-114.00003,51.28421],[-113.99627,51.28388],[-113.99614,51.2857],[-113.99528,51.28816],[-113.9904,51.29175],[-113.99012,51.29263],[-113.99009,51.29977],[-113.94309,51.29952],[-113.61496,51.29969]]}},{"type":"Feature","properties":{"name":"[CL EB] Cochrane, AB [C3] (Cochrane Riverfront Trail at Quigley Dr) to [C3] (Baird Ave at Headlands Close) 002","provs":["AB"]},"geometry":{"type":"LineString","coordinates":[[-114.51335,51.19639],[-114.51322,51.19403],[-114.50784,51.19009],[-114.50629,51.18951],[-114.50314,51.18966],[-114.5023,51.19054],[-114.50135,51.19067],[-114.49322,51.19035],[-114.49321,51.18964],[-114.49247,51.18856],[-114.48986,51.18724],[-114.4883,51.18728],[-114.4886,51.18677],[-114.48991,51.18601],[-114.4899,51.18532],[-114.48893,51.1843],[-114.48811,51.18385],[-114.48691,51.18392],[-114.487,51.18345],[-114.48598,51.18327],[-114.48167,51.18062],[-114.48115,51.18114],[-114.47982,51.18137],[-114.47998,51.18083],[-114.47811,51.17858],[-114.47724,51.17665],[-114.47739,51.17407],[-114.4767,51.17313],[-114.47512,51.17268],[-114.46445,51.17408],[-114.45537,51.17415],[-114.45285,51.17387],[-114.44879,51.1741],[-114.44737,51.17464],[-114.4471,51.17511],[-114.44734,51.17639],[-114.45053,51.17965],[-114.44725,51.18317],[-114.44792,51.18324],[-114.44759,51.18363],[-114.44763,51.18458],[-114.45334,51.18509],[-114.45426,51.18545],[-114.45429,51.18849],[-114.45514,51.18889],[-114.45809,51.1889],[-114.45811,51.19065]]}},{"type":"Feature","properties":{"name":"[CL EB] Coquitlam [C2] (7b at United Blvd) to Port Coquitlam, BC [CN] (Poco Trl at Pitt River Bridge Bike Path) 003","provs":["BC"]},"geometry":{"type":"LineString","coordinates":[[-122.81982,49.22773],[-122.81776,49.22714],[-122.81455,49.22561],[-122.81209,49.2252],[-122.80246,49.22777],[-122.8003,49.22779],[-122.79233,49.22678],[-122.78757,49.22728],[-122.7803,49.22958],[-122.77435,49.23079],[-122.77014,49.23407],[-122.76502,49.23663],[-122.7644,49.23742],[-122.76421,49.2391],[-122.76362,49.23979],[-122.75334,49.245],[-122.74855,49.24634],[-122.74229,49.24685],[-122.74018,49.24766],[-122.73762,49.24938],[-122.73554,49.24936],[-122.73548,49.24819],[-122.73384,49.24804],[-122.73155,49.24893],[-122.73153,49.24958],[-122.73257,49.24982]]}},{"type":"Feature","properties":{"name":"[CL EB] Delta [C1] (Hwy 17 at 28 Ave) to Surrey, BC (Hwy 10 at 160 Street) 003","provs":["BC"]},"geometry":{"type":"LineString","coordinates":[[-123.05711,49.05388],[-123.05712,49.05559],[-123.05647,49.05712],[-123.05503,49.05867],[-123.05371,49.05943],[-123.05141,49.05982],[-123.04688,49.05945],[-123.04198,49.05963],[-123.03932,49.06039],[-123.03699,49.06202],[-123.03592,49.06406],[-123.03585,49.07793],[-123.03543,49.0794],[-123.03458,49.08059],[-123.03278,49.08192],[-123.03038,49.08283],[-123.02739,49.08327],[-123.02546,49.0842],[-123.02461,49.08537],[-123.0245,49.08685],[-123.0241,49.08685],[-123.02409,49.09006],[-122.96726,49.08996],[-122.96101,49.08948],[-122.95796,49.09147],[-122.93385,49.09606],[-122.90428,49.09923],[-122.90259,49.10011],[-122.89548,49.1074],[-122.89333,49.10828],[-122.84148,49.10812],[-122.83908,49.10758],[-122.83477,49.10508],[-122.8322,49.10452],[-122.77905,49.10442]]}},{"type":"Feature","properties":{"name":"[CL EB] Espanola [C1] (Jacklin Rd at Hwy 6) to Township of Lorne (Greater Sudbury), ON (Jacklin Rd at Highway 17) 003","provs":["ON"]},"geometry":{"type":"LineString","coordinates":[[-81.7806,46.27496],[-81.77877,46.27481],[-81.77673,46.27544],[-81.77375,46.27569],[-81.77199,46.27509],[-81.76627,46.27472],[-81.75599,46.27304],[-81.7488,46.27279],[-81.7449,46.27393],[-81.73786,46.27537],[-81.69621,46.28339],[-81.69431,46.28409],[-81.69342,46.28561],[-81.69391,46.29086],[-81.69315,46.29499],[-81.69351,46.2957]]}},{"type":"Feature","properties":{"name":"[CL EB] Lake Country, BC (Woodsdale Road to Wood Lake Loop Route) 003","provs":["BC"]},"geometry":{"type":"LineString","coordinates":[[-119.40304,50.04928],[-119.39166,50.04929]]}},{"type":"Feature","properties":{"name":"[CL EB] Matane, QC [C3] (Rue Matane-Sur-Mer at Avenue Du Phare o) to (Avenue D'Amours at Avenue Du Phare E) 003","provs":["QC"]},"geometry":{"type":"LineString","coordinates":[[-67.61862,48.81437],[-67.61847,48.81463],[-67.61452,48.81572],[-67.6095,48.81633],[-67.60359,48.81775],[-67.59512,48.8205],[-67.58736,48.8251],[-67.58039,48.8305],[-67.57186,48.83825],[-67.56828,48.84087],[-67.5646,48.83832],[-67.55648,48.83649],[-67.55523,48.83664],[-67.54894,48.8351],[-67.54258,48.83195],[-67.54254,48.83571],[-67.54176,48.83828],[-67.53815,48.83889],[-67.53138,48.83838],[-67.53147,48.83971],[-67.53107,48.84119],[-67.52998,48.84335],[-67.52829,48.84375],[-67.52811,48.84438],[-67.52002,48.85134],[-67.51778,48.85239]]}},{"type":"Feature","properties":{"name":"[CL EB] Mates Corner, NB [C1] (west of Confederation Bridge) to Northport, NS (Amherst Shore Provincial Camp Ground 732m) 003","provs":["NB"]},"geometry":{"type":"LineString","coordinates":[[-64.13333,46.13621],[-64.13235,46.13492],[-64.13166,46.13067],[-64.12901,46.12633],[-64.12638,46.12013],[-64.12585,46.11809],[-64.12492,46.11099],[-64.12032,46.10024],[-64.11589,46.08449],[-64.11076,46.07297],[-64.1093,46.06997],[-64.10424,46.06439],[-64.10267,46.06116],[-64.10174,46.05994],[-64.09446,46.05478],[-64.09393,46.05368],[-64.09773,46.04747],[-64.1034,46.03929],[-64.11265,46.03148],[-64.1024,46.02537],[-64.09955,46.02278],[-64.1019,46.0199],[-64.10127,46.01772],[-64.10198,46.01576],[-64.10325,46.01485],[-64.10261,46.01422],[-64.09718,46.01101],[-64.09475,46.00846],[-64.09353,46.00771],[-64.08646,46.00589],[-64.08002,46.00298],[-64.07584,46.00179],[-64.07255,45.99945],[-64.06739,45.99425],[-64.06573,45.99354],[-64.06217,45.99288],[-64.05974,45.99182],[-64.05839,45.9903],[-64.05662,45.98644],[-64.05668,45.9822],[-64.05614,45.98116],[-64.05468,45.97994],[-64.05049,45.97812],[-64.04808,45.97647],[-64.04229,45.9787],[-64.03594,45.97748],[-64.03319,45.97726],[-64.02806,45.97752],[-64.02651,45.97805],[-64.01552,45.98671],[-64.00923,45.9899],[-64.00327,45.99059]]}},{"type":"Feature","properties":{"name":"[CL EB] Mates Corner, NB [C1] (west of Confederation Bridge) to Northport, NS (Amherst Shore Provincial Camp Ground 732m) 003","provs":["NS"]},"geometry":{"type":"LineString","coordinates":[[-64.07765,46.00231],[-64.07584,46.00179],[-64.07255,45.99945],[-64.06739,45.99425],[-64.06573,45.99354],[-64.06217,45.99288],[-64.05974,45.99182],[-64.05839,45.9903],[-64.05662,45.98644],[-64.05668,45.9822],[-64.05614,45.98116],[-64.05468,45.97994],[-64.05049,45.97812],[-64.04808,45.97647],[-64.04229,45.9787],[-64.03594,45.97748],[-64.03319,45.97726],[-64.02806,45.97752],[-64.02651,45.97805],[-64.01552,45.98671],[-64.00923,45.9899],[-63.99656,45.99136],[-63.99209,45.99087],[-63.98082,45.98842],[-63.97516,45.98752],[-63.96119,45.98886],[-63.94837,45.98919],[-63.94439,45.98899],[-63.94266,45.98846],[-63.9395,45.98617],[-63.93472,45.98365],[-63.92971,45.98233],[-63.92288,45.97994],[-63.91226,45.97871],[-63.90847,45.97769],[-63.90279,45.97494],[-63.89332,45.96819],[-63.88354,45.96261],[-63.8791,45.96122]]}},{"type":"Feature","properties":{"name":"[CL EB] Moncton (Vaughan Harvey Boulevard) to Dieppe, NB (Path at Acadie Ave) 003","provs":["NB"]},"geometry":{"type":"LineString","coordinates":[[-64.7898,46.08485],[-64.78942,46.08384],[-64.7894,46.08149],[-64.78777,46.07921],[-64.78729,46.07916],[-64.78563,46.07693],[-64.78333,46.07787],[-64.77879,46.08111],[-64.77854,46.08196],[-64.77623,46.0837],[-64.77482,46.08605],[-64.77276,46.08734],[-64.76941,46.09051],[-64.76713,46.09165],[-64.76397,46.09256],[-64.7618,46.09276],[-64.75552,46.092],[-64.75426,46.09212],[-64.74617,46.08911],[-64.73999,46.08803],[-64.73863,46.08841],[-64.73737,46.08821],[-64.73639,46.08857]]}},{"type":"Feature","properties":{"name":"[CL EB] Montreal, QC [CN] (Parc Du Canal-de-Lachine at Passerelle Hall) to [CN] (Rue de la Commune o at Rue Mill) 003","provs":["QC"]},"geometry":{"type":"LineString","coordinates":[[-73.56414,45.48714],[-73.55599,45.4914],[-73.55559,45.49296],[-73.55332,45.49322],[-73.55266,45.49588]]}},{"type":"Feature","properties":{"name":"[CL EB] Nairn Centre [C1] (Minto Street at TCH 17) to Greater Sudbury (Whitefish), ON (Graham Street at Old Hwy 17) 003","provs":["ON"]},"geometry":{"type":"LineString","coordinates":[[-81.62143,46.32503],[-81.62107,46.32591],[-81.62027,46.32632],[-81.61684,46.32636],[-81.61369,46.32579],[-81.60364,46.32815],[-81.5975,46.33219],[-81.5915,46.33221],[-81.58593,46.33298],[-81.58444,46.33288],[-81.57749,46.33612],[-81.57224,46.33707],[-81.57068,46.33831],[-81.57134,46.34131],[-81.57117,46.34187],[-81.55991,46.35035],[-81.55633,46.35072],[-81.55088,46.35238],[-81.54608,46.35469],[-81.54401,46.35603],[-81.54008,46.35673],[-81.53107,46.36092],[-81.52778,46.3616],[-81.52028,46.36578],[-81.51806,46.36646],[-81.51577,46.36801],[-81.514,46.36966],[-81.51162,46.37371],[-81.51044,46.37459],[-81.50847,46.37533],[-81.50841,46.37573],[-81.50197,46.37674],[-81.49888,46.37759],[-81.49573,46.37941],[-81.49344,46.37981],[-81.48436,46.38414],[-81.48079,46.38292],[-81.48029,46.38204],[-81.47949,46.38161],[-81.47287,46.38167],[-81.46934,46.38376],[-81.46784,46.3842],[-81.45889,46.38451],[-81.45248,46.38391],[-81.45067,46.3844],[-81.44599,46.38731],[-81.44381,46.38799],[-81.43351,46.38697],[-81.42343,46.38778],[-81.41341,46.3915],[-81.40817,46.39402],[-81.39755,46.39457],[-81.38569,46.39378],[-81.38468,46.39338],[-81.38298,46.39179],[-81.38148,46.39116],[-81.37426,46.39089],[-81.37314,46.39005],[-81.373,46.38948],[-81.37329,46.3887],[-81.3632,46.38819],[-81.3602,46.38771],[-81.35775,46.38791],[-81.35548,46.38768],[-81.35212,46.38666],[-81.35021,46.38464],[-81.34819,46.38415],[-81.34493,46.38228],[-81.33754,46.38043],[-81.33622,46.38038],[-81.33357,46.38105],[-81.329,46.38101],[-81.32551,46.38134],[-81.31855,46.38099],[-81.31783,46.38077],[-81.31688,46.37885],[-81.31301,46.37977],[-81.30701,46.382],[-81.303,46.38404],[-81.29893,46.38452],[-81.29543,46.38634],[-81.2926,46.38673],[-81.2905,46.38881],[-81.2892,46.38948],[-81.28237,46.39051],[-81.28078,46.38949]]}},{"type":"Feature","properties":{"name":"[CL EB] Naughton (Greater Subury), ON [C1] (Horizon Dr at Old Hwy 17) to (Simon Lake Drive at Old Hwy 17) 003","provs":["ON"]},"geometry":{"type":"LineString","coordinates":[[-81.22191,46.39597],[-81.21381,46.396],[-81.21096,46.39662],[-81.20635,46.39959],[-81.20236,46.39937],[-81.20204,46.39852],[-81.19813,46.39855],[-81.19645,46.39802],[-81.19461,46.39815],[-81.19391,46.39893],[-81.19129,46.4001],[-81.18616,46.40093],[-81.1837,46.4027],[-81.18425,46.40409]]}},{"type":"Feature","properties":{"name":"[CL EB] Northport to Tatamagouche (Brule Point), NS (Sunset Watch Family Campgrounds 5.8km) 003","provs":["NS"]},"geometry":{"type":"LineString","coordinates":[[-63.8791,45.96122],[-63.87507,45.95981],[-63.87267,45.95818],[-63.87178,45.95706],[-63.87164,45.95176],[-63.87253,45.94409],[-63.87036,45.93568],[-63.86852,45.93356],[-63.86436,45.9315],[-63.85935,45.92953],[-63.85103,45.92451],[-63.84853,45.9237],[-63.84259,45.92267],[-63.84065,45.92188],[-63.83263,45.91668],[-63.82354,45.91191],[-63.82101,45.90961],[-63.8201,45.9079],[-63.81995,45.90682],[-63.82057,45.90032],[-63.82274,45.89679],[-63.82305,45.89571],[-63.82098,45.89096],[-63.82048,45.8905],[-63.81867,45.89009],[-63.81327,45.89121],[-63.79946,45.89006],[-63.79333,45.888],[-63.78005,45.88171],[-63.77474,45.87866],[-63.76846,45.87623],[-63.76738,45.87534],[-63.76361,45.86926],[-63.75946,45.86548],[-63.75914,45.8649],[-63.75927,45.86383],[-63.7615,45.86181],[-63.75797,45.85594],[-63.75661,45.85473],[-63.75471,45.85383],[-63.75299,45.85346],[-63.74906,45.85415],[-63.74508,45.85411],[-63.74303,45.85325],[-63.74009,45.8501],[-63.73883,45.84939],[-63.72408,45.84831],[-63.71605,45.84835],[-63.69912,45.84992],[-63.69628,45.8505],[-63.69109,45.85223],[-63.68906,45.85241],[-63.68416,45.85174],[-63.67311,45.84645],[-63.66886,45.84576],[-63.66717,45.84625],[-63.66519,45.84549],[-63.66248,45.84615],[-63.6615,45.84671],[-63.66125,45.84733],[-63.66145,45.84985],[-63.65849,45.8505],[-63.65353,45.85071],[-63.64876,45.84748],[-63.64809,45.84483],[-63.64703,45.84318],[-63.64136,45.84021],[-63.63599,45.83681],[-63.62603,45.83213],[-63.62228,45.82977],[-63.61069,45.82146],[-63.59144,45.81539],[-63.5899,45.81535],[-63.58657,45.81597],[-63.57653,45.8146],[-63.57522,45.8149],[-63.57078,45.81722],[-63.56385,45.81861],[-63.56039,45.81904],[-63.54923,45.81891],[-63.5357,45.81814],[-63.51486,45.81281],[-63.4978,45.81104],[-63.48744,45.81076],[-63.47303,45.8138],[-63.47028,45.81381],[-63.46869,45.8135],[-63.46454,45.8136],[-63.46283,45.81329],[-63.4616,45.81265],[-63.45958,45.81091],[-63.45282,45.80853],[-63.45117,45.80578],[-63.44995,45.80488],[-63.44641,45.80271],[-63.4342,45.79655],[-63.43283,45.79533],[-63.43062,45.79072],[-63.42969,45.78979],[-63.42158,45.78591],[-63.41373,45.78415],[-63.41272,45.78331],[-63.40688,45.76999],[-63.40006,45.75975],[-63.39419,45.75619],[-63.38963,45.75211],[-63.37476,45.74563],[-63.3732,45.74351],[-63.37227,45.74284],[-63.36695,45.74063],[-63.36504,45.73894],[-63.36358,45.73832],[-63.34734,45.7366],[-63.33899,45.73533],[-63.33663,45.73471],[-63.32721,45.72969],[-63.32127,45.7289],[-63.31396,45.72519],[-63.30462,45.71894],[-63.29504,45.71326],[-63.28897,45.71128],[-63.28355,45.70646],[-63.28187,45.70453],[-63.28088,45.70405],[-63.27587,45.70373],[-63.26776,45.7089],[-63.26345,45.71214],[-63.26064,45.71261],[-63.25183,45.71554],[-63.2462,45.71704],[-63.2386,45.7206],[-63.20718,45.73186]]}},{"type":"Feature","properties":{"name":"[CL EB] Pictou (Alma Rd) to Alma, NS 003","provs":["NS"]},"geometry":{"type":"LineString","coordinates":[[-62.79795,45.63922],[-62.79358,45.63923],[-62.79186,45.63866],[-62.78335,45.62931],[-62.778,45.62621],[-62.77729,45.6239],[-62.77741,45.62035],[-62.77593,45.61579],[-62.77622,45.6133],[-62.77267,45.60848],[-62.76752,45.6002],[-62.76703,45.59864],[-62.76499,45.5966],[-62.76267,45.59187],[-62.76201,45.58867],[-62.76215,45.58627],[-62.76026,45.57842]]}},{"type":"Feature","properties":{"name":"[CL EB] Prince George, BC (Bear Rd ramp to Yellowhead Hwy) 001","provs":["BC"]},"geometry":{"type":"LineString","coordinates":[[-122.81581,53.85783],[-122.81539,53.85826]]}},{"type":"Feature","properties":{"name":"[CL EB] Richmond [CN] (Westminster Highway at Shell Rd Trl) to New Westminster, BC [C2] (Braid St at Brunette-Fraser Regional Greenway) 003","provs":["BC"]},"geometry":{"type":"LineString","coordinates":[[-123.10287,49.17007],[-123.09228,49.17024],[-123.06548,49.16984],[-123.0158,49.16982],[-123.01047,49.16973],[-123.0071,49.16912],[-123.00153,49.16896],[-122.9984,49.16898],[-122.99863,49.16983],[-122.97438,49.16994],[-122.97292,49.17055],[-122.97247,49.17171],[-122.97183,49.17162],[-122.96661,49.18036],[-122.96588,49.18106],[-122.9642,49.18171],[-122.96161,49.18197],[-122.95881,49.18341],[-122.95325,49.18489],[-122.95099,49.18654],[-122.94995,49.18927],[-122.94944,49.18982],[-122.94329,49.19223],[-122.94252,49.19237],[-122.94223,49.19179],[-122.94823,49.19758],[-122.94829,49.19796],[-122.94668,49.19938],[-122.9438,49.20019],[-122.94129,49.2016],[-122.93431,49.20374],[-122.9281,49.20311],[-122.92661,49.20226],[-122.92827,49.20134],[-122.92774,49.20087],[-122.92217,49.1999],[-122.92088,49.1992],[-122.9158,49.1989],[-122.9157,49.19921],[-122.91404,49.19989],[-122.90958,49.20105],[-122.9104,49.20184],[-122.90168,49.20643],[-122.90186,49.20657],[-122.89911,49.20891],[-122.89772,49.21145],[-122.8947,49.21466],[-122.89341,49.21856],[-122.89293,49.22191],[-122.88275,49.23137],[-122.88242,49.23127]]}},{"type":"Feature","properties":{"name":"[CL EB] Sudbury (Soo Road at Old Hwy 17) to Nickel Centre, ON [C1] (Birch St at TCH 17) 001","provs":["ON"]},"geometry":{"type":"LineString","coordinates":[[-81.15899,46.41143],[-81.1592,46.4121],[-81.15271,46.41631],[-81.14993,46.41763],[-81.14651,46.41878],[-81.13985,46.42019],[-81.1394,46.41937],[-81.139,46.41925],[-81.13409,46.42126],[-81.13158,46.42189],[-81.12934,46.42074],[-81.12576,46.42072],[-81.12506,46.42158],[-81.11891,46.42169],[-81.11891,46.41904],[-81.11764,46.41518],[-81.1188,46.41317],[-81.11697,46.41103],[-81.11603,46.41068],[-81.11591,46.41288],[-81.11529,46.41413],[-81.11058,46.41778],[-81.10762,46.41964],[-81.09932,46.42204],[-81.09779,46.42312],[-81.0963,46.42314],[-81.09264,46.42438],[-81.08739,46.42369],[-81.08535,46.42377],[-81.0841,46.42521],[-81.0813,46.42648],[-81.08032,46.42839],[-81.07686,46.42985],[-81.07482,46.43123],[-81.07297,46.43182],[-81.06955,46.43426],[-81.06842,46.43541],[-81.06889,46.43598],[-81.06891,46.43688],[-81.06782,46.43838],[-81.06683,46.43918],[-81.06201,46.44159],[-81.06031,46.44189],[-81.05782,46.44152],[-81.0565,46.44245],[-81.05562,46.4437],[-81.05294,46.44448],[-81.051,46.44697],[-81.04896,46.44728],[-81.0453,46.44842],[-81.04388,46.44936],[-81.04176,46.44977],[-81.04093,46.45056],[-81.03952,46.45491],[-81.03681,46.45738],[-81.03541,46.45793],[-81.03169,46.4584],[-81.0298,46.45996],[-81.02814,46.46007],[-81.02823,46.46436],[-81.0322,46.46592],[-81.03346,46.46733],[-81.03268,46.4673],[-81.03223,46.46815],[-81.0298,46.46952],[-81.02806,46.47011],[-81.02618,46.47007],[-81.0243,46.47059],[-81.0197,46.47328],[-81.01769,46.47412],[-81.0176,46.47464],[-81.01493,46.47515],[-81.01407,46.4756],[-81.01212,46.47738],[-81.01154,46.47854],[-81.01104,46.47854],[-81.00788,46.48025],[-81.0069,46.48039],[-81.00524,46.48151],[-81.0051,46.4831],[-80.99863,46.48572],[-80.99487,46.48828],[-80.99186,46.4857],[-80.98838,46.4848],[-80.98828,46.4843],[-80.98713,46.48429],[-80.98709,46.48527],[-80.98584,46.48518],[-80.9848,46.48555],[-80.98367,46.48627],[-80.98202,46.48829],[-80.97955,46.48938],[-80.97329,46.48997],[-80.969,46.48972],[-80.96202,46.49013],[-80.96009,46.48981],[-80.95755,46.48871],[-80.95524,46.49033],[-80.95228,46.49066],[-80.95001,46.49146],[-80.94462,46.49055],[-80.94253,46.48957],[-80.9412,46.49012],[-80.938,46.49057],[-80.93074,46.4907],[-80.92357,46.48929],[-80.92071,46.48748],[-80.91593,46.48738],[-80.90577,46.48519],[-80.90311,46.4852],[-80.90125,46.48449],[-80.89908,46.48438],[-80.89661,46.48469],[-80.89042,46.484],[-80.88666,46.4846],[-80.88396,46.48413],[-80.87076,46.48643],[-80.85702,46.48606],[-80.84464,46.48682],[-80.84108,46.48918],[-80.83744,46.49104],[-80.8383,46.49172],[-80.83692,46.49262]]}},{"type":"Feature","properties":{"name":"[CL EB] Sudbury, ON (Bancrof Dr SB) 001","provs":["ON"]},"geometry":{"type":"LineString","coordinates":[[-80.9663,46.49966],[-80.96448,46.49963]]}},{"type":"Feature","properties":{"name":"[CL EB] Tatamagouche (Brule Point) to Pictou, NS [C1] (Route 106) 003","provs":["NS"]},"geometry":{"type":"LineString","coordinates":[[-63.20718,45.73186],[-63.20376,45.73302],[-63.20256,45.73314],[-63.1972,45.73248],[-63.19386,45.73162],[-63.19157,45.73202],[-63.17773,45.74019],[-63.17463,45.74177],[-63.17148,45.74285],[-63.15838,45.74465],[-63.15426,45.74591],[-63.14695,45.74917],[-63.14446,45.7499],[-63.11897,45.75307],[-63.10504,45.75823],[-63.09985,45.75923],[-63.09674,45.75865],[-63.09218,45.75652],[-63.08714,45.75326],[-63.08291,45.7519],[-63.07386,45.75243],[-63.06917,45.75361],[-63.06478,45.75231],[-63.05964,45.75161],[-63.05705,45.75181],[-63.05181,45.75426],[-63.05028,45.75576],[-63.03773,45.77292],[-63.03203,45.77992],[-63.0282,45.78792],[-63.02742,45.78871],[-63.02666,45.78899],[-63.01883,45.78956],[-62.99997,45.78867],[-62.98946,45.78571],[-62.98259,45.78442],[-62.95563,45.77812],[-62.95162,45.77806],[-62.8958,45.77217],[-62.88956,45.76927],[-62.88175,45.76722],[-62.85229,45.76025],[-62.8492,45.7592],[-62.84623,45.759],[-62.83323,45.75575],[-62.82674,45.75203],[-62.81962,45.74927],[-62.8147,45.74602],[-62.81275,45.74376],[-62.80471,45.7366],[-62.80257,45.73351],[-62.77515,45.71192],[-62.76433,45.70296],[-62.7586,45.69773],[-62.75232,45.69441],[-62.74978,45.69249],[-62.74388,45.69091],[-62.74159,45.68935],[-62.73883,45.68823],[-62.73313,45.68667],[-62.73208,45.68577],[-62.73103,45.68333],[-62.73106,45.68273]]}},{"type":"Feature","properties":{"name":"[CL EB] Toronto (Etobicoke) [C2] (West Humber Trail at Arcot Rd) to Pickering, ON [C2] (Rodd Ave at Waterfront Trail) 003","provs":["ON"]},"geometry":{"type":"LineString","coordinates":[[-79.55206,43.72675],[-79.55166,43.72737],[-79.55298,43.72845],[-79.55323,43.72902],[-79.55254,43.72959],[-79.5509,43.72991],[-79.55078,43.73111],[-79.55026,43.73169],[-79.55066,43.73299],[-79.5517,43.73372],[-79.55119,43.73471],[-79.55073,43.73765],[-79.54817,43.74139],[-79.54818,43.74207],[-79.54684,43.74183],[-79.5459,43.74273],[-79.54466,43.74276],[-79.54395,43.74419],[-79.54281,43.74449],[-79.54238,43.74512],[-79.54262,43.74557],[-79.54204,43.74637],[-79.54159,43.74649],[-79.54159,43.74821],[-79.54226,43.75193],[-79.53248,43.7536],[-79.53098,43.75423],[-79.52422,43.75579],[-79.52483,43.75673],[-79.52809,43.75747],[-79.52864,43.75801],[-79.52881,43.75879],[-79.52325,43.75977],[-79.52252,43.76014],[-79.52086,43.75954],[-79.51867,43.75996],[-79.51842,43.75955],[-79.5181,43.7596],[-79.51822,43.76012],[-79.51556,43.76068],[-79.51282,43.7623],[-79.51103,43.76166],[-79.50937,43.76207],[-79.50911,43.76264],[-79.50855,43.762],[-79.5081,43.76194],[-79.50781,43.76261],[-79.50514,43.76315],[-79.50403,43.76393],[-79.50199,43.76407],[-79.50142,43.76465],[-79.49791,43.76515],[-79.49725,43.7656],[-79.49422,43.76631],[-79.4931,43.76702],[-79.49021,43.76753],[-79.48981,43.76705],[-79.48942,43.76746],[-79.48213,43.76927],[-79.48164,43.76914],[-79.4718,43.77158],[-79.46751,43.7721],[-79.46791,43.77391],[-79.4671,43.77448],[-79.46679,43.77675],[-79.4647,43.77788],[-79.46483,43.77917],[-79.46333,43.77955],[-79.46234,43.7797],[-79.46177,43.77939],[-79.4586,43.77994],[-79.45773,43.77958],[-79.45717,43.77874],[-79.45639,43.77867],[-79.45477,43.7794],[-79.45238,43.77969],[-79.45412,43.77748],[-79.45337,43.77596],[-79.45408,43.77521],[-79.45407,43.77457],[-79.44601,43.77634],[-79.44605,43.77718],[-79.44374,43.77757],[-79.44346,43.77736],[-79.44187,43.7775],[-79.43878,43.77811],[-79.43772,43.77849],[-79.43579,43.77989],[-79.43319,43.78053],[-79.43148,43.7805],[-79.42436,43.78209],[-79.42366,43.78181],[-79.42146,43.78226],[-79.42067,43.78198],[-79.42027,43.78121],[-79.41859,43.7817],[-79.4173,43.78134],[-79.40776,43.78356],[-79.40715,43.78397],[-79.4033,43.78484],[-79.4004,43.78614],[-79.39826,43.78672],[-79.39795,43.78711],[-79.39631,43.78701],[-79.3958,43.78739],[-79.39606,43.78814],[-79.39275,43.78892],[-79.39221,43.78939],[-79.38863,43.79002],[-79.38754,43.79067],[-79.38431,43.79137],[-79.38348,43.79114],[-79.38307,43.79158],[-79.38222,43.79142],[-79.38051,43.79216],[-79.37441,43.79276],[-79.37381,43.79328],[-79.37447,43.79548],[-79.37377,43.79689],[-79.37424,43.79792],[-79.37587,43.79874],[-79.37311,43.79978],[-79.37153,43.80097],[-79.36994,43.8015],[-79.3686,43.80283],[-79.36561,43.80335],[-79.36405,43.80266],[-79.35943,43.79926],[-79.35607,43.79977],[-79.35317,43.79958],[-79.34954,43.80049],[-79.34795,43.80202],[-79.34643,43.80278],[-79.335,43.80436],[-79.33174,43.80391],[-79.31113,43.80862],[-79.30763,43.80785],[-79.30689,43.80856],[-79.30693,43.8093],[-79.30613,43.8096],[-79.3063,43.80998],[-79.30325,43.81],[-79.30134,43.81044],[-79.30107,43.81069],[-79.30164,43.81212],[-79.29495,43.81377],[-79.29406,43.81228],[-79.29177,43.81249],[-79.28952,43.81339],[-79.28717,43.81392],[-79.28642,43.81379],[-79.28599,43.81442],[-79.28356,43.81443],[-79.28168,43.81502],[-79.28193,43.81553],[-79.28142,43.81565],[-79.27852,43.81516],[-79.27517,43.8166],[-79.27278,43.81713],[-79.27197,43.81754],[-79.27209,43.81782],[-79.27161,43.81789],[-79.27117,43.81749],[-79.26837,43.81808],[-79.2673,43.81887],[-79.26673,43.81863],[-79.26563,43.81895],[-79.26426,43.81884],[-79.26191,43.81934],[-79.26221,43.81997],[-79.2619,43.82018],[-79.25782,43.82201],[-79.24731,43.82407],[-79.24549,43.8246],[-79.24411,43.82567],[-79.23991,43.82681],[-79.23654,43.82642],[-79.23467,43.82717],[-79.2329,43.82631],[-79.23159,43.82407],[-79.23087,43.8234],[-79.22631,43.82082],[-79.22341,43.81967],[-79.22111,43.81952],[-79.21789,43.81984],[-79.21652,43.81944],[-79.21511,43.81853],[-79.21476,43.81882],[-79.2023,43.81131],[-79.19125,43.80908],[-79.18854,43.80944],[-79.18778,43.80999],[-79.18638,43.81027],[-79.18548,43.81002],[-79.18492,43.80884],[-79.1821,43.80933],[-79.18165,43.80906],[-79.18037,43.80625],[-79.16761,43.80909],[-79.16622,43.80905],[-79.16561,43.80957],[-79.16289,43.80996],[-79.15663,43.81155],[-79.15641,43.81173],[-79.15678,43.81251],[-79.15661,43.81318],[-79.15705,43.81439],[-79.15689,43.81464],[-79.15528,43.81434],[-79.15104,43.81463],[-79.14034,43.81699],[-79.13922,43.81467],[-79.13219,43.8163],[-79.1287,43.80764],[-79.12619,43.80231],[-79.1224,43.79947],[-79.11973,43.7998],[-79.11768,43.79702],[-79.11636,43.79684]]}},{"type":"Feature","properties":{"name":"[CL EB] Vancouver, BC (Seawall) 002","provs":["BC"]},"geometry":{"type":"LineString","coordinates":[[-123.13757,49.29418],[-123.1359,49.29519]]}},{"type":"Feature","properties":{"name":"[CL EB] Vancouver, BC [C2] (Stanley Park Seawall Bike Path) to [CN] (Seaside Bike Route via Arbutus Greenway) 003","provs":["BC"]},"geometry":{"type":"LineString","coordinates":[[-123.1359,49.29519],[-123.1368,49.29493],[-123.13772,49.29412],[-123.14243,49.29365],[-123.1461,49.29549],[-123.14829,49.29427],[-123.14858,49.29447],[-123.14921,49.29423],[-123.14969,49.29377],[-123.14972,49.29314],[-123.1474,49.291],[-123.14566,49.29035],[-123.14248,49.28824],[-123.14237,49.28728],[-123.14288,49.28469],[-123.14207,49.28324],[-123.13919,49.2813],[-123.13408,49.27616],[-123.13276,49.27533],[-123.13373,49.27477],[-123.1313,49.27328],[-123.13049,49.27251],[-123.13063,49.27228],[-123.12978,49.27173],[-123.12917,49.27188],[-123.12777,49.27099],[-123.12653,49.27072],[-123.12483,49.27204],[-123.12355,49.27219],[-123.12118,49.27093],[-123.11984,49.27181],[-123.11985,49.27265],[-123.11905,49.27327],[-123.11322,49.27315],[-123.1104,49.27474],[-123.10924,49.27506],[-123.10845,49.27601],[-123.10318,49.27562]]}},{"type":"Feature","properties":{"name":"[CL NB] Halifax [C2] (Angus L. Macdonald Bridge Bike Ln at Barrington Greenway) to Waverley, NS via Dartmouth [CN] (Rocky Lake Dr at Cobequid Rd) 003","provs":["NS"]},"geometry":{"type":"LineString","coordinates":[[-63.58813,44.65911],[-63.58818,44.65878],[-63.58927,44.65892],[-63.58976,44.65865],[-63.58899,44.65908],[-63.58173,44.66707],[-63.57816,44.67007],[-63.57473,44.66829],[-63.57465,44.66748],[-63.57242,44.66688],[-63.56997,44.66532],[-63.56381,44.67063],[-63.56157,44.67362],[-63.55976,44.67491],[-63.55712,44.67783],[-63.55084,44.67934],[-63.54934,44.68226],[-63.54739,44.684],[-63.54704,44.68462],[-63.54733,44.6859],[-63.54599,44.69238],[-63.54731,44.69495],[-63.5478,44.70019],[-63.54916,44.7046],[-63.54946,44.70655],[-63.54737,44.71056],[-63.54706,44.71241],[-63.54551,44.71395],[-63.54551,44.71523],[-63.54503,44.71639],[-63.54546,44.71949],[-63.54282,44.72336],[-63.54176,44.72531],[-63.54166,44.72612],[-63.54211,44.72783],[-63.54289,44.72838],[-63.54761,44.72913],[-63.54879,44.72986],[-63.55029,44.73275],[-63.55023,44.73396],[-63.54925,44.73545],[-63.54939,44.73596],[-63.55226,44.73685],[-63.55376,44.7378],[-63.55802,44.7418],[-63.56147,44.74422],[-63.56333,44.74603],[-63.56409,44.74765],[-63.56542,44.74835],[-63.5665,44.74946],[-63.56713,44.75118],[-63.57053,44.75298],[-63.57145,44.7552],[-63.572,44.75595],[-63.57367,44.75696],[-63.57447,44.75901],[-63.57524,44.75992],[-63.57511,44.7612],[-63.57448,44.76228],[-63.57504,44.76448],[-63.57619,44.76621],[-63.578,44.7674],[-63.58148,44.77099],[-63.58429,44.77524],[-63.59145,44.77973],[-63.59219,44.78118],[-63.59386,44.78307],[-63.59779,44.7857],[-63.59881,44.78499],[-63.59897,44.78315],[-63.59994,44.78242]]}},{"type":"Feature","properties":{"name":"[CL NB] Kingston, ON [C2] (The Tragically Hip Way at Ontario St) to [C3] (K&P Trail at Montreal St) 003","provs":["ON"]},"geometry":{"type":"LineString","coordinates":[[-76.47891,44.23288],[-76.48045,44.23312],[-76.47989,44.23505],[-76.48119,44.23569],[-76.48126,44.23747],[-76.48095,44.23877],[-76.48146,44.23995],[-76.48055,44.24129],[-76.47956,44.24135],[-76.48001,44.2425],[-76.47973,44.24359],[-76.48004,44.24428],[-76.48347,44.24373],[-76.48497,44.24721],[-76.486,44.24817],[-76.48676,44.24832]]}},{"type":"Feature","properties":{"name":"[CL NB] Lake Country [C1] (Beaver Lake Rd) to Oyama, BC (Okanagan Rail Trail at Oyama Rd) 001","provs":["BC"]},"geometry":{"type":"LineString","coordinates":[[-119.39875,50.02015],[-119.39823,50.02171],[-119.39322,50.02929],[-119.39253,50.03095],[-119.39245,50.03286],[-119.39337,50.0433],[-119.3923,50.04829],[-119.39001,50.05111],[-119.38944,50.05262],[-119.38953,50.05404],[-119.39038,50.05606],[-119.39037,50.05707],[-119.38943,50.05862],[-119.38745,50.06046],[-119.38708,50.0612],[-119.38776,50.06726],[-119.38757,50.06822],[-119.38688,50.06963],[-119.38269,50.0731],[-119.38284,50.07505],[-119.38166,50.0774],[-119.38145,50.08003],[-119.38001,50.08573],[-119.37688,50.09009],[-119.37092,50.09584],[-119.37037,50.0978],[-119.3686,50.10049],[-119.36653,50.10504],[-119.36666,50.10572],[-119.36732,50.10637],[-119.37109,50.10792],[-119.37722,50.10942],[-119.38387,50.11034]]}},{"type":"Feature","properties":{"name":"[CL NB] Moncton, NB (Boulevard Vaughan Harvey / Vaughan Harvey Blvd) 001","provs":["NB"]},"geometry":{"type":"LineString","coordinates":[[-64.78752,46.07929],[-64.78924,46.08154],[-64.78925,46.08391],[-64.7897,46.08498]]}},{"type":"Feature","properties":{"name":"[CL NB] Montreal, QC (Montreal Wellington Bridge) 003","provs":["QC"]},"geometry":{"type":"LineString","coordinates":[[-73.55668,45.49015],[-73.55699,45.4894],[-73.55758,45.49116],[-73.55679,45.49094]]}},{"type":"Feature","properties":{"name":"[CL NB] Montreal, QC [CN] (Rue McGill at Piste Multifonctionnelle) to [CN] (Rue Saint-Antoine E at Rue Berri) 003","provs":["QC"]},"geometry":{"type":"LineString","coordinates":[[-73.55274,45.49873],[-73.56159,45.5017],[-73.55723,45.50686],[-73.55379,45.51201]]}},{"type":"Feature","properties":{"name":"[CL NB] Port Elgin, NB (Trans Canada Hwy NB) 001","provs":["NB"]},"geometry":{"type":"LineString","coordinates":[[-64.09481,46.05196],[-64.09373,46.05344],[-64.09258,46.0541],[-64.093,46.05468],[-64.09446,46.05478]]}},{"type":"Feature","properties":{"name":"[CL NB] Prince George, BC [C3] (Bear Rd at Yellowhead Highway) to [C3] (Queensway at 3rd Ave) 001","provs":["BC"]},"geometry":{"type":"LineString","coordinates":[[-122.81657,53.8581],[-122.81523,53.85789],[-122.80475,53.85959],[-122.80097,53.86092],[-122.80005,53.86187],[-122.79537,53.86408],[-122.79129,53.86449],[-122.78917,53.86296],[-122.7878,53.86393],[-122.78764,53.86474],[-122.78726,53.86502],[-122.7829,53.86498],[-122.78241,53.86549],[-122.78237,53.86633],[-122.77872,53.86652],[-122.77833,53.8673],[-122.7767,53.86826],[-122.77604,53.87011],[-122.77719,53.87161],[-122.77713,53.87228],[-122.77462,53.87191],[-122.77155,53.87234],[-122.7684,53.8738],[-122.76524,53.87172],[-122.76301,53.8727],[-122.76256,53.87333],[-122.7626,53.87401],[-122.764,53.87575],[-122.76994,53.87749],[-122.76964,53.8809],[-122.76529,53.88112],[-122.76526,53.88448],[-122.76248,53.88665],[-122.76232,53.8888],[-122.75535,53.88891],[-122.74889,53.89182],[-122.74747,53.89318],[-122.74173,53.89474],[-122.74136,53.89529],[-122.74138,53.90216],[-122.73723,53.90278],[-122.73605,53.90369],[-122.73398,53.90346],[-122.73178,53.90649],[-122.7289,53.90925],[-122.72774,53.91133],[-122.72791,53.91181],[-122.72879,53.91209],[-122.73235,53.91136],[-122.73447,53.91145],[-122.73944,53.91243],[-122.74247,53.91206],[-122.7429,53.91316],[-122.74102,53.91559]]}},{"type":"Feature","properties":{"name":"[CL NB] Sudbury (Brodie), ON (Somerset Street at Howie drive) to [C1] (Bancroft Drive at Kingsway) 003","provs":["ON"]},"geometry":{"type":"LineString","coordinates":[[-80.97179,46.48995],[-80.97181,46.49076],[-80.97058,46.49085],[-80.96957,46.49132],[-80.96335,46.49526],[-80.96115,46.49521],[-80.96004,46.49559],[-80.96068,46.49667],[-80.96316,46.49925],[-80.96503,46.50005]]}},{"type":"Feature","properties":{"name":"[CL NB] Town of Sidney, BC [C1] Lochside Trail Access from Lochside Rd 001","provs":["BC"]},"geometry":{"type":"LineString","coordinates":[[-123.40038,48.64129],[-123.4066,48.64126],[-123.40505,48.64445],[-123.40493,48.6457]]}},{"type":"Feature","properties":{"name":"[CL NB] Vancouver, BC (Beach Avenue Bike Route) 002","provs":["BC"]},"geometry":{"type":"LineString","coordinates":[[-123.14242,49.28693],[-123.14237,49.28728]]}},{"type":"Feature","properties":{"name":"[CL NB] Vancouver, BC (Stanley Park Drive) 002","provs":["BC"]},"geometry":{"type":"LineString","coordinates":[[-123.14732,49.29099],[-123.14826,49.29183],[-123.14808,49.29413],[-123.14857,49.29491],[-123.14905,49.29502],[-123.14858,49.29447]]}},{"type":"Feature","properties":{"name":"[CL NB] Vancouver, BC [CN] (Canada Line Bridge Bikeway) to [C2] (Hornby St at Dunsmuir St) via Arbutus Greenway 003","provs":["BC"]},"geometry":{"type":"LineString","coordinates":[[-123.11904,49.20574],[-123.12251,49.20504],[-123.12452,49.20718],[-123.12425,49.20751],[-123.12413,49.21064],[-123.14044,49.21089],[-123.14047,49.21053],[-123.14548,49.21061],[-123.14842,49.21644],[-123.15488,49.22727],[-123.15549,49.22894],[-123.15514,49.23469],[-123.15533,49.23838],[-123.1549,49.23992],[-123.1542,49.2405],[-123.15296,49.24083],[-123.14861,49.24049],[-123.14755,49.24099],[-123.14705,49.24171],[-123.14722,49.24367],[-123.1529,49.25133],[-123.15243,49.26288],[-123.14811,49.26278],[-123.14778,49.27157],[-123.14587,49.27155],[-123.14556,49.2723],[-123.14501,49.27231],[-123.14398,49.27312],[-123.13249,49.27679],[-123.13145,49.2762],[-123.1183,49.28489]]}},{"type":"Feature","properties":{"name":"[CL NB]\u00a0Abbotsford, BC (Sumas Way NB) 001","provs":["BC"]},"geometry":{"type":"LineString","coordinates":[[-122.26546,49.0303],[-122.26572,49.03197],[-122.26815,49.03757],[-122.2712,49.04008],[-122.27259,49.04031],[-122.27478,49.0413]]}},{"type":"Feature","properties":{"name":"[CL SB] Abbotsford, BC [C2] (Gladys Ave at George Ferguson Way) to [CL] (Highway 11 at Vye Rd) 003","provs":["BC"]},"geometry":{"type":"LineString","coordinates":[[-122.28766,49.05015],[-122.28765,49.0488],[-122.2872,49.04808],[-122.28248,49.04474],[-122.27609,49.04219],[-122.27467,49.0412],[-122.27414,49.04046],[-122.27146,49.0399],[-122.26841,49.03753],[-122.26626,49.03294],[-122.26546,49.0303],[-122.26533,49.01693]]}},{"type":"Feature","properties":{"name":"[CL SB] Cochrane, AB (West Edge Road) 003","provs":["AB"]},"geometry":{"type":"LineString","coordinates":[[-114.49339,51.19319],[-114.49535,51.1915],[-114.49488,51.19099],[-114.4949,51.19054]]}},{"type":"Feature","properties":{"name":"[CL SB] Gasp\u00e9, QC (Boulevard de Cap-Des-Rosiers) to Ch Du Cap-Bon-Ami - Forillon National Park QC 003","provs":["QC"]},"geometry":{"type":"LineString","coordinates":[[-64.20347,48.85601],[-64.2064,48.85442],[-64.20797,48.85409],[-64.20867,48.85265],[-64.21026,48.85213],[-64.21051,48.85139],[-64.21178,48.85082],[-64.21005,48.84849],[-64.21069,48.84718],[-64.21058,48.84601],[-64.21121,48.84405],[-64.21232,48.84191],[-64.21395,48.8405],[-64.21306,48.83973],[-64.21534,48.83869],[-64.22131,48.83916],[-64.22195,48.83983]]}},{"type":"Feature","properties":{"name":"[CL SB] Gasp\u00e9, QC [C3] (Rue du Quai at Mont\u00e9e de Sandy Beach) to [C3] (Route de Haldimand at Rte 132) 003","provs":["QC"]},"geometry":{"type":"LineString","coordinates":[[-64.44897,48.82149],[-64.44942,48.82261],[-64.44674,48.82264],[-64.41986,48.81957],[-64.4174,48.8188],[-64.41382,48.81598],[-64.41247,48.8154],[-64.39847,48.81129],[-64.39821,48.81092],[-64.39497,48.80941],[-64.39344,48.8077],[-64.39217,48.80766],[-64.39068,48.80706],[-64.38898,48.80499],[-64.3865,48.80304],[-64.38241,48.80188],[-64.38078,48.80093],[-64.37888,48.79916],[-64.3784,48.79739],[-64.37968,48.79578],[-64.38241,48.79473],[-64.38364,48.79387],[-64.38392,48.79423],[-64.38541,48.79347]]}},{"type":"Feature","properties":{"name":"[CL SB] New Westminster, BC (BC Parkway Ramp to Bridge) 001","provs":["BC"]},"geometry":{"type":"LineString","coordinates":[[-122.94129,49.2016],[-122.94093,49.20176]]}},{"type":"Feature","properties":{"name":"[CL SB] North York, ON (Finch and Weston SB) 001","provs":["ON"]},"geometry":{"type":"LineString","coordinates":[[-79.54226,43.75193],[-79.54228,43.75165]]}},{"type":"Feature","properties":{"name":"[CL SB] Prince George, BC (Queensway SB] 001","provs":["BC"]},"geometry":{"type":"LineString","coordinates":[[-122.74228,53.91404],[-122.74309,53.91275],[-122.74235,53.91166],[-122.74194,53.91207]]}},{"type":"Feature","properties":{"name":"[CL SB] Sudbury, ON ( Bancroft Drive SB) 001","provs":["ON"]},"geometry":{"type":"LineString","coordinates":[[-80.96503,46.50005],[-80.96471,46.49966]]}},{"type":"Feature","properties":{"name":"[CL SB] Sudbury, ON [C1] (Barry Downe Rd at Kingsway) to (Second Ave N at Bancroft Dr) 003","provs":["ON"]},"geometry":{"type":"LineString","coordinates":[[-80.9449,46.50528],[-80.94437,46.50516],[-80.94416,46.50468],[-80.94426,46.50222],[-80.93856,46.50219],[-80.93865,46.50338],[-80.93812,46.50405],[-80.93601,46.50286],[-80.93581,46.50227],[-80.93624,46.49908],[-80.93629,46.49054]]}},{"type":"Feature","properties":{"name":"[CL SB] Vancouver, BC (Burrard Street Bridge - Pacific Street Bike Route SB) 001","provs":["BC"]},"geometry":{"type":"LineString","coordinates":[[-123.13125,49.27633],[-123.13239,49.27711],[-123.14463,49.27311],[-123.14556,49.2723]]}},{"type":"Feature","properties":{"name":"[CL SB] Vancouver, BC (Cypress St at W 10th Ave) 002","provs":["BC"]},"geometry":{"type":"LineString","coordinates":[[-123.14816,49.26284],[-123.14824,49.2628]]}},{"type":"Feature","properties":{"name":"[CL SB] Vancouver, BC (Cypress St at W 5th Ave) 002","provs":["BC"]},"geometry":{"type":"LineString","coordinates":[[-123.14801,49.26725],[-123.14801,49.26715]]}},{"type":"Feature","properties":{"name":"[CL SB] Vancouver, BC (Cypress St at W 7th Ave) 002","provs":["BC"]},"geometry":{"type":"LineString","coordinates":[[-123.14808,49.26556],[-123.14809,49.26546]]}},{"type":"Feature","properties":{"name":"[CL SB] Vancouver, BC (Cypress St at W 8th Ave) 002","provs":["BC"]},"geometry":{"type":"LineString","coordinates":[[-123.14811,49.26472],[-123.14811,49.26462]]}},{"type":"Feature","properties":{"name":"[CL SB] Vancouver, BC (Cypress St at York Ave) 002","provs":["BC"]},"geometry":{"type":"LineString","coordinates":[[-123.14778,49.27157],[-123.14787,49.2707]]}},{"type":"Feature","properties":{"name":"[CL SB] Vancouver, BC (Cypress St ay W 4th Ave) 002","provs":["BC"]},"geometry":{"type":"LineString","coordinates":[[-123.14796,49.2685],[-123.14799,49.26764]]}},{"type":"Feature","properties":{"name":"[CL SB] Vancouver, BC (Cypress Street at W Broadway) 002","provs":["BC"]},"geometry":{"type":"LineString","coordinates":[[-123.14813,49.26405],[-123.14815,49.26325]]}},{"type":"Feature","properties":{"name":"[CL SB] Vancouver, BC (Cypress Street Cycleway at W 2nd Ave) 002","provs":["BC"]},"geometry":{"type":"LineString","coordinates":[[-123.14788,49.27026],[-123.14796,49.26894]]}},{"type":"Feature","properties":{"name":"[CL SB] Vancouver, BC (Hornby St) 002","provs":["BC"]},"geometry":{"type":"LineString","coordinates":[[-123.13145,49.2762],[-123.13276,49.27533]]}},{"type":"Feature","properties":{"name":"[CL SB]\u00a0Delta, BC (64 St To Highway 17) 001","provs":["BC"]},"geometry":{"type":"LineString","coordinates":[[-123.04642,49.06103],[-123.04616,49.05953]]}},{"type":"Feature","properties":{"name":"[CL SB]\u00a0New Westminster, BC (BC Parkway) 001","provs":["BC"]},"geometry":{"type":"LineString","coordinates":[[-122.95101,49.19926],[-122.9506,49.19868],[-122.94976,49.1986],[-122.94883,49.19781]]}},{"type":"Feature","properties":{"name":"[CL SB]\u00a0New Westminster, BC (Brunette Ave SB) 001","provs":["BC"]},"geometry":{"type":"LineString","coordinates":[[-122.88275,49.23137],[-122.8841,49.23017]]}},{"type":"Feature","properties":{"name":"[CL SB]\u00a0New Westminster, BC (Brunette Avenue SB) 001","provs":["BC"]},"geometry":{"type":"LineString","coordinates":[[-122.89255,49.22234],[-122.893,49.22181]]}},{"type":"Feature","properties":{"name":"[CL SB]\u00a0North York, ON (Weston Road SB) 001","provs":["ON"]},"geometry":{"type":"LineString","coordinates":[[-79.5416,43.74827],[-79.54172,43.74818]]}},{"type":"Feature","properties":{"name":"[CL WB] Abbotsford, BC (Vye Rd) 001","provs":["BC"]},"geometry":{"type":"LineString","coordinates":[[-122.26533,49.01724],[-122.26549,49.01701],[-122.26724,49.01698],[-122.27186,49.01718],[-122.27238,49.01692]]}},{"type":"Feature","properties":{"name":"[CL WB] Aldergrove, BC (8 Ave- Warner Rd WB) 001","provs":["BC"]},"geometry":{"type":"LineString","coordinates":[[-122.48516,49.01684],[-122.49259,49.01675]]}},{"type":"Feature","properties":{"name":"[CL WB] Montreal, QC [CN] (Avenue Viger at Rue Berri) to (Rue Saint-Jacques at Rue McGill) 003","provs":["QC"]},"geometry":{"type":"LineString","coordinates":[[-73.55512,45.51245],[-73.56312,45.50208],[-73.56079,45.50089],[-73.56036,45.50128]]}},{"type":"Feature","properties":{"name":"[CL WB] New Westminster, BC (BC Parkway Westbound Bridge) 001","provs":["BC"]},"geometry":{"type":"LineString","coordinates":[[-122.94093,49.20176],[-122.94059,49.20186],[-122.94174,49.20182]]}},{"type":"Feature","properties":{"name":"[CL WB] New Westminster, BC (BC Parkway Westbound) 001","provs":["BC"]},"geometry":{"type":"LineString","coordinates":[[-122.94174,49.20182],[-122.94586,49.20097],[-122.94673,49.20165],[-122.95101,49.19926]]}},{"type":"Feature","properties":{"name":"[CL WB] New Westminster, BC (Queensborough Bridge WB) 001","provs":["BC"]},"geometry":{"type":"LineString","coordinates":[[-122.94883,49.19781],[-122.94345,49.19278],[-122.94284,49.1918],[-122.94316,49.19214]]}},{"type":"Feature","properties":{"name":"[CL WB] Richmond, BC Westminister Hwy Westbound 002","provs":["BC"]},"geometry":{"type":"LineString","coordinates":[[-122.9986,49.16924],[-122.99877,49.16897]]}},{"type":"Feature","properties":{"name":"[CL WB] Scarborough, ON (McNicoll Avenue WB) 001","provs":["ON"]},"geometry":{"type":"LineString","coordinates":[[-79.24724,43.82413],[-79.24846,43.82386]]}},{"type":"Feature","properties":{"name":"[CL WB] Scarborough, ON (Morningside Ave WB) 001","provs":["ON"]},"geometry":{"type":"LineString","coordinates":[[-79.21476,43.81882],[-79.21755,43.82001],[-79.22271,43.8197],[-79.22497,43.82037],[-79.23075,43.8235],[-79.23299,43.82655],[-79.23468,43.82734],[-79.23504,43.82692]]}},{"type":"Feature","properties":{"name":"[CL WB] Sudbury, ON (Bancroft Drive WB) 001","provs":["ON"]},"geometry":{"type":"LineString","coordinates":[[-80.93563,46.49059],[-80.93697,46.49059]]}},{"type":"Feature","properties":{"name":"[CL WB] Sudbury, ON (Municipal R 2 WB] 001","provs":["ON"]},"geometry":{"type":"LineString","coordinates":[[-81.13759,46.42036],[-81.13906,46.41992],[-81.13985,46.42019]]}},{"type":"Feature","properties":{"name":"[CL WB] Sudbury, ON (Southview Drive WB) 001","provs":["ON"]},"geometry":{"type":"LineString","coordinates":[[-81.0311,46.45882],[-81.03191,46.45836]]}},{"type":"Feature","properties":{"name":"[CL WB] Vancouver, BC (Hornby Street at Seabreeze Walk) 002","provs":["BC"]},"geometry":{"type":"LineString","coordinates":[[-123.13353,49.27475],[-123.13349,49.27484]]}},{"type":"Feature","properties":{"name":"[CL WB] Vancouver, BC (Howe Street at Seabreeze Walk) 002","provs":["BC"]},"geometry":{"type":"LineString","coordinates":[[-123.13257,49.27413],[-123.13277,49.27425]]}},{"type":"Feature","properties":{"name":"[CL WB] Vancouver, BC (Seaside Bike Route at Plaza of Nations) 002","provs":["BC"]},"geometry":{"type":"LineString","coordinates":[[-123.10868,49.27593],[-123.10904,49.27526],[-123.10971,49.27506]]}},{"type":"Feature","properties":{"name":"[CL WB]\u00a0Airdrie, AB (Yankee Valley Blvd SW) WB 001","provs":["AB"]},"geometry":{"type":"LineString","coordinates":[[-114.00788,51.27093],[-114.04808,51.27112],[-114.04816,51.2709],[-114.05014,51.27085]]}},{"type":"Feature","properties":{"name":"[CL WB]\u00a0Etobicoke, ON (Arcot Boulevard WB) 001","provs":["ON"]},"geometry":{"type":"LineString","coordinates":[[-79.55193,43.72684],[-79.55206,43.72675]]}},{"type":"Feature","properties":{"name":"[CL WB]\u00a0New Westminster, BC (Boyd St Westbound) 001","provs":["BC"]},"geometry":{"type":"LineString","coordinates":[[-122.94807,49.19027],[-122.94869,49.19015]]}},{"type":"Feature","properties":{"name":"[CL WB]\u00a0New Westminster, BC (Columbia Street WB) 001","provs":["BC"]},"geometry":{"type":"LineString","coordinates":[[-122.9018,49.20653],[-122.90286,49.20589]]}},{"type":"Feature","properties":{"name":"[CL WB]\u00a0Pickering, ON (Littleford Street WB) 001","provs":["ON"]},"geometry":{"type":"LineString","coordinates":[[-79.13565,43.81564],[-79.13607,43.81559]]}},{"type":"Feature","properties":{"name":"[CL WB]\u00a0Port Coquitlam, BC (Mary Hill Bypass at Kingsway Ave) to\u00a0Coquitlam, BC [C2] (United Blvd at BC Parkway) 001","provs":["BC"]},"geometry":{"type":"LineString","coordinates":[[-122.74812,49.24641],[-122.75024,49.24612],[-122.75342,49.2451],[-122.76336,49.24011],[-122.76432,49.23913],[-122.76454,49.23745],[-122.76511,49.23669],[-122.76976,49.23446],[-122.77399,49.23114],[-122.7752,49.23059],[-122.78065,49.22958],[-122.78932,49.22704],[-122.79265,49.22689],[-122.80012,49.22786],[-122.80226,49.22787],[-122.80456,49.22748],[-122.81181,49.22533],[-122.81435,49.22571],[-122.81901,49.22829],[-122.81952,49.22829],[-122.81982,49.22773]]}},{"type":"Feature","properties":{"name":"[CL WB]\u00a0Richmond, BC (Westminster Highway WB) 001","provs":["BC"]},"geometry":{"type":"LineString","coordinates":[[-123.06932,49.16994],[-123.06935,49.17025],[-123.07341,49.17029],[-123.10287,49.17021]]}},{"type":"Feature","properties":{"name":"[CL WB]\u00a0River John, NS (Sunrise Trail at New Rd) 001","provs":["NS"]},"geometry":{"type":"LineString","coordinates":[[-63.02681,45.78895],[-63.02777,45.78891],[-63.02797,45.78828]]}},{"type":"Feature","properties":{"name":"[CL WB]\u00a0Scarborough, ON (McNicoll aned Birchmount WB) 001","provs":["ON"]},"geometry":{"type":"LineString","coordinates":[[-79.31092,43.80856],[-79.31113,43.80862]]}},{"type":"Feature","properties":{"name":"[CL WB]\u00a0Scarborough, ON (McNicoll Avenue WB) 001 001","provs":["ON"]},"geometry":{"type":"LineString","coordinates":[[-79.2425,43.82603],[-79.24384,43.82575]]}},{"type":"Feature","properties":{"name":"[CL WB]\u00a0Scarborough, ON (McNicoll Avenue WB) 002","provs":["ON"]},"geometry":{"type":"LineString","coordinates":[[-79.23867,43.82675],[-79.23991,43.82681]]}},{"type":"Feature","properties":{"name":"[CL WB]\u00a0Scarborough, ON (McNicoll Avenue WB] 001","provs":["ON"]},"geometry":{"type":"LineString","coordinates":[[-79.2619,43.82018],[-79.26221,43.81997]]}},{"type":"Feature","properties":{"name":"[CL WB]\u00a0Scarborough, ON (Sheppard Avenue East WB) 001","provs":["ON"]},"geometry":{"type":"LineString","coordinates":[[-79.17443,43.80758],[-79.17681,43.80705]]}},{"type":"Feature","properties":{"name":"[CL WB]\u00a0Surrey (Sullivan), BC (Highway 10 WB) 001","provs":["BC"]},"geometry":{"type":"LineString","coordinates":[[-122.77905,49.10453],[-122.8268,49.10463],[-122.83026,49.10517],[-122.83465,49.10539],[-122.83903,49.10771],[-122.84176,49.10826],[-122.89309,49.1084],[-122.89547,49.10753],[-122.90318,49.09972]]}},{"type":"Feature","properties":{"name":"[CL] Delta BC 64 Street at 34b Street (CN) <> 64 Street at Hwy 17 (CN) 719m 001","provs":["BC"]},"geometry":{"type":"LineString","coordinates":[[-123.0464,49.05372],[-123.04666,49.05819],[-123.04638,49.06598]]}},{"type":"Feature","properties":{"name":"[CL] New Westminster (Patullo Bridge) <> Surrey, BC 002","provs":["BC"]},"geometry":{"type":"LineString","coordinates":[[-122.90086,49.20728],[-122.90072,49.20817],[-122.89996,49.2088],[-122.8987,49.2091],[-122.88849,49.20552],[-122.88172,49.2058],[-122.88071,49.20561]]}},{"type":"Feature","properties":{"name":"[CL] Prince George, BC (Bear Rd) 001","provs":["BC"]},"geometry":{"type":"LineString","coordinates":[[-122.81581,53.85783],[-122.81598,53.8583]]}},{"type":"Feature","properties":{"name":"[CL]\u00a0Delta, BC (Ladner Trunk Road to 28 Ave WB fixed) 001","provs":["BC"]},"geometry":{"type":"LineString","coordinates":[[-123.02409,49.09006],[-123.02508,49.09007],[-123.02468,49.08852],[-123.02471,49.08578],[-123.02543,49.08445],[-123.02706,49.0835],[-123.03046,49.08293],[-123.0328,49.08204],[-123.0341,49.08122],[-123.0356,49.07941],[-123.03605,49.0775],[-123.0361,49.06444],[-123.03636,49.06329],[-123.03718,49.06201],[-123.03898,49.06066],[-123.04203,49.05972],[-123.04616,49.05953],[-123.05171,49.05991],[-123.05357,49.0596],[-123.0552,49.05869],[-123.05684,49.05695],[-123.05741,49.05376]]}}]}