{"type":"FeatureCollection","features":[{"type":"Feature","properties":{"name":"Accommodation Connector Route - Adolphustown, ON (U.E.L Heritage Center & Park) 249m"},"geometry":{"type":"LineString","coordinates":[[-77.00667,44.06366],[-77.00533,44.06205],[-77.00558,44.06173]]}},{"type":"Feature","properties":{"name":"Accommodation Connector Route - Amherst, NS (Lochlomond Tenting and Trailer Park) 479m"},"geometry":{"type":"LineString","coordinates":[[-64.19894,45.8022],[-64.19949,45.80215],[-64.20006,45.80255],[-64.20151,45.80237],[-64.20189,45.80171],[-64.20383,45.80131]]}},{"type":"Feature","properties":{"name":"Accommodation Connector Route - Antigonish, NS (Whidden Park Campground and Cottages) 193m"},"geometry":{"type":"LineString","coordinates":[[-61.99499,45.62223],[-61.99721,45.62185]]}},{"type":"Feature","properties":{"name":"Accommodation Connector Route - Arnold's Cove, NL (Jack's Pond Park) 644m"},"geometry":{"type":"LineString","coordinates":[[-53.93748,47.75725],[-53.9406,47.75727],[-53.94286,47.75695],[-53.94304,47.75561],[-53.94279,47.75485]]}},{"type":"Feature","properties":{"name":"Accommodation Connector Route - Atikokan, ON (Bunnel Park Campground) 5.0km"},"geometry":{"type":"LineString","coordinates":[[-91.59899,48.72503],[-91.59911,48.72571],[-91.6006,48.72733],[-91.60096,48.72887],[-91.59884,48.73271],[-91.59766,48.73795],[-91.59462,48.74586],[-91.59481,48.74729],[-91.59538,48.74828],[-91.59958,48.75215],[-91.5987,48.75255],[-91.59563,48.75254],[-91.59427,48.75321],[-91.59383,48.75388],[-91.59285,48.7576],[-91.59232,48.75827],[-91.59104,48.75902],[-91.59026,48.75895],[-91.58904,48.75808],[-91.58775,48.7559],[-91.58682,48.75538],[-91.58562,48.75534]]}},{"type":"Feature","properties":{"name":"Accommodation Connector Route - Atikokan, ON (Bunnel Park Campground) pt1 1.5km exit"},"geometry":{"type":"LineString","coordinates":[[-91.58562,48.75534],[-91.58368,48.75347],[-91.58299,48.75317],[-91.58284,48.75266],[-91.58369,48.75255],[-91.58401,48.75212],[-91.58473,48.75191],[-91.58893,48.75159],[-91.59623,48.75188],[-91.59668,48.752],[-91.59672,48.75243]]}},{"type":"Feature","properties":{"name":"Accommodation Connector Route - Atikokan, ON (Bunnel Park Campground) pt2 298m exit"},"geometry":{"type":"LineString","coordinates":[[-91.59585,48.72487],[-91.5978,48.72521],[-91.59936,48.72606]]}},{"type":"Feature","properties":{"name":"Accommodation Connector Route - Bamberton, BC (Bamberton Provincial Park Campground) 2.4km"},"geometry":{"type":"LineString","coordinates":[[-123.5216,48.61639],[-123.52112,48.61501],[-123.52134,48.61219],[-123.52354,48.611],[-123.52455,48.60993],[-123.52684,48.60861],[-123.5283,48.60858],[-123.53046,48.60918],[-123.53329,48.60949],[-123.53542,48.61029],[-123.53706,48.60994],[-123.53636,48.60928],[-123.5344,48.60849],[-123.5315,48.60667]]}},{"type":"Feature","properties":{"name":"Accommodation Connector Route - Bancroft, ON (River Bend Cabins Tent Trailer Park) 3.9km"},"geometry":{"type":"LineString","coordinates":[[-77.85988,45.05773],[-77.85989,45.05825],[-77.85869,45.05892],[-77.85901,45.0602],[-77.86079,45.06245],[-77.86113,45.06371],[-77.85991,45.06415],[-77.85787,45.06405],[-77.86048,45.06594],[-77.86257,45.0692],[-77.86285,45.07092],[-77.86218,45.07379],[-77.85936,45.07784],[-77.85912,45.0801],[-77.85992,45.08043],[-77.86308,45.08364],[-77.86782,45.08546]]}},{"type":"Feature","properties":{"name":"Accommodation Connector Route - Bancroft, ON (River Bend Cabins Tent Trailer Park) 961m exit"},"geometry":{"type":"LineString","coordinates":[[-77.85787,45.06405],[-77.85699,45.06311],[-77.853,45.05616]]}},{"type":"Feature","properties":{"name":"Accommodation Connector Route - Bassano, AB (Homecoming Park Tent and Trailer Park) 1.0km"},"geometry":{"type":"LineString","coordinates":[[-112.45157,50.78893],[-112.4595,50.78894],[-112.46093,50.78921],[-112.46239,50.78617]]}},{"type":"Feature","properties":{"name":"Accommodation Connector Route - Bassano, AB (Homecoming Park Tent and Trailer Park) 839km exit"},"geometry":{"type":"LineString","coordinates":[[-112.46239,50.78617],[-112.45233,50.78426],[-112.45096,50.78444]]}},{"type":"Feature","properties":{"name":"Accommodation Connector Route - Bathurst, NB (Bathurst Marina Inc. Campground) 4.8km"},"geometry":{"type":"LineString","coordinates":[[-65.67861,47.65021],[-65.67007,47.65049],[-65.65698,47.65195],[-65.65588,47.65246],[-65.64993,47.65708],[-65.63548,47.66355],[-65.63284,47.66429],[-65.62488,47.6587],[-65.62464,47.65886]]}},{"type":"Feature","properties":{"name":"Accommodation Connector Route - Black River Bridge, NB (Camping Miramichi) 1.3km"},"geometry":{"type":"LineString","coordinates":[[-65.32946,46.96895],[-65.32697,46.97424],[-65.31975,46.97768]]}},{"type":"Feature","properties":{"name":"Accommodation Connector Route - Blairemore, AB (Lost Lemon Campground) 1.4km"},"geometry":{"type":"LineString","coordinates":[[-114.46431,49.6217],[-114.46465,49.6213],[-114.46458,49.62084],[-114.45939,49.61302],[-114.46038,49.61256],[-114.4609,49.61347],[-114.46242,49.61365]]}},{"type":"Feature","properties":{"name":"Accommodation Connector Route - Blairemore, AB (Lost Lemon Campground) 2.5km exit"},"geometry":{"type":"LineString","coordinates":[[-114.45939,49.61302],[-114.45863,49.61234],[-114.4569,49.61166],[-114.44295,49.60833],[-114.42851,49.60648],[-114.42697,49.60721]]}},{"type":"Feature","properties":{"name":"Accommodation Connector Route - Boston Bar, BC (Canyon Alpine RV Park and Campground) 42m"},"geometry":{"type":"LineString","coordinates":[[-121.44592,49.91326],[-121.44546,49.91327]]}},{"type":"Feature","properties":{"name":"Accommodation Connector Route - Bow Island, AB (Bow Island Centennial Park & Campground) 599m"},"geometry":{"type":"LineString","coordinates":[[-111.37938,49.86738],[-111.37938,49.86303],[-111.38081,49.86329]]}},{"type":"Feature","properties":{"name":"Accommodation Connector Route - Brampton, ON (Indian Line Campground) 139m"},"geometry":{"type":"LineString","coordinates":[[-79.63051,43.73606],[-79.63208,43.73572]]}},{"type":"Feature","properties":{"name":"Accommodation Connector Route - Brandon, MB (Meadowlark Campground) 1.5km exit"},"geometry":{"type":"LineString","coordinates":[[-99.95573,49.88714],[-99.94025,49.88714],[-99.93959,49.88744],[-99.9396,49.88832],[-99.93905,49.88831],[-99.93913,49.88681]]}},{"type":"Feature","properties":{"name":"Accommodation Connector Route - Brandon, MB (Meadowlark Campground) 611m"},"geometry":{"type":"LineString","coordinates":[[-99.96188,49.88679],[-99.96189,49.88727],[-99.95573,49.88714],[-99.95576,49.88817]]}},{"type":"Feature","properties":{"name":"Accommodation Connector Route - Brockville, ON (St. Lawrence Park) 53m"},"geometry":{"type":"LineString","coordinates":[[-75.70191,44.57793],[-75.70147,44.57757]]}},{"type":"Feature","properties":{"name":"Accommodation Connector Route - Burns Lake, BC (Burns Lake Municipal Campground) 45m exit"},"geometry":{"type":"LineString","coordinates":[[-125.75433,54.22468],[-125.75364,54.2247]]}},{"type":"Feature","properties":{"name":"Accommodation Connector Route - Burns Lake, BC (Burns Lake Municipal Campground) 764m"},"geometry":{"type":"LineString","coordinates":[[-125.75454,54.22502],[-125.75433,54.22468],[-125.75604,54.22402],[-125.76111,54.2241],[-125.76263,54.22347],[-125.76212,54.22326],[-125.76292,54.22257]]}},{"type":"Feature","properties":{"name":"Accommodation Connector Route - Cache Creek, BC (Brookside Campside) 40m exit"},"geometry":{"type":"LineString","coordinates":[[-121.30703,50.80954],[-121.30661,50.80974]]}},{"type":"Feature","properties":{"name":"Accommodation Connector Route - Cache Creek, BC (Brookside Campside) 43m"},"geometry":{"type":"LineString","coordinates":[[-121.30707,50.80946],[-121.30707,50.80981]]}},{"type":"Feature","properties":{"name":"Accommodation Connector Route - Campbell River, BC (Elk Falls Provincial Park - Quinsam Campground) 1.8km"},"geometry":{"type":"LineString","coordinates":[[-125.27304,50.03312],[-125.2762,50.03371],[-125.27838,50.03448],[-125.28161,50.03476],[-125.28536,50.03664],[-125.28892,50.0376],[-125.29127,50.03768],[-125.29571,50.03709],[-125.29547,50.03638]]}},{"type":"Feature","properties":{"name":"Accommodation Connector Route - Canmore, AB (Wapiti Campground) 124m"},"geometry":{"type":"LineString","coordinates":[[-115.36447,51.10434],[-115.36417,51.10412],[-115.36466,51.10349]]}},{"type":"Feature","properties":{"name":"Accommodation Connector Route - Cape Ray, NL (J.T. Cheeseman Provincial Park) 2.4km"},"geometry":{"type":"LineString","coordinates":[[-59.23456,47.62889],[-59.23576,47.62858],[-59.23957,47.62554],[-59.24207,47.62525],[-59.24539,47.62704],[-59.24809,47.63088],[-59.24956,47.63212],[-59.25286,47.63252],[-59.25429,47.63329],[-59.25662,47.63173]]}},{"type":"Feature","properties":{"name":"Accommodation Connector Route - Cape Ray, NL (J.T. Cheeseman Provincial Park) 2.4km exit"},"geometry":{"type":"LineString","coordinates":[[-59.23506,47.62893],[-59.23458,47.6291]]}},{"type":"Feature","properties":{"name":"Accommodation Connector Route - Carters Point, NB (Hardings Point Campground) pt1 246m"},"geometry":{"type":"LineString","coordinates":[[-66.22513,45.34682],[-66.22479,45.34793],[-66.22382,45.34869]]}},{"type":"Feature","properties":{"name":"Accommodation Connector Route - Carters Point, NB (Hardings Point Campground) pt3 108m"},"geometry":{"type":"LineString","coordinates":[[-66.21839,45.35171],[-66.21729,45.35195]]}},{"type":"Feature","properties":{"name":"Accommodation Connector Route - Castlegar, BC (Pass Creek Regional Park Campground) 381m exit"},"geometry":{"type":"LineString","coordinates":[[-117.66237,49.33516],[-117.65764,49.33399]]}},{"type":"Feature","properties":{"name":"Accommodation Connector Route - Castlegar, BC (Pass Creek Regional Park Campground) 696m"},"geometry":{"type":"LineString","coordinates":[[-117.66116,49.33386],[-117.66192,49.33485],[-117.66335,49.33522],[-117.66237,49.33516],[-117.66166,49.33741],[-117.66199,49.33835]]}},{"type":"Feature","properties":{"name":"Accommodation Connector Route - Causapscal, QC (Camping Causapscal chez Moose) 233m"},"geometry":{"type":"LineString","coordinates":[[-67.24012,48.37214],[-67.23879,48.37335],[-67.23803,48.37353]]}},{"type":"Feature","properties":{"name":"Accommodation Connector Route - Chaplin, SK (Chaplin Village Campground) 748m"},"geometry":{"type":"LineString","coordinates":[[-106.65757,50.45592],[-106.65755,50.45939],[-106.66176,50.45937],[-106.66173,50.45881]]}},{"type":"Feature","properties":{"name":"Accommodation Connector Route - Charlottetown, PE (HI Charlottetown Backpackers Inn) 175m"},"geometry":{"type":"LineString","coordinates":[[-63.1235,46.23732],[-63.12198,46.23616]]}},{"type":"Feature","properties":{"name":"Accommodation Connector Route - Charlottetown, PE (HI Charlottetown Backpackers Inn) 353m exit"},"geometry":{"type":"LineString","coordinates":[[-63.12198,46.23616],[-63.12029,46.23487],[-63.11873,46.23581]]}},{"type":"Feature","properties":{"name":"Accommodation Connector Route - Chilliwack, BC (Vedder River Campground) 53m exit"},"geometry":{"type":"LineString","coordinates":[[-122.00701,49.09697],[-122.00684,49.09661]]}},{"type":"Feature","properties":{"name":"Accommodation Connector Route - Chilliwack, BC (Vedder River Campground) 820m"},"geometry":{"type":"LineString","coordinates":[[-122.00685,49.08968],[-122.00701,49.09697]]}},{"type":"Feature","properties":{"name":"Accommodation Connector Route - Christina Lake, BC (Christina Pines Campground) 654m"},"geometry":{"type":"LineString","coordinates":[[-118.20859,49.0397],[-118.21347,49.03967],[-118.21335,49.03701]]}},{"type":"Feature","properties":{"name":"Accommodation Connector Route - Cobourg, ON (Victoria Park Campground) 28m"},"geometry":{"type":"LineString","coordinates":[[-78.16459,43.95785],[-78.16424,43.95788]]}},{"type":"Feature","properties":{"name":"Accommodation Connector Route - Corner Brook, NL (Kinsmen Prince Edward Campground and RV Park) 1.7km"},"geometry":{"type":"LineString","coordinates":[[-57.88902,48.95292],[-57.88689,48.9541],[-57.88674,48.95453],[-57.89088,48.95728],[-57.89186,48.95827],[-57.89275,48.95987],[-57.89356,48.96361],[-57.89401,48.96368],[-57.89576,48.96544]]}},{"type":"Feature","properties":{"name":"Accommodation Connector Route - Creston, BC (Pair-a-Dice RV Park & Campground) 93m"},"geometry":{"type":"LineString","coordinates":[[-116.52352,49.11129],[-116.52224,49.11129]]}},{"type":"Feature","properties":{"name":"Accommodation Connector Route - Deer Lake, NL (Gateway to the North RV Park) 1.6km"},"geometry":{"type":"LineString","coordinates":[[-57.42601,49.18987],[-57.42395,49.19091],[-57.42281,49.19066],[-57.42224,49.18987],[-57.42274,49.1888],[-57.42421,49.1889],[-57.4346,49.19449]]}},{"type":"Feature","properties":{"name":"Accommodation Connector Route - Deer Lake, NL (Gateway to the North RV Park) 622km exit"},"geometry":{"type":"LineString","coordinates":[[-57.42421,49.1889],[-57.42319,49.18832],[-57.42233,49.18904],[-57.42196,49.18984],[-57.42207,49.19149],[-57.42082,49.19242]]}},{"type":"Feature","properties":{"name":"Accommodation Connector Route - Digby, NS (Digby Campground And Fun Park) 291m"},"geometry":{"type":"LineString","coordinates":[[-65.76672,44.63026],[-65.76817,44.62852],[-65.76738,44.62837]]}},{"type":"Feature","properties":{"name":"Accommodation Connector Route - Dryden, ON (Northwestern Tent and Trailer Park) 100m"},"geometry":{"type":"LineString","coordinates":[[-92.81953,49.78613],[-92.81931,49.78701]]}},{"type":"Feature","properties":{"name":"Accommodation Connector Route - East Hawkesbury, ON (Champlain Campground) 3.1km"},"geometry":{"type":"LineString","coordinates":[[-74.45225,45.55038],[-74.45072,45.55395],[-74.45085,45.55588],[-74.45201,45.55805],[-74.45117,45.55837],[-74.44933,45.55822],[-74.44874,45.55772],[-74.44832,45.55647],[-74.44771,45.55603],[-74.44649,45.55587],[-74.44443,45.55614],[-74.44222,45.55467],[-74.4411,45.55479],[-74.4405,45.55583],[-74.43998,45.55608],[-74.43777,45.55558],[-74.43458,45.5571],[-74.43291,45.55734],[-74.43003,45.55584]]}},{"type":"Feature","properties":{"name":"Accommodation Connector Route - Edmundston, NB (Camping de la republique) 48m"},"geometry":{"type":"LineString","coordinates":[[-68.39579,47.44014],[-68.3957,47.44057]]}},{"type":"Feature","properties":{"name":"Accommodation Connector Route - Englishtown, NS (Cabot Shores Wildern. Resort and RC--Cape Breton Isl) 98m"},"geometry":{"type":"LineString","coordinates":[[-60.52973,46.3729],[-60.52894,46.37222]]}},{"type":"Feature","properties":{"name":"Accommodation Connector Route - Falmouth, NS (Avon River Motel) 92m"},"geometry":{"type":"LineString","coordinates":[[-64.14808,44.99378],[-64.14869,44.99307]]}},{"type":"Feature","properties":{"name":"Accommodation Connector Route - Fernie, BC (The Raging Elk Hostel) 88m"},"geometry":{"type":"LineString","coordinates":[[-115.06279,49.50825],[-115.0638,49.50868]]}},{"type":"Feature","properties":{"name":"Accommodation Connector Route - Foam Lake, SK (Foam Lake Campground) 174m"},"geometry":{"type":"LineString","coordinates":[[-103.53938,51.63754],[-103.53713,51.63735]]}},{"type":"Feature","properties":{"name":"Accommodation Connector Route - Foam Lake, SK (Foam Lake Campground) 24m exit"},"geometry":{"type":"LineString","coordinates":[[-103.53713,51.63735],[-103.53689,51.63751]]}},{"type":"Feature","properties":{"name":"Accommodation Connector Route - Fort Frances, ON (Point Park Tenting Area) 588m exit"},"geometry":{"type":"LineString","coordinates":[[-93.35881,48.61776],[-93.36076,48.62059],[-93.36404,48.62061]]}},{"type":"Feature","properties":{"name":"Accommodation Connector Route - Fort Frances, ON (Point Park Tenting Area) 752m"},"geometry":{"type":"LineString","coordinates":[[-93.36622,48.61557],[-93.36459,48.61685],[-93.36274,48.61701],[-93.36056,48.61661],[-93.35881,48.61776],[-93.35795,48.61761]]}},{"type":"Feature","properties":{"name":"Accommodation Connector Route - Fraser-Fort George F, BC (Purden Lake Resort) 19m"},"geometry":{"type":"LineString","coordinates":[[-121.90853,53.90604],[-121.90859,53.90587]]}},{"type":"Feature","properties":{"name":"Accommodation Connector Route - Gander, NL (Country Inn Motel and RV Park) 3.7km"},"geometry":{"type":"LineString","coordinates":[[-54.63359,48.95942],[-54.63338,48.95989],[-54.6338,48.96134],[-54.63364,48.96276],[-54.62993,48.96761],[-54.62739,48.96894],[-54.62262,48.9698],[-54.62004,48.97092],[-54.60702,48.98342],[-54.60603,48.98468],[-54.60641,48.98481]]}},{"type":"Feature","properties":{"name":"Accommodation Connector Route - Garden River, ON (Bell's Point Beach Campground) 460m"},"geometry":{"type":"LineString","coordinates":[[-84.22118,46.54497],[-84.21932,46.54107]]}},{"type":"Feature","properties":{"name":"Accommodation Connector Route - Gasp\u00e9, QC (Cap Aventure) 129m"},"geometry":{"type":"LineString","coordinates":[[-64.30963,48.82836],[-64.30998,48.82723]]}},{"type":"Feature","properties":{"name":"Accommodation Connector Route - Goulas River, ON (Harmony Beach Resort) 1.1km"},"geometry":{"type":"LineString","coordinates":[[-84.37305,46.85492],[-84.37376,46.85441],[-84.37345,46.85346],[-84.37137,46.85213],[-84.37102,46.8515],[-84.37256,46.84635]]}},{"type":"Feature","properties":{"name":"Accommodation Connector Route - Goulas River, ON (Harmony Beach Resort) 581m exit"},"geometry":{"type":"LineString","coordinates":[[-84.37256,46.84635],[-84.37322,46.84365],[-84.37559,46.84221],[-84.37553,46.84194]]}},{"type":"Feature","properties":{"name":"Accommodation Connector Route - Grand Falls, NB (Camping Chutes and Gorge) 563m"},"geometry":{"type":"LineString","coordinates":[[-67.73793,47.04915],[-67.73597,47.04743],[-67.73586,47.04697],[-67.73426,47.04591],[-67.73326,47.0464]]}},{"type":"Feature","properties":{"name":"Accommodation Connector Route - Grand Falls-Windsor, NL (Beothuck Family Park) 3.0km"},"geometry":{"type":"LineString","coordinates":[[-55.68947,48.94488],[-55.68381,48.94522],[-55.67928,48.94511],[-55.68025,48.94685],[-55.68079,48.94683],[-55.68544,48.94642],[-55.68916,48.9453],[-55.70616,48.94316],[-55.70658,48.94342]]}},{"type":"Feature","properties":{"name":"Accommodation Connector Route - Grand Falls-Windsor, NL (Beothuck Family Park) 301m exit"},"geometry":{"type":"LineString","coordinates":[[-55.67928,48.94511],[-55.6752,48.94532]]}},{"type":"Feature","properties":{"name":"Accommodation Connector Route - Grenfell, SK (Grenfell Recreational Park Campground) 1.2km"},"geometry":{"type":"LineString","coordinates":[[-102.94624,50.40813],[-102.94574,50.40878],[-102.94566,50.41129],[-102.93879,50.41134],[-102.93872,50.41411]]}},{"type":"Feature","properties":{"name":"Accommodation Connector Route - Grenfell, SK (Grenfell Recreational Park Campground) 2.0km exit"},"geometry":{"type":"LineString","coordinates":[[-102.93879,50.41134],[-102.92261,50.41137],[-102.92262,50.40361]]}},{"type":"Feature","properties":{"name":"Accommodation Connector Route - Grenville-sur-la-Rouge, QC (Halte-Camping Chute des Sept-Soeurs) 100m"},"geometry":{"type":"LineString","coordinates":[[-74.6889,45.64369],[-74.68907,45.64456]]}},{"type":"Feature","properties":{"name":"Accommodation Connector Route - Griffith, ON (Camel Chute Campground) 9.0km"},"geometry":{"type":"LineString","coordinates":[[-77.17869,45.24213],[-77.17261,45.23774],[-77.16878,45.23325],[-77.16514,45.22387],[-77.1642,45.21791],[-77.16288,45.21372],[-77.16129,45.21],[-77.16014,45.20826],[-77.16078,45.20427],[-77.15946,45.20187],[-77.15393,45.19798],[-77.15236,45.1972],[-77.14857,45.19753],[-77.14539,45.19724],[-77.13911,45.19522],[-77.1341,45.19293],[-77.12488,45.19193],[-77.12179,45.18998],[-77.11496,45.1888],[-77.11551,45.19004]]}},{"type":"Feature","properties":{"name":"Accommodation Connector Route - Gull Lake, SK (Gull Lake Campground) 919m"},"geometry":{"type":"LineString","coordinates":[[-108.48386,50.10149],[-108.48345,50.10052],[-108.48328,50.09814],[-108.47727,50.09812],[-108.47679,50.09785],[-108.47687,50.09727]]}},{"type":"Feature","properties":{"name":"Accommodation Connector Route - Halifax, NS (Halifax International Hostel) 184m"},"geometry":{"type":"LineString","coordinates":[[-63.57003,44.64207],[-63.57133,44.64176],[-63.57102,44.64112]]}},{"type":"Feature","properties":{"name":"Accommodation Connector Route - Halifax, NS (Halifax International Hostel) 284m exit"},"geometry":{"type":"LineString","coordinates":[[-63.57102,44.64112],[-63.57043,44.64001],[-63.5691,44.64035],[-63.56922,44.64069]]}},{"type":"Feature","properties":{"name":"Accommodation Connector Route - Hanna, AB (Fox Lake Park & Playground) 4.5km"},"geometry":{"type":"LineString","coordinates":[[-111.94208,51.63421],[-111.94208,51.64894],[-111.95864,51.64899],[-111.96104,51.64958],[-111.96396,51.64899],[-111.97848,51.64889],[-111.97869,51.65095],[-111.97934,51.65165]]}},{"type":"Feature","properties":{"name":"Accommodation Connector Route - Houston, BC (Shady Rest RV Park) 243m"},"geometry":{"type":"LineString","coordinates":[[-126.63735,54.41382],[-126.63679,54.41376],[-126.63491,54.41521]]}},{"type":"Feature","properties":{"name":"Accommodation Connector Route - Ignace, ON (Davy Lake Campground) 100m"},"geometry":{"type":"LineString","coordinates":[[-91.65431,49.40919],[-91.65428,49.41008]]}},{"type":"Feature","properties":{"name":"Accommodation Connector Route - Ignace, ON (Davy Lake Campground) 222m exit"},"geometry":{"type":"LineString","coordinates":[[-91.65238,49.41007],[-91.65268,49.4092],[-91.65431,49.40919]]}},{"type":"Feature","properties":{"name":"Accommodation Connector Route - Indian Head, SK (Indian Head Campground) 557m"},"geometry":{"type":"LineString","coordinates":[[-103.65577,50.52548],[-103.65577,50.53048]]}},{"type":"Feature","properties":{"name":"Accommodation Connector Route - Inverness, NS (MacLeod's Beach Campsite) 399m"},"geometry":{"type":"LineString","coordinates":[[-61.29941,46.23961],[-61.30072,46.24009],[-61.30022,46.24193],[-61.29965,46.24238]]}},{"type":"Feature","properties":{"name":"Accommodation Connector Route - Irricana, AB (Irricana Campground) 161m"},"geometry":{"type":"LineString","coordinates":[[-113.60588,51.3245],[-113.60569,51.32345],[-113.60589,51.32309]]}},{"type":"Feature","properties":{"name":"Accommodation Connector Route - Jasper National Park, AB (Waterfowl Lakes Campground) 109m"},"geometry":{"type":"LineString","coordinates":[[-116.6201,51.84386],[-116.62046,51.84362],[-116.62017,51.84318],[-116.62038,51.84306]]}},{"type":"Feature","properties":{"name":"Accommodation Connector Route - Jasper, AB (Whistlers Camgground) 221m"},"geometry":{"type":"LineString","coordinates":[[-118.06976,52.8411],[-118.07169,52.84122],[-118.07278,52.8408]]}},{"type":"Feature","properties":{"name":"Accommodation Connector Route - John's, NL (HI-St.John's City Hostel) 78m"},"geometry":{"type":"LineString","coordinates":[[-52.70232,47.57065],[-52.70172,47.57122]]}},{"type":"Feature","properties":{"name":"Accommodation Connector Route - Kamloops, BC (Silver Sage Rv Park & Campgrounds) 2.2km"},"geometry":{"type":"LineString","coordinates":[[-120.31558,50.67535],[-120.32308,50.67794],[-120.32499,50.67824],[-120.32484,50.68166],[-120.32433,50.68265],[-120.31818,50.68189],[-120.31891,50.68057],[-120.31829,50.67983],[-120.31463,50.67862]]}},{"type":"Feature","properties":{"name":"Accommodation Connector Route - Kashabowie, ON (Kashabowie River Resort) 1.3km"},"geometry":{"type":"LineString","coordinates":[[-90.41733,48.64582],[-90.41634,48.64652],[-90.41678,48.6472],[-90.41561,48.64767],[-90.41518,48.64828],[-90.41496,48.64966],[-90.41318,48.65034],[-90.41131,48.65161],[-90.41046,48.65351],[-90.412,48.65507]]}},{"type":"Feature","properties":{"name":"Accommodation Connector Route - Kenora, ON (Anicinabe RV Park and Campground) 1.0km"},"geometry":{"type":"LineString","coordinates":[[-94.47183,49.75992],[-94.47119,49.75984],[-94.47091,49.75942],[-94.47167,49.75769],[-94.47636,49.7557],[-94.47944,49.75341]]}},{"type":"Feature","properties":{"name":"Accommodation Connector Route - Kenora, ON (Anicinabe RV Park and Campground) 51km exit"},"geometry":{"type":"LineString","coordinates":[[-94.47091,49.75942],[-94.4709,49.75988]]}},{"type":"Feature","properties":{"name":"Accommodation Connector Route - Keremeos, BC (Eagle RV Park and Campground) 77m"},"geometry":{"type":"LineString","coordinates":[[-119.85971,49.20437],[-119.86076,49.20434]]}},{"type":"Feature","properties":{"name":"Accommodation Connector Route - Kindersly, SK (Kindersly Regional Park Campground) 1.7km"},"geometry":{"type":"LineString","coordinates":[[-109.14479,51.4749],[-109.14484,51.46029],[-109.1444,51.46027]]}},{"type":"Feature","properties":{"name":"Accommodation Connector Route - Kitwanga, BC (Cassiar Mountain Rv Park) 4.7km"},"geometry":{"type":"LineString","coordinates":[[-128.07667,55.09588],[-128.07488,55.10022],[-128.07257,55.10411],[-128.07109,55.10619],[-128.06895,55.10751],[-128.06571,55.10819],[-128.06295,55.10799],[-128.05717,55.10644],[-128.05369,55.10401],[-128.05204,55.10324],[-128.05008,55.1028],[-128.047,55.10283],[-128.03291,55.1078],[-128.03291,55.1137]]}},{"type":"Feature","properties":{"name":"Accommodation Connector Route - Kitwanga, BC (Kitwanga Municipal Campground) 922m - alternate CG"},"geometry":{"type":"LineString","coordinates":[[-128.03291,55.1078],[-128.02947,55.10809],[-128.02912,55.10853],[-128.02684,55.10952],[-128.02245,55.11283]]}},{"type":"Feature","properties":{"name":"Accommodation Connector Route - Lake Louise, AB (Lake Louise Campground) 1.5km"},"geometry":{"type":"LineString","coordinates":[[-116.17519,51.4262],[-116.17578,51.42573],[-116.1783,51.42494],[-116.17954,51.42325],[-116.17758,51.42238],[-116.17422,51.41954],[-116.17321,51.41723],[-116.17567,51.41688]]}},{"type":"Feature","properties":{"name":"Accommodation Connector Route - Lake Louise, AB (Lake Louise Campground) 151m exit pt1"},"geometry":{"type":"LineString","coordinates":[[-116.17324,51.41729],[-116.1738,51.41859]]}},{"type":"Feature","properties":{"name":"Accommodation Connector Route - Lake Louise, AB (Lake Louise Campground) 15m exit pt2"},"geometry":{"type":"LineString","coordinates":[[-116.17578,51.42573],[-116.17507,51.42586]]}},{"type":"Feature","properties":{"name":"Accommodation Connector Route - Lake Superior PP (Wawa), ON (Agawa Bay Campground) 143m"},"geometry":{"type":"LineString","coordinates":[[-84.61493,47.33175],[-84.6132,47.33147]]}},{"type":"Feature","properties":{"name":"Accommodation Connector Route - Lancaster, ON (Lancaster Park Outdoor Resort) 165m"},"geometry":{"type":"LineString","coordinates":[[-74.46932,45.1505],[-74.47048,45.15173]]}},{"type":"Feature","properties":{"name":"Accommodation Connector Route - Lanigan, SK (Lanigan Campground) 1.6km"},"geometry":{"type":"LineString","coordinates":[[-105.03389,51.8453],[-105.03116,51.85081],[-105.01902,51.85077],[-105.01783,51.85106],[-105.0185,51.85155]]}},{"type":"Feature","properties":{"name":"Accommodation Connector Route - Lanigan, SK (Lanigan Campground) 649km exit"},"geometry":{"type":"LineString","coordinates":[[-105.03116,51.85081],[-105.03404,51.84533]]}},{"type":"Feature","properties":{"name":"Accommodation Connector Route - Lethbridge, AB (Bridgeview RV Resort) 1.6km"},"geometry":{"type":"LineString","coordinates":[[-112.87364,49.71039],[-112.87021,49.708],[-112.87054,49.70723],[-112.87263,49.70604],[-112.87227,49.70581],[-112.87186,49.70639],[-112.86947,49.70788],[-112.86877,49.70895],[-112.86871,49.70957],[-112.86915,49.70999],[-112.87099,49.70998],[-112.87088,49.71029],[-112.87009,49.71051],[-112.8704,49.71104]]}},{"type":"Feature","properties":{"name":"Accommodation Connector Route - Lethbridge, AB (Bridgeview RV Resort) 454m exit pt2"},"geometry":{"type":"LineString","coordinates":[[-112.8712,49.70674],[-112.86837,49.70789],[-112.86544,49.70774]]}},{"type":"Feature","properties":{"name":"Accommodation Connector Route - Lethbridge, AB (Bridgeview RV Resort) 525m exit pt1"},"geometry":{"type":"LineString","coordinates":[[-112.87099,49.70998],[-112.86923,49.70994],[-112.86885,49.70912],[-112.86962,49.70783],[-112.87093,49.70697]]}},{"type":"Feature","properties":{"name":"Accommodation Connector Route - Lindsay, ON (Riverwood Park Campground) 1.4km"},"geometry":{"type":"LineString","coordinates":[[-78.72314,44.32938],[-78.72121,44.32507],[-78.72392,44.32447],[-78.72347,44.32339],[-78.72814,44.32246],[-78.72832,44.32228],[-78.72793,44.32141],[-78.72838,44.3212]]}},{"type":"Feature","properties":{"name":"Accommodation Connector Route - Lindsay, ON (Riverwood Park Campground) 171m exit"},"geometry":{"type":"LineString","coordinates":[[-78.7227,44.32842],[-78.72269,44.32917],[-78.72182,44.32963]]}},{"type":"Feature","properties":{"name":"Accommodation Connector Route - Mallorytown, NL (Newman Sound) 2.3km"},"geometry":{"type":"LineString","coordinates":[[-53.97927,48.55143],[-53.9766,48.55106],[-53.97438,48.55154],[-53.97227,48.55139],[-53.97154,48.55182],[-53.97173,48.55298],[-53.9709,48.55314],[-53.96814,48.55198],[-53.96802,48.55155],[-53.96848,48.55103],[-53.97136,48.55014],[-53.97201,48.5497],[-53.97272,48.54858],[-53.97491,48.54726],[-53.97582,48.54607],[-53.97591,48.5453],[-53.97443,48.54386]]}},{"type":"Feature","properties":{"name":"Accommodation Connector Route - Mallorytown, NL (Newman Sound) 66m exit"},"geometry":{"type":"LineString","coordinates":[[-53.97939,48.55106],[-53.97862,48.55133]]}},{"type":"Feature","properties":{"name":"Accommodation Connector Route - Manning Park, BC (Mule Deer Campground) 67m"},"geometry":{"type":"LineString","coordinates":[[-120.68185,49.08989],[-120.68233,49.09041]]}},{"type":"Feature","properties":{"name":"Accommodation Connector Route - Maple Creek, SK (Eagle Valley Park Campground) 197m"},"geometry":{"type":"LineString","coordinates":[[-109.5316,49.97476],[-109.5316,49.97653]]}},{"type":"Feature","properties":{"name":"Accommodation Connector Route - Marathon, ON (Penn Lake Park And Campground) 222m exit"},"geometry":{"type":"LineString","coordinates":[[-86.33998,48.74757],[-86.33863,48.74764],[-86.3374,48.74692]]}},{"type":"Feature","properties":{"name":"Accommodation Connector Route - Marathon, ON (Penn Lake Park And Campground) 5.7km"},"geometry":{"type":"LineString","coordinates":[[-86.33872,48.748],[-86.34284,48.74659],[-86.34643,48.74494],[-86.35875,48.73584],[-86.37264,48.73255],[-86.37517,48.7308],[-86.37749,48.72599],[-86.37511,48.72608],[-86.3706,48.72242],[-86.36734,48.72245],[-86.3662,48.7221],[-86.36488,48.71694],[-86.36401,48.71656],[-86.36299,48.71696]]}},{"type":"Feature","properties":{"name":"Accommodation Connector Route - Matane, QC (The camping Matane River) 2.3km"},"geometry":{"type":"LineString","coordinates":[[-67.54585,48.83362],[-67.54619,48.83245],[-67.54494,48.83075],[-67.53863,48.82615],[-67.53854,48.82573],[-67.53896,48.82528],[-67.53756,48.8229],[-67.53791,48.8221],[-67.53878,48.82154],[-67.54126,48.82186],[-67.54192,48.82164],[-67.54317,48.81952],[-67.54282,48.81901],[-67.54199,48.81874]]}},{"type":"Feature","properties":{"name":"Accommodation Connector Route - Midway, BC (Frank Carpenter Memorial Campground) 775m"},"geometry":{"type":"LineString","coordinates":[[-118.77613,49.01062],[-118.77607,49.00576],[-118.77924,49.00602]]}},{"type":"Feature","properties":{"name":"CA Mission, BC (Lougheed Highway at Nelson St) to Sun Valley Trout Park in 833 metres - Approved Accommodation #7 "},"geometry":{"type":"LineString","coordinates":[[-122.36006,49.13974],[-122.35997,49.14088],[-122.35929,49.14129],[-122.35704,49.14005],[-122.35537,49.14063],[-122.35542,49.14238],[-122.35461,49.14289]]}},{"type":"Feature","properties":{"name":"Accommodation Connector Route - Montreal, QC (Hi-Montr\u00e9al Youth Hostel) 102m"},"geometry":{"type":"LineString","coordinates":[[-73.57425,45.49449],[-73.57315,45.49399]]}},{"type":"Feature","properties":{"name":"Accommodation Connector Route - Montreal, QC (Hi-Montr\u00e9al Youth Hostel) 276m exit"},"geometry":{"type":"LineString","coordinates":[[-73.57315,45.49399],[-73.5719,45.49515],[-73.57309,45.49573]]}},{"type":"Feature","properties":{"name":"Accommodation Connector Route - Moose Jaw, SK (Prairie Oasis Tourist Complex) 1.6km"},"geometry":{"type":"LineString","coordinates":[[-105.51959,50.41987],[-105.51989,50.41934],[-105.51553,50.41826],[-105.51253,50.41688],[-105.51177,50.41572],[-105.51174,50.41195],[-105.50972,50.41193],[-105.5097,50.41126],[-105.50843,50.40963]]}},{"type":"Feature","properties":{"name":"Accommodation Connector Route - Moose Jaw, SK (Prairie Oasis Tourist Complex) 245m exit"},"geometry":{"type":"LineString","coordinates":[[-105.50972,50.41193],[-105.50777,50.41201],[-105.50645,50.41245]]}},{"type":"Feature","properties":{"name":"Accommodation Connector Route - Mount Robson, BC (Robson Meadows Campground) 412m"},"geometry":{"type":"LineString","coordinates":[[-119.23231,53.03392],[-119.23133,53.03364],[-119.23181,53.03214],[-119.23411,53.03183]]}},{"type":"Feature","properties":{"name":"Accommodation Connector Route - Mount Robson, BC (Robson Meadows Campground) 89m exit"},"geometry":{"type":"LineString","coordinates":[[-119.23133,53.03364],[-119.23034,53.03413]]}},{"type":"Feature","properties":{"name":"Accommodation Connector Route - Nanamio, BC (Jingle Pot RV Park and Campground) 425m"},"geometry":{"type":"LineString","coordinates":[[-124.03513,49.20616],[-124.0356,49.20483],[-124.03337,49.20493],[-124.03244,49.20432]]}},{"type":"Feature","properties":{"name":"Accommodation Connector Route - Neepawa, MB (Lions Riverbend Campground) 1.1km"},"geometry":{"type":"LineString","coordinates":[[-99.46656,50.22624],[-99.46645,50.22849],[-99.45467,50.22845]]}},{"type":"Feature","properties":{"name":"Accommodation Connector Route - Neepawa, MB (Lions Riverbend Campground) 250m exit"},"geometry":{"type":"LineString","coordinates":[[-99.45479,50.2262],[-99.45467,50.22845]]}},{"type":"Feature","properties":{"name":"Accommodation Connector Route - Nestor Falls, ON (Caliper Lake Provincial Park Campground) 1.6km"},"geometry":{"type":"LineString","coordinates":[[-93.91325,49.05829],[-93.91054,49.06031],[-93.91026,49.06114],[-93.91063,49.0619],[-93.91263,49.06339],[-93.91268,49.06405],[-93.91223,49.06493],[-93.90966,49.0666],[-93.90405,49.06904]]}},{"type":"Feature","properties":{"name":"Accommodation Connector Route - Nipigon, ON (Nipigon Marina Campground) 3.1km"},"geometry":{"type":"LineString","coordinates":[[-88.28352,49.02043],[-88.27224,49.01546],[-88.26839,49.01284],[-88.2655,49.01269],[-88.26402,49.01313],[-88.26302,49.01464],[-88.26198,49.01427],[-88.26321,49.01251],[-88.26129,49.01235],[-88.25849,49.0108],[-88.2576,49.00996],[-88.25728,49.0081],[-88.2563,49.00752]]}},{"type":"Feature","properties":{"name":"Accommodation Connector Route - Nipigon, ON (Nipigon Marina Campground) 751m exit"},"geometry":{"type":"LineString","coordinates":[[-88.2627,49.01459],[-88.26288,49.01473],[-88.26169,49.01538],[-88.25621,49.01796],[-88.25553,49.01895]]}},{"type":"Feature","properties":{"name":"Accommodation Connector Route - North Bay, ON (Champlain Tent Trailer and RV Park) 3.2km"},"geometry":{"type":"LineString","coordinates":[[-79.4117,46.25875],[-79.41424,46.25817],[-79.41657,46.25829],[-79.42077,46.25764],[-79.42961,46.25934],[-79.42892,46.25812],[-79.42707,46.25693],[-79.42576,46.25526],[-79.4223,46.24442]]}},{"type":"Feature","properties":{"name":"Accommodation Connector Route - North Bay, ON (Fairview Park Camping & Marina) 1.0km"},"geometry":{"type":"LineString","coordinates":[[-79.39619,46.25395],[-79.40059,46.25301],[-79.40068,46.25249],[-79.40431,46.25158],[-79.40595,46.25422]]}},{"type":"Feature","properties":{"name":"Accommodation Connector Route - North Bay, ON (Holiday Inn Express Hotel & Suites) 229m"},"geometry":{"type":"LineString","coordinates":[[-79.4388,46.30958],[-79.43896,46.30777],[-79.43869,46.30775]]}},{"type":"Feature","properties":{"name":"Accommodation Connector Route - North Bay, ON (Holiday Inn Express Hotel & Suites) 57m"},"geometry":{"type":"LineString","coordinates":[[-79.43825,46.30942],[-79.4387,46.30902]]}},{"type":"Feature","properties":{"name":"Accommodation Connector Route - North Bay, ON (Holiday Inn Express Hotel & Suites) 74m exit"},"geometry":{"type":"LineString","coordinates":[[-79.4387,46.30902],[-79.4378,46.30902]]}},{"type":"Feature","properties":{"name":"Accommodation Connector Route - Orangeville, ON (Orangeville Motel) 141m exit pt1"},"geometry":{"type":"LineString","coordinates":[[-80.10084,43.93473],[-80.10051,43.93354]]}},{"type":"Feature","properties":{"name":"Accommodation Connector Route - Orangeville, ON (Orangeville Motel) 2.3km"},"geometry":{"type":"LineString","coordinates":[[-80.11705,43.92581],[-80.11436,43.92654],[-80.11084,43.92927],[-80.10953,43.9299],[-80.10752,43.93013],[-80.10376,43.92982],[-80.10028,43.93086],[-80.10088,43.93302],[-80.10003,43.93397],[-80.10113,43.93511],[-80.1019,43.9368]]}},{"type":"Feature","properties":{"name":"Accommodation Connector Route - Orangeville, ON (Orangeville Motel) 66m exit pt2"},"geometry":{"type":"LineString","coordinates":[[-80.10047,43.93139],[-80.1004,43.93081]]}},{"type":"Feature","properties":{"name":"Accommodation Connector Route - Orangeville, ON (Orangeville Motel) 75m exit pt3"},"geometry":{"type":"LineString","coordinates":[[-80.11707,43.92589],[-80.11615,43.92598]]}},{"type":"Feature","properties":{"name":"Accommodation Connector Route - Orillia, ON (Hammock Harbour) 487km"},"geometry":{"type":"LineString","coordinates":[[-79.36188,44.60841],[-79.36053,44.61018],[-79.35741,44.61089]]}},{"type":"Feature","properties":{"name":"Accommodation Connector Route - Osoyoos, BC (Nk'mip Campgrounds) 1.4km"},"geometry":{"type":"LineString","coordinates":[[-119.43681,49.02793],[-119.43667,49.02863],[-119.4352,49.02996],[-119.43658,49.03551],[-119.4379,49.03796],[-119.43886,49.03782],[-119.44007,49.03831]]}},{"type":"Feature","properties":{"name":"Accommodation Connector Route - Oyen, AB (Saokii Campground) 527m"},"geometry":{"type":"LineString","coordinates":[[-110.47953,51.38706],[-110.47953,51.38757],[-110.48504,51.3876],[-110.48512,51.38838]]}},{"type":"Feature","properties":{"name":"Accommodation Connector Route - Pabos, QC (Camping la Seigneurie) 1.3km"},"geometry":{"type":"LineString","coordinates":[[-64.60883,48.36156],[-64.61502,48.3712],[-64.61717,48.37078]]}},{"type":"Feature","properties":{"name":"Accommodation Connector Route - Pacific Rim National Park - Long Beach Unit, BC (Green Point Campground) 256m"},"geometry":{"type":"LineString","coordinates":[[-125.71835,49.05692],[-125.71899,49.05631],[-125.71906,49.05476]]}},{"type":"Feature","properties":{"name":"Accommodation Connector Route - Pembroke, ON (Riversidee Park Campground) 321m"},"geometry":{"type":"LineString","coordinates":[[-77.13686,45.82845],[-77.13624,45.82886],[-77.13511,45.82896],[-77.13493,45.8297],[-77.13427,45.83012]]}},{"type":"Feature","properties":{"name":"Accommodation Connector Route - Penticton, BC (Hi Penticton) 2.5km"},"geometry":{"type":"LineString","coordinates":[[-119.61719,49.49598],[-119.61425,49.49527],[-119.61309,49.49598],[-119.59439,49.50008],[-119.59274,49.49689],[-119.59046,49.49733],[-119.58975,49.49597]]}},{"type":"Feature","properties":{"name":"Accommodation Connector Route - Penticton, BC (Hi Penticton) 2.5km exit"},"geometry":{"type":"LineString","coordinates":[[-119.61362,49.49585],[-119.61508,49.49544]]}},{"type":"Feature","properties":{"name":"Accommodation Connector Route - Pictou, NS (Birchwood Campground and Cabins) 107m"},"geometry":{"type":"LineString","coordinates":[[-62.77897,45.67104],[-62.77966,45.67187]]}},{"type":"Feature","properties":{"name":"Accommodation Connector Route - Pierreville, QC (Camping \u00cele du fort) 11.3km exit"},"geometry":{"type":"LineString","coordinates":[[-72.86519,46.0931],[-72.86895,46.09475],[-72.87937,46.10414],[-72.87708,46.10836],[-72.87678,46.10978],[-72.87283,46.11059],[-72.87,46.1105],[-72.8685,46.1099],[-72.86754,46.10872],[-72.86179,46.11281],[-72.8509,46.11603],[-72.84352,46.11745],[-72.83035,46.11754],[-72.8279,46.11671],[-72.8255,46.11537],[-72.81919,46.11418],[-72.8155,46.11191],[-72.81353,46.11142],[-72.80966,46.11107],[-72.80327,46.11165],[-72.79704,46.11127],[-72.79151,46.11028],[-72.78512,46.11271],[-72.78334,46.11274],[-72.77637,46.11143],[-72.77142,46.1124],[-72.77007,46.11224]]}},{"type":"Feature","properties":{"name":"Accommodation Connector Route - Pierreville, QC (Camping \u00cele du fort) 5.4km"},"geometry":{"type":"LineString","coordinates":[[-72.8144,46.06914],[-72.81774,46.07116],[-72.82163,46.07201],[-72.82456,46.07434],[-72.82785,46.07808],[-72.83185,46.07936],[-72.83361,46.08139],[-72.83935,46.08047],[-72.84248,46.07833],[-72.84399,46.07835],[-72.8535,46.08456],[-72.85602,46.08774],[-72.85863,46.09011],[-72.8615,46.09172],[-72.86519,46.0931]]}},{"type":"Feature","properties":{"name":"Accommodation Connector Route - Pincher Creek, AB (Sleepy Hollow Campground) 323m exit pt2"},"geometry":{"type":"LineString","coordinates":[[-113.94808,49.52037],[-113.94771,49.52137],[-113.94506,49.52082]]}},{"type":"Feature","properties":{"name":"Accommodation Connector Route - Pincher Creek, AB (Sleepy Hollow Campground) 391m exit pt1"},"geometry":{"type":"LineString","coordinates":[[-113.94326,49.49534],[-113.94758,49.49567],[-113.94804,49.49625]]}},{"type":"Feature","properties":{"name":"Accommodation Connector Route - Pincher Creek, AB (Sleepy Hollow Campground) 4.2km"},"geometry":{"type":"LineString","coordinates":[[-113.95093,49.52218],[-113.94814,49.52141],[-113.94802,49.49864],[-113.94804,49.49625],[-113.94831,49.49557],[-113.93891,49.49491],[-113.93718,49.49399],[-113.93658,49.49318],[-113.93647,49.49215],[-113.93592,49.49214]]}},{"type":"Feature","properties":{"name":"Accommodation Connector Route - Pleasant Bay, NS (MacIntosh Brook Campground - Cape Breton Highlands NP) 21m"},"geometry":{"type":"LineString","coordinates":[[-60.76821,46.81277],[-60.76812,46.81259]]}},{"type":"Feature","properties":{"name":"Accommodation Connector Route - Pointe-\u00e0-la-Croix, QC (Camping Green Park house Gasp\u00e9sien) 422m"},"geometry":{"type":"LineString","coordinates":[[-66.69771,48.03756],[-66.69908,48.03908],[-66.69656,48.04016]]}},{"type":"Feature","properties":{"name":"Accommodation Connector Route - Port Alberni, BC (Sproat Lake Provincial Park Campground) 270m"},"geometry":{"type":"LineString","coordinates":[[-124.93317,49.29506],[-124.93317,49.29469],[-124.92979,49.29567],[-124.92857,49.29437],[-124.92669,49.29337],[-124.92663,49.29286]]}},{"type":"Feature","properties":{"name":"Accommodation Connector Route - Port Hardy, BC (Wildwoods Campground) 571m"},"geometry":{"type":"LineString","coordinates":[[-127.47062,50.70832],[-127.47468,50.7091],[-127.47577,50.71001],[-127.47666,50.7103],[-127.47693,50.70977]]}},{"type":"Feature","properties":{"name":"Accommodation Connector Route - Port McNeil, BC (Broughton Strait Campsite) 3.2km"},"geometry":{"type":"LineString","coordinates":[[-127.06722,50.57149],[-127.06796,50.57163],[-127.06833,50.57207],[-127.06956,50.57855],[-127.07095,50.58018],[-127.08313,50.58482],[-127.0842,50.58551],[-127.0876,50.58926],[-127.09198,50.58814],[-127.09228,50.58707],[-127.09132,50.58605]]}},{"type":"Feature","properties":{"name":"Accommodation Connector Route - Port McNeil, BC (Broughton Strait Campsite) 94m exit"},"geometry":{"type":"LineString","coordinates":[[-127.06833,50.57207],[-127.06847,50.57166],[-127.06906,50.57152]]}},{"type":"Feature","properties":{"name":"Accommodation Connector Route - Portage La Prairie, MB (Portage Industrial Exhibition Campground) 2.5km"},"geometry":{"type":"LineString","coordinates":[[-98.31331,49.97182],[-98.31249,49.96957],[-98.30843,49.97032],[-98.29825,49.97028],[-98.29366,49.96957],[-98.29053,49.96872],[-98.29243,49.96668],[-98.29744,49.96777]]}},{"type":"Feature","properties":{"name":"Accommodation Connector Route - Portage La Prairie, MB (Portage Industrial Exhibition Campground)478km exit"},"geometry":{"type":"LineString","coordinates":[[-98.29053,49.96872],[-98.28994,49.973]]}},{"type":"Feature","properties":{"name":"Accommodation Connector Route - Portneuf, QC (Panoramique Camping VR et chalets Parkbridge) 513m"},"geometry":{"type":"LineString","coordinates":[[-71.89761,46.68391],[-71.90186,46.68712],[-71.90221,46.687]]}},{"type":"Feature","properties":{"name":"Accommodation Connector Route - Qu\u00e9bec, QC (Auberge internationale de Qu\u00e9bec) 1.3km"},"geometry":{"type":"LineString","coordinates":[[-71.20301,46.81119],[-71.20313,46.81202],[-71.20212,46.81243],[-71.20257,46.81368],[-71.20308,46.81359],[-71.20318,46.8139],[-71.20352,46.81299],[-71.20501,46.81374],[-71.20535,46.81298],[-71.20923,46.81313],[-71.21111,46.81207]]}},{"type":"Feature","properties":{"name":"Accommodation Connector Route - Qu\u00e9bec, QC (Auberge internationale de Qu\u00e9bec) 246m exit pt2"},"geometry":{"type":"LineString","coordinates":[[-71.20342,46.81331],[-71.20301,46.81338],[-71.20287,46.81302],[-71.20285,46.8122],[-71.20324,46.81207],[-71.20317,46.81167]]}},{"type":"Feature","properties":{"name":"Accommodation Connector Route - Qu\u00e9bec, QC (Auberge internationale de Qu\u00e9bec) 792m exit pt1"},"geometry":{"type":"LineString","coordinates":[[-71.21111,46.81207],[-71.21234,46.81308],[-71.20927,46.81464],[-71.20703,46.81408],[-71.20681,46.81365],[-71.20531,46.81349]]}},{"type":"Feature","properties":{"name":"Accommodation Connector Route - Revelstoke, BC (Canyon Hot Springs) 266m"},"geometry":{"type":"LineString","coordinates":[[-117.85527,51.13979],[-117.85494,51.13869],[-117.8557,51.13752]]}},{"type":"Feature","properties":{"name":"Accommodation Connector Route - Richer, MB (Wild Oaks Campground) 1.8km"},"geometry":{"type":"LineString","coordinates":[[-96.4568,49.66293],[-96.45685,49.67499],[-96.45994,49.67504],[-96.45937,49.67675]]}},{"type":"Feature","properties":{"name":"Accommodation Connector Route - Rivi\u00e8re-du-Loup, QC (Auberge internationale de Rivi\u00e8re-du-Loup) 158m"},"geometry":{"type":"LineString","coordinates":[[-69.53564,47.83686],[-69.53716,47.83586]]}},{"type":"Feature","properties":{"name":"Accommodation Connector Route - Robinson's junction, NL (Mid-Way Motel) 164m"},"geometry":{"type":"LineString","coordinates":[[-58.70944,48.24375],[-58.70908,48.24238]]}},{"type":"Feature","properties":{"name":"Accommodation Connector Route - Rosetown, SK (Prairie View Park Mobile Home and Campground) 54m"},"geometry":{"type":"LineString","coordinates":[[-107.98184,51.56162],[-107.98182,51.5621]]}},{"type":"Feature","properties":{"name":"Accommodation Connector Route - Saint-Jean-Port-Joli, QC (Camping Au Bonnet Rouge) 108m"},"geometry":{"type":"LineString","coordinates":[[-70.26516,47.21793],[-70.26443,47.21711]]}},{"type":"Feature","properties":{"name":"Accommodation Connector Route - Sainte-Anne-des-Monts, QC (Camping Ancre Jaune) 86m"},"geometry":{"type":"LineString","coordinates":[[-66.51044,49.12352],[-66.51062,49.12399],[-66.51106,49.12402]]}},{"type":"Feature","properties":{"name":"Accommodation Connector Route - Salmon Arm, BC (Pierre's Point Campground) 460m"},"geometry":{"type":"LineString","coordinates":[[-119.32014,50.73701],[-119.31612,50.73859],[-119.31691,50.73961]]}},{"type":"Feature","properties":{"name":"Accommodation Connector Route - Saskatoon, SK (Gordon Howe Park) 1.2km"},"geometry":{"type":"LineString","coordinates":[[-106.68387,52.11085],[-106.69407,52.11091],[-106.6938,52.1077],[-106.69237,52.10672]]}},{"type":"Feature","properties":{"name":"Accommodation Connector Route - Sayabec, QC (Auberge Camping du Lac Malcom) 3.5km"},"geometry":{"type":"LineString","coordinates":[[-67.75566,48.56309],[-67.75281,48.57344],[-67.75308,48.57449],[-67.7522,48.57569],[-67.75193,48.57674],[-67.7525,48.5779],[-67.75406,48.57902],[-67.75549,48.58159],[-67.7545,48.5871],[-67.75539,48.58731],[-67.75935,48.58998],[-67.76013,48.59166],[-67.75987,48.5922]]}},{"type":"Feature","properties":{"name":"Accommodation Connector Route - Sayward, BC (Sayward Fisherboy RV Park Motel and Resort) 588m"},"geometry":{"type":"LineString","coordinates":[[-125.91853,50.31171],[-125.91907,50.31216],[-125.92127,50.31608],[-125.92044,50.31623]]}},{"type":"Feature","properties":{"name":"Accommodation Connector Route - Sayward, BC (Sayward Fisherboy RV Park Motel and Resort) 588m exit"},"geometry":{"type":"LineString","coordinates":[[-125.91907,50.31216],[-125.91955,50.31193]]}},{"type":"Feature","properties":{"name":"Accommodation Connector Route - Shoal Lake, MB (Lakeview Park Campground) 1.8km"},"geometry":{"type":"LineString","coordinates":[[-100.58199,50.44215],[-100.58323,50.44117],[-100.58335,50.43926],[-100.5843,50.43754],[-100.5907,50.4381],[-100.59066,50.43352],[-100.59391,50.43354]]}},{"type":"Feature","properties":{"name":"Accommodation Connector Route - Shoal Lake, MB (Lakeview Park Campground) 133m exit"},"geometry":{"type":"LineString","coordinates":[[-100.58257,50.4418],[-100.58201,50.44187],[-100.58097,50.44138]]}},{"type":"Feature","properties":{"name":"Accommodation Connector Route - Sh\u00e9diac, NB (South Cove Camping and Golf) 156m"},"geometry":{"type":"LineString","coordinates":[[-64.51966,46.22296],[-64.52051,46.22424]]}},{"type":"Feature","properties":{"name":"Accommodation Connector Route - Sidney, MB (Shady Oaks RV Resort and Campground) 365m"},"geometry":{"type":"LineString","coordinates":[[-99.06429,49.90148],[-99.06428,49.90105],[-99.06057,49.90163],[-99.0601,49.90145]]}},{"type":"Feature","properties":{"name":"Accommodation Connector Route - Sioux Narrows, ON (Sioux Narrows Provincial Park Campground) 1.0km"},"geometry":{"type":"LineString","coordinates":[[-94.04763,49.4293],[-94.04714,49.42756],[-94.04741,49.42662],[-94.05066,49.42446],[-94.05183,49.42442],[-94.05243,49.42408],[-94.05353,49.42329],[-94.05402,49.42253]]}},{"type":"Feature","properties":{"name":"Accommodation Connector Route - Sioux Narrows, ON (Sioux Narrows Provincial Park Campground) 47m exit"},"geometry":{"type":"LineString","coordinates":[[-94.04988,49.42507],[-94.04944,49.42535]]}},{"type":"Feature","properties":{"name":"Accommodation Connector Route - Smithers, BC (Riverside Municipal Campground) 454m"},"geometry":{"type":"LineString","coordinates":[[-127.14676,54.78076],[-127.14684,54.78265],[-127.14836,54.78375],[-127.14882,54.78447]]}},{"type":"Feature","properties":{"name":"Accommodation Connector Route - South Baymouth, ON (South Bay Resort and Campground) 132m"},"geometry":{"type":"LineString","coordinates":[[-82.01245,45.5686],[-82.01136,45.56947]]}},{"type":"Feature","properties":{"name":"Accommodation Connector Route - Spences Bridge, BC (Acacia Grove RV Park and Cabins) 88m"},"geometry":{"type":"LineString","coordinates":[[-121.33407,50.42561],[-121.33396,50.42532],[-121.33456,50.425]]}},{"type":"Feature","properties":{"name":"Accommodation Connector Route - Spragge, ON (Serpent River Campground) 56m"},"geometry":{"type":"LineString","coordinates":[[-82.60141,46.21128],[-82.60121,46.21082]]}},{"type":"Feature","properties":{"name":"Accommodation Connector Route - Stonecliffe, ON (Driftwood Provincial Park - West River Campground) 2.2km"},"geometry":{"type":"LineString","coordinates":[[-77.84247,46.17932],[-77.84223,46.17981],[-77.84222,46.18988],[-77.84367,46.1904],[-77.84743,46.19045],[-77.84852,46.1897],[-77.84942,46.18952],[-77.85081,46.18993],[-77.8511,46.1906],[-77.85347,46.18934]]}},{"type":"Feature","properties":{"name":"Accommodation Connector Route - Strathmore, AB (Strathmore Recreation Campground) 168km exit"},"geometry":{"type":"LineString","coordinates":[[-113.4003,51.03924],[-113.40024,51.03773]]}},{"type":"Feature","properties":{"name":"Accommodation Connector Route - Strathmore, AB (Strathmore Recreation Campground) 3.1km"},"geometry":{"type":"LineString","coordinates":[[-113.40037,51.03773],[-113.40027,51.06172],[-113.39609,51.06169],[-113.39575,51.06121],[-113.3951,51.06116]]}},{"type":"Feature","properties":{"name":"Accommodation Connector Route - Swift Current, SK (Ponderosa Campground) 352m"},"geometry":{"type":"LineString","coordinates":[[-107.76434,50.30934],[-107.76403,50.30907],[-107.76631,50.30825],[-107.76613,50.30785],[-107.76715,50.30777]]}},{"type":"Feature","properties":{"name":"Accommodation Connector Route - Terrace Bay, ON (Norwood Motel) 122m"},"geometry":{"type":"LineString","coordinates":[[-87.10203,48.78164],[-87.10214,48.78194],[-87.10098,48.78212]]}},{"type":"Feature","properties":{"name":"Accommodation Connector Route - Terrace Bay, ON (Norwood Motel) 49m exit"},"geometry":{"type":"LineString","coordinates":[[-87.10098,48.78212],[-87.10058,48.78176]]}},{"type":"Feature","properties":{"name":"Accommodation Connector Route - Terrace, BC (Ferry Island Campground) 404m"},"geometry":{"type":"LineString","coordinates":[[-128.57049,54.51193],[-128.5731,54.50865]]}},{"type":"Feature","properties":{"name":"Accommodation Connector Route - Thessalon, ON (Thessalon Lakeside Park Campground) 1.2km"},"geometry":{"type":"LineString","coordinates":[[-83.5761,46.26907],[-83.57151,46.26449],[-83.56642,46.26072],[-83.56638,46.26095]]}},{"type":"Feature","properties":{"name":"Accommodation Connector Route - Thessalon, ON (Thessalon Lakeside Park Campground) 2.4km exit"},"geometry":{"type":"LineString","coordinates":[[-83.56642,46.26072],[-83.56511,46.25959],[-83.56474,46.25788],[-83.56428,46.25733],[-83.56048,46.2571],[-83.55695,46.25639],[-83.55552,46.25979],[-83.55317,46.2616],[-83.55055,46.26423],[-83.54911,46.26436],[-83.54797,46.26511],[-83.54621,46.26543]]}},{"type":"Feature","properties":{"name":"Accommodation Connector Route - Tilly, AB (Tillebrook Provincial Park - Campground C) 564m"},"geometry":{"type":"LineString","coordinates":[[-111.80392,50.54057],[-111.80968,50.53709]]}},{"type":"Feature","properties":{"name":"Accommodation Connector Route - to Gushue's Pond Park 1.8km"},"geometry":{"type":"LineString","coordinates":[[-53.3031,47.4081],[-53.30058,47.40758],[-53.29777,47.40645],[-53.29858,47.40546],[-53.29687,47.4047],[-53.29575,47.40425],[-53.29297,47.40406],[-53.29137,47.40355],[-53.28672,47.40136],[-53.28643,47.40089],[-53.28803,47.39982]]}},{"type":"Feature","properties":{"name":"Accommodation Connector Route - to Moosomin Lake Park, SK"},"geometry":{"type":"LineString","coordinates":[[-101.65999,50.14973],[-101.67552,50.13671],[-101.67673,50.13474],[-101.6767,50.10804],[-101.74517,50.10786],[-101.74534,50.07116],[-101.72351,50.07116],[-101.72253,50.07206],[-101.72225,50.07826],[-101.72127,50.07853],[-101.71041,50.07821]]}},{"type":"Feature","properties":{"name":"Accommodation Connector Route - Tofino, BC (Whalers On the Point Guesthouse) 199m"},"geometry":{"type":"LineString","coordinates":[[-125.91114,49.15304],[-125.91122,49.15342],[-125.91064,49.15382],[-125.90957,49.15407]]}},{"type":"Feature","properties":{"name":"Accommodation Connector Route - Trois-Rivi\u00e8res, QC (Auberge Internationale de Trois-Rivi\u00e8res) 146m exit"},"geometry":{"type":"LineString","coordinates":[[-72.54163,46.34376],[-72.5406,46.34483]]}},{"type":"Feature","properties":{"name":"Accommodation Connector Route - Trois-Rivi\u00e8res, QC (Auberge Internationale de Trois-Rivi\u00e8res) 362m exit"},"geometry":{"type":"LineString","coordinates":[[-72.54461,46.34366],[-72.5458,46.34382],[-72.5454,46.34464],[-72.54326,46.34413]]}},{"type":"Feature","properties":{"name":"Accommodation Connector Route - Trois-Rivi\u00e8res, QC (Auberge Internationale de Trois-Rivi\u00e8res) 462m"},"geometry":{"type":"LineString","coordinates":[[-72.53968,46.34301],[-72.54326,46.34413],[-72.54358,46.34348],[-72.54461,46.34366]]}},{"type":"Feature","properties":{"name":"Accommodation Connector Route - T\u00e9miscouata-sur-le-Lac, QC (T\u00e9milac Inc) 975m"},"geometry":{"type":"LineString","coordinates":[[-68.88688,47.68473],[-68.8878,47.68557],[-68.88707,47.68652],[-68.88592,47.68686],[-68.88087,47.6871],[-68.87874,47.68613],[-68.87835,47.68584],[-68.87861,47.68568]]}},{"type":"Feature","properties":{"name":"Accommodation Connector Route - T\u00e9miscouata-sur-le-Lac, QC (T\u00e9milac Inc) 975m exit"},"geometry":{"type":"LineString","coordinates":[[-68.87835,47.68584],[-68.8775,47.68522],[-68.87597,47.68489],[-68.87807,47.68385]]}},{"type":"Feature","properties":{"name":"Accommodation Connector Route - Upper Kingsclear, NB (Woolastook Park) 196m exit"},"geometry":{"type":"LineString","coordinates":[[-66.91523,45.87192],[-66.91449,45.87292],[-66.91363,45.8729]]}},{"type":"Feature","properties":{"name":"Accommodation Connector Route - Upper Kingsclear, NB (Woolastook Park) 616m"},"geometry":{"type":"LineString","coordinates":[[-66.91363,45.8729],[-66.91296,45.87249],[-66.91358,45.87136],[-66.91657,45.87246],[-66.91701,45.87303],[-66.91678,45.87364]]}},{"type":"Feature","properties":{"name":"Accommodation Connector Route - Upsula, ON (CAN-OP/G and G Service Upsala Campground) 118m"},"geometry":{"type":"LineString","coordinates":[[-90.47049,49.04347],[-90.46932,49.0442]]}},{"type":"Feature","properties":{"name":"Accommodation Connector Route - Vancouver, BC (YWCA Hotel / Residence) 228m"},"geometry":{"type":"LineString","coordinates":[[-123.11053,49.27993],[-123.11275,49.27847]]}},{"type":"Feature","properties":{"name":"Accommodation Connector Route - Vanderhoof, BC (Riverside Campground) 1.2km"},"geometry":{"type":"LineString","coordinates":[[-124.00911,54.01391],[-124.00917,54.02364],[-124.01013,54.02401],[-124.01007,54.02463]]}},{"type":"Feature","properties":{"name":"Accommodation Connector Route - Vanderhoof, BC (Riverside Campground) 971m exit"},"geometry":{"type":"LineString","coordinates":[[-124.00916,54.02262],[-124.00925,54.01391]]}},{"type":"Feature","properties":{"name":"Accommodation Connector Route - Vermillion Bay, ON (Crystal Lake Campground) 1.1km"},"geometry":{"type":"LineString","coordinates":[[-93.46006,49.83898],[-93.45968,49.83722],[-93.45974,49.83153],[-93.45862,49.83057],[-93.45672,49.82978]]}},{"type":"Feature","properties":{"name":"Accommodation Connector Route - Victoria, BC (HI Victoria) 61m"},"geometry":{"type":"LineString","coordinates":[[-123.37039,48.42692],[-123.36964,48.42686]]}},{"type":"Feature","properties":{"name":"Accommodation Connector Route - Victoria, BC (Ocean Island Backpackers Inn) 622m"},"geometry":{"type":"LineString","coordinates":[[-123.36976,48.42855],[-123.36661,48.42854],[-123.36167,48.42771]]}},{"type":"Feature","properties":{"name":"Accommodation Connector Route - Virden, MB (Virden Lions Park Campground) 1.3km"},"geometry":{"type":"LineString","coordinates":[[-100.93337,49.85247],[-100.9235,49.8425]]}},{"type":"Feature","properties":{"name":"Accommodation Connector Route - Virden, MB (Virden Lions Park Campground) 1.7km exit"},"geometry":{"type":"LineString","coordinates":[[-100.9235,49.8425],[-100.91861,49.84248],[-100.9172,49.84208],[-100.91058,49.84146],[-100.90547,49.84207],[-100.90175,49.84378],[-100.90048,49.84338]]}},{"type":"Feature","properties":{"name":"Accommodation Connector Route - Wawa, ON (Wawa Motor Inn) 1.8km"},"geometry":{"type":"LineString","coordinates":[[-84.78453,47.97082],[-84.78391,47.97083],[-84.78273,47.973],[-84.78247,47.97629],[-84.78066,47.98096],[-84.77996,47.98595]]}},{"type":"Feature","properties":{"name":"Accommodation Connector Route - West Nipissing, ON (Cache Bay Trailer Park) 2.3km"},"geometry":{"type":"LineString","coordinates":[[-79.97324,46.37796],[-79.97423,46.37751],[-79.97678,46.3784],[-79.9797,46.37847],[-79.98605,46.37251],[-79.98697,46.37089],[-79.98821,46.37115],[-79.98863,46.37037],[-79.98733,46.36918],[-79.98395,46.36903],[-79.98375,46.36888],[-79.984,46.36847]]}},{"type":"Feature","properties":{"name":"Accommodation Connector Route - West Nipissing, ON (Cache Bay Trailer Park) 204m exit"},"geometry":{"type":"LineString","coordinates":[[-79.97385,46.37754],[-79.9731,46.37769],[-79.97143,46.37713]]}},{"type":"Feature","properties":{"name":"Accommodation Connector Route - Whitefish, ON (Centennial Park)  333m"},"geometry":{"type":"LineString","coordinates":[[-81.28078,46.38949],[-81.28237,46.39051],[-81.28325,46.39184]]}},{"type":"Feature","properties":{"name":"Accommodation Connector Route - Whiteshell, MB (Falcon Lake Beach Campground) 1.2km"},"geometry":{"type":"LineString","coordinates":[[-95.33179,49.69068],[-95.33117,49.69052],[-95.33051,49.68968],[-95.32636,49.6884],[-95.32543,49.68539],[-95.32746,49.68485],[-95.32701,49.68326]]}},{"type":"Feature","properties":{"name":"Accommodation Connector Route - Whiteshell, MB (Falcon Lake Beach Campground) 170m exit"},"geometry":{"type":"LineString","coordinates":[[-95.33051,49.68968],[-95.33096,49.69067],[-95.33051,49.69103]]}},{"type":"Feature","properties":{"name":"Accommodation Connector Route - Whitewood, SK (Whitewood Campground) 2.3km exit"},"geometry":{"type":"LineString","coordinates":[[-102.26632,50.33634],[-102.2556,50.33047],[-102.2513,50.32913],[-102.24487,50.32788],[-102.24069,50.33065]]}},{"type":"Feature","properties":{"name":"Accommodation Connector Route - Whitewood, SK (Whitewood Campground) 822m"},"geometry":{"type":"LineString","coordinates":[[-102.27364,50.33793],[-102.26952,50.33753],[-102.26632,50.33634],[-102.26669,50.33572],[-102.26671,50.3348],[-102.26791,50.33482]]}},{"type":"Feature","properties":{"name":"Accommodation Connector Route - Whycocomagh, NS (Whycocomagh Provincial Park) 476m exit"},"geometry":{"type":"LineString","coordinates":[[-61.10465,45.96658],[-61.10207,45.96272]]}},{"type":"Feature","properties":{"name":"Accommodation Connector Route - Whycocomagh, NS (Whycocomagh Provincial Park) 725m"},"geometry":{"type":"LineString","coordinates":[[-61.10992,45.96809],[-61.10577,45.96729],[-61.10465,45.96658],[-61.10258,45.96722],[-61.10184,45.96787]]}},{"type":"Feature","properties":{"name":"Accommodation Connector Route - Woodstock, NB (Connell Park Campground) 917m"},"geometry":{"type":"LineString","coordinates":[[-67.57485,46.16405],[-67.58182,46.16277],[-67.58217,46.16323],[-67.5836,46.16324],[-67.58569,46.16395]]}},{"type":"Feature","properties":{"name":"Accommodation Connector Route - Woss, BC (Woss Lake Recreation Site) 4.9km"},"geometry":{"type":"LineString","coordinates":[[-126.59498,50.21594],[-126.59537,50.21496],[-126.59526,50.21208],[-126.59737,50.21029],[-126.5994,50.20974],[-126.60297,50.21057],[-126.60366,50.21142],[-126.60396,50.21136],[-126.60267,50.20881],[-126.60422,50.20706],[-126.60591,50.20628],[-126.60852,50.20638],[-126.61184,50.20592],[-126.61476,50.20445],[-126.61501,50.20384],[-126.61476,50.20258],[-126.61506,50.20198],[-126.61644,50.2008],[-126.61927,50.19708],[-126.62193,50.19566],[-126.62337,50.1931],[-126.62455,50.19187],[-126.62449,50.19144],[-126.62303,50.18985],[-126.62287,50.18921],[-126.623,50.187],[-126.62334,50.1863]]}},{"type":"Feature","properties":{"name":"Accommodation Connector Route - Yorkton, SK (Yorkton City Campground) 78m"},"geometry":{"type":"LineString","coordinates":[[-102.48268,51.22454],[-102.48379,51.22462]]}},{"type":"Feature","properties":{"name":"Water Accommodation Connector Route - Carters Point, NB (Hardings Point Campground) pt2 free 5min ferry"},"geometry":{"type":"LineString","coordinates":[[-66.21839,45.35171],[-66.22382,45.34869]]}},{"type":"Feature","properties":{"name":"Route Connector Canada - Difficult left turn to Galloping Goose Regional Trail (but there is a bike lane on Kelvin)"},"geometry":{"type":"LineString","coordinates":[[-123.37299,48.44873],[-123.37335,48.44925],[-123.37485,48.44905]]}},{"type":"Feature","properties":{"name":"Water Accommodation Connector Route - Carters Point, NB (Hardings Point Campground) pt2 free 5min ferry"},"geometry":{"type":"LineString","coordinates":[[-66.21839,45.35171],[-66.22382,45.34869]]}},{"type":"Feature","properties":{"name":"Route Connector Canada - St. John's, NL (Signal Hill) to St. John's, NL (St John's Intl Airport YYT) (proposed) W-E Connected 7.8km"},"geometry":{"type":"LineString","coordinates":[[-52.69786,47.57164],[-52.6976,47.57191],[-52.6981,47.5733],[-52.69929,47.57432],[-52.70291,47.57514],[-52.70386,47.57761],[-52.70653,47.57799],[-52.70738,47.57842],[-52.70949,47.58274],[-52.71204,47.58516],[-52.71697,47.58845],[-52.72455,47.59249],[-52.72729,47.59679],[-52.72913,47.59881],[-52.73201,47.60018],[-52.73883,47.60196],[-52.73949,47.60148],[-52.73997,47.60164],[-52.73976,47.60189],[-52.74198,47.60311],[-52.74322,47.60432],[-52.74436,47.60767],[-52.74545,47.60895],[-52.74607,47.60932],[-52.75172,47.61039],[-52.75078,47.61216],[-52.74891,47.61282],[-52.74366,47.61006],[-52.74254,47.60997],[-52.74195,47.61032],[-52.74181,47.61078],[-52.74274,47.61266]]}},{"type":"Feature","properties":{"name":"Route Connector Canada - St. John's, NL (Signal Hill) to St. John's, NL (St John's Intl Airport YYT) (proposed) E-W Segments pt1 398m"},"geometry":{"type":"LineString","coordinates":[[-52.74274,47.61266],[-52.7443,47.6131],[-52.74767,47.61226]]}},{"type":"Feature","properties":{"name":"Route Connector Canada - St. John's, NL (Signal Hill) to St. John's, NL (St John's Intl Airport YYT) (proposed) W-E Connected 1.7km to Signal Hill"},"geometry":{"type":"LineString","coordinates":[[-52.6976,47.57169],[-52.69388,47.57283],[-52.68779,47.57203],[-52.68689,47.57138],[-52.68707,47.57084],[-52.68682,47.57064],[-52.68574,47.57126],[-52.68293,47.57049],[-52.68076,47.5715],[-52.68062,47.57119],[-52.68131,47.57047]]}},{"type":"Feature","properties":{"name":"Route Connector Canada - St. John's, NL (Signal Hill) to St. John's, NL (St John's Intl Airport YYT) (proposed) E-W Segments pt1 103m from Signal Hill"},"geometry":{"type":"LineString","coordinates":[[-52.68574,47.57126],[-52.68704,47.57154]]}},{"type":"Feature","properties":{"name":"Route Connector Canada - St. John's, NL (Signal Hill) to St. John's, NL (St John's Intl Airport YYT) (proposed) E-W Segments pt2 120m from Signal Hill"},"geometry":{"type":"LineString","coordinates":[[-52.68062,47.57119],[-52.68098,47.57045],[-52.68131,47.57047]]}},{"type":"Feature","properties":{"name":"Route Connector Canada - St. John's, NL (Signal Hill) to St. John's, NL (St John's Intl Airport YYT) (proposed) E-W Segments pt2 241m"},"geometry":{"type":"LineString","coordinates":[[-52.74891,47.61282],[-52.75054,47.61262],[-52.7511,47.61175]]}},{"type":"Feature","properties":{"name":"Route Connector Canada - St. John's, NL (Signal Hill) to St. John's, NL (St John's Intl Airport YYT) (proposed) E-W Segments pt3 918m"},"geometry":{"type":"LineString","coordinates":[[-52.73895,47.60188],[-52.73156,47.59991],[-52.72834,47.59802]]}},{"type":"Feature","properties":{"name":"Route Connector Canada - St. John's, NL (Signal Hill) to St. John's, NL (St John's Intl Airport YYT) (proposed) E-W Segments pt4 183m"},"geometry":{"type":"LineString","coordinates":[[-52.7206,47.59022],[-52.71871,47.5892]]}},{"type":"Feature","properties":{"name":"Route Connector Canada - St. John's, NL (Signal Hill) to St. John's, NL (St John's Intl Airport YYT) (proposed) E-W Segments pt5 63m"},"geometry":{"type":"LineString","coordinates":[[-52.70445,47.57772],[-52.70379,47.57738]]}},{"type":"Feature","properties":{"name":"Waverly to Halifax Airport"},"geometry":{"type":"LineString","coordinates":[[-63.59779,44.7857],[-63.60083,44.78797],[-63.60441,44.7901],[-63.60552,44.79117],[-63.60592,44.79264],[-63.60732,44.79477],[-63.60725,44.79592],[-63.60588,44.79888],[-63.60626,44.80113],[-63.60551,44.80241],[-63.60523,44.80405],[-63.60451,44.80433],[-63.60429,44.80543],[-63.60373,44.8059],[-63.60262,44.80575],[-63.60057,44.80329],[-63.59848,44.80431],[-63.58745,44.80783],[-63.58547,44.80896],[-63.58436,44.81015],[-63.58361,44.8124],[-63.58347,44.82045],[-63.585,44.82952],[-63.58424,44.83169],[-63.58019,44.83484],[-63.5789,44.8355],[-63.57167,44.83677],[-63.56929,44.83759],[-63.56692,44.83898],[-63.56598,44.83988],[-63.56431,44.8405],[-63.5534,44.84709],[-63.55226,44.84833],[-63.55107,44.85035],[-63.54985,44.85155],[-63.54974,44.85236],[-63.55002,44.85304],[-63.5486,44.85372],[-63.54582,44.85585],[-63.54262,44.85646],[-63.54364,44.86168],[-63.54333,44.86319],[-63.54263,44.86408],[-63.53632,44.86938],[-63.5341,44.87201],[-63.53197,44.87519],[-63.52785,44.87311],[-63.52081,44.88017],[-63.52159,44.88078],[-63.51804,44.8838],[-63.51503,44.88456],[-63.51541,44.88658]]}},{"type":"Feature","properties":{"name":"CA Railway Street Nipigon"},"geometry":{"type":"LineString","coordinates":[[-88.25553,49.01895],[-88.25555,49.01911]]}},{"type":"Feature","properties":{"name":"CA Royal Road North fix"},"geometry":{"type":"LineString","coordinates":[[-98.28993,49.97312],[-98.28994,49.973]]}},{"type":"Feature","properties":{"name":"CA Main Street"},"geometry":{"type":"LineString","coordinates":[[-101.65992,50.14982],[-101.65948,50.15019]]}},{"type":"Feature","properties":{"name":"CA Track 002"},"geometry":{"type":"LineString","coordinates":[[-107.76434,50.30934],[-107.7645,50.30958]]}},{"type":"Feature","properties":{"name":"CA Accommodation Connector Route - Medicine Hat, AB (Gas City Campground) 1.5km fixed"},"geometry":{"type":"LineString","coordinates":[[-110.70972,50.03248],[-110.71187,50.03247],[-110.71211,50.0339],[-110.71506,50.0348],[-110.71632,50.03637],[-110.717,50.03676],[-110.72281,50.03667],[-110.72307,50.0376]]}},{"type":"Feature","properties":{"name":"Accommodation Connector Route - Sicamous, BC (Paradise Motel) 73m exit fixed"},"geometry":{"type":"LineString","coordinates":[[-118.97858,50.83723],[-118.9781,50.83717]]}},{"type":"Feature","properties":{"name":"Accommodation Connector Route - Sicamous, BC (Paradise Motel) 73m exit fixed2"},"geometry":{"type":"LineString","coordinates":[[-118.97804,50.8371],[-118.9778,50.83701]]}},{"type":"Feature","properties":{"name":"CA Track 036 fix"},"geometry":{"type":"LineString","coordinates":[[-118.97748,50.83719],[-118.97766,50.83737]]}},{"type":"Feature","properties":{"name":"CA Track Sicamous fix"},"geometry":{"type":"LineString","coordinates":[[-118.97802,50.83733],[-118.98108,50.83672],[-118.98115,50.83558]]}},{"type":"Feature","properties":{"name":"CA Track Mule Deer CG"},"geometry":{"type":"LineString","coordinates":[[-120.68233,49.09041],[-120.6824,49.09049]]}},{"type":"Feature","properties":{"name":"CA Accommodation Connector Route - Hope, BC (Coquihalla Campground) 252m fixed"},"geometry":{"type":"LineString","coordinates":[[-121.42888,49.37877],[-121.42706,49.38036],[-121.42654,49.38015]]}},{"type":"Feature","properties":{"name":"CA Dorval, QC (Montreal Airport) to Montreal, QC (proposed) W-E Connected 2.9km fixed"},"geometry":{"type":"LineString","coordinates":[[-73.75183,45.45632],[-73.75173,45.45481],[-73.7528,45.4548],[-73.75293,45.45448],[-73.75157,45.45003],[-73.75172,45.4496],[-73.74516,45.4501],[-73.74521,45.44962],[-73.74322,45.44928],[-73.74309,45.44829],[-73.7424,45.44771],[-73.74279,45.44695],[-73.74139,45.44601],[-73.73958,45.43895]]}},{"type":"Feature","properties":{"name":"C2 Cobourg, ON to Adolphustown, ON (proposed) W-E Connected pt1 109km pt1"},"geometry":{"type":"LineString","coordinates":[[-78.16459,43.95785],[-78.16546,43.9599]]}},{"type":"Feature","properties":{"name":"Accommodation Connector Route - Nanamio, BC (Jingle Pot RV Park and Campground) 115m exit fixed"},"geometry":{"type":"LineString","coordinates":[[-124.03539,49.20513],[-124.03495,49.20611]]}},{"type":"Feature","properties":{"name":"CA Campbell Way"},"geometry":{"type":"LineString","coordinates":[[-127.06819,50.57151],[-127.06833,50.57207]]}},{"type":"Feature","properties":{"name":"CA Sayward Road"},"geometry":{"type":"LineString","coordinates":[[-125.91905,50.31183],[-125.91907,50.31216]]}},{"type":"Feature","properties":{"name":"CA Track Campbellton"},"geometry":{"type":"LineString","coordinates":[[-125.27504,50.03393],[-125.27575,50.0336]]}},{"type":"Feature","properties":{"name":"CA Drumheller AB (River Grove Campground and Cabins) 270m fixed"},"geometry":{"type":"LineString","coordinates":[[-112.71282,51.46978],[-112.71374,51.46989],[-112.7142,51.46846],[-112.71352,51.46838]]}},{"type":"Feature","properties":{"name":"CA Daly Avenue 003 to Ottawa Jail Hostel Rideau Street2 EB"},"geometry":{"type":"LineString","coordinates":[[-75.6939,45.42518],[-75.69051,45.42671],[-75.6888,45.42475],[-75.68821,45.42507]]}},{"type":"Feature","properties":{"name":"CA Track 001 Ottawa Jail WB"},"geometry":{"type":"LineString","coordinates":[[-75.69331,45.42561],[-75.69336,45.42556]]}},{"type":"Feature","properties":{"name":"CA Chemin du Cap-Bon-Ami - Forillon National Par road access"},"geometry":{"type":"LineString","coordinates":[[-64.2165,48.83732],[-64.21761,48.8371],[-64.21864,48.83537],[-64.22029,48.83427],[-64.2254,48.83348],[-64.22724,48.83264],[-64.22815,48.83132],[-64.22806,48.83005],[-64.22702,48.82869],[-64.22594,48.82909]]}},{"type":"Feature","properties":{"name":"CA Chemin du Cap-Bon-Ami 001 Forillon National Park"},"geometry":{"type":"LineString","coordinates":[[-64.21534,48.83869],[-64.21534,48.83791],[-64.2165,48.83732],[-64.21637,48.83705],[-64.2153,48.83745],[-64.21428,48.83831],[-64.21352,48.83792],[-64.21367,48.8372],[-64.21322,48.83656],[-64.21819,48.83077],[-64.22097,48.82821],[-64.22207,48.82838],[-64.22214,48.82879],[-64.22293,48.82913],[-64.22337,48.82999],[-64.22404,48.82987],[-64.2242,48.82924],[-64.2247,48.82926]]}},{"type":"Feature","properties":{"name":"CA Chemin du Cap-Bon-Ami 003 Forillon National Park EB"},"geometry":{"type":"LineString","coordinates":[[-64.2161,48.83747],[-64.2156,48.83772]]}},{"type":"Feature","properties":{"name":"CA Track 001 campground - Forillon National Park"},"geometry":{"type":"LineString","coordinates":[[-64.22594,48.82909],[-64.22571,48.82875],[-64.22513,48.82873],[-64.22497,48.82929],[-64.22449,48.82918],[-64.22457,48.82834],[-64.2242,48.82809],[-64.2231,48.8286],[-64.22278,48.8277],[-64.22208,48.82785],[-64.22207,48.82838]]}},{"type":"Feature","properties":{"name":"CA Track 002 Jack's Pond Park and Campground"},"geometry":{"type":"LineString","coordinates":[[-53.93829,47.75814],[-53.93792,47.75721]]}},{"type":"Feature","properties":{"name":"CA Track 002 Jack's Pond Park and Campground 2"},"geometry":{"type":"LineString","coordinates":[[-53.93792,47.75721],[-53.937,47.75672]]}},{"type":"Feature","properties":{"name":"CA Track 004 Grand Falls Windsor"},"geometry":{"type":"LineString","coordinates":[[-55.67359,48.94535],[-55.68007,48.9465]]}},{"type":"Feature","properties":{"name":"CA Track 005 Newman Sound"},"geometry":{"type":"LineString","coordinates":[[-53.97862,48.55133],[-53.97908,48.5519]]}},{"type":"Feature","properties":{"name":"CA Access to Lochside Trail fron Nigel Ave. (one way) fixed"},"geometry":{"type":"LineString","coordinates":[[-123.37108,48.45616],[-123.37134,48.45655],[-123.37333,48.45747],[-123.37298,48.45782],[-123.37525,48.45894]]}},{"type":"Feature","properties":{"name":"CA Beacon Avenue 001 WB"},"geometry":{"type":"LineString","coordinates":[[-123.40692,48.64896],[-123.40935,48.64893]]}},{"type":"Feature","properties":{"name":"CA Douglas Street 002 to Galloping Goose - Lochside Trail fixed"},"geometry":{"type":"LineString","coordinates":[[-123.37656,48.45455],[-123.37802,48.4555],[-123.37785,48.45624]]}},{"type":"Feature","properties":{"name":"CA Gorge Road East 003 to Galloping Goose fixed"},"geometry":{"type":"LineString","coordinates":[[-123.3819,48.4431],[-123.37888,48.44275],[-123.3798,48.44235]]}},{"type":"Feature","properties":{"name":"CA Gorge Road East and Jutland Rd Access Route fixed"},"geometry":{"type":"LineString","coordinates":[[-123.37622,48.44176],[-123.37663,48.44191],[-123.37727,48.44152],[-123.37878,48.44194],[-123.37955,48.44125],[-123.3804,48.44169]]}},{"type":"Feature","properties":{"name":"CA Hwy 17 Northbound Access Route (one way) fixed"},"geometry":{"type":"LineString","coordinates":[[-123.37333,48.45747],[-123.37603,48.45863],[-123.3752,48.45927],[-123.37542,48.45949],[-123.37464,48.45953]]}},{"type":"Feature","properties":{"name":"CA Hwy 17 Southbound Blanshard Street to Galloping Goose-Lochside Trail fixed"},"geometry":{"type":"LineString","coordinates":[[-123.37847,48.4589],[-123.37786,48.45803],[-123.37647,48.45734],[-123.37758,48.45631],[-123.37741,48.45594],[-123.37765,48.45577]]}},{"type":"Feature","properties":{"name":"CA Jutland Road 003"},"geometry":{"type":"LineString","coordinates":[[-123.37638,48.44212],[-123.37663,48.44191]]}},{"type":"Feature","properties":{"name":"CA Rockwood Road Smonecten (McDonald)\u00a0Campground"},"geometry":{"type":"LineString","coordinates":[[-123.42396,48.67307],[-123.42655,48.67319]]}},{"type":"Feature","properties":{"name":"CA Sidney, BC (Victoria International Airport YYJ Connection) Connected 4.3km fixed"},"geometry":{"type":"LineString","coordinates":[[-123.43126,48.64035],[-123.43194,48.64018],[-123.43244,48.63878],[-123.43362,48.63746],[-123.43065,48.6374],[-123.4273,48.63624],[-123.42626,48.63635],[-123.42375,48.63553],[-123.42107,48.6353],[-123.42023,48.63574],[-123.42098,48.63689],[-123.42086,48.63717],[-123.41892,48.63733],[-123.41859,48.63768],[-123.41712,48.64147],[-123.41676,48.643],[-123.41688,48.64452],[-123.40637,48.64473],[-123.40583,48.64542],[-123.40642,48.6467],[-123.40914,48.6474],[-123.40974,48.64807],[-123.40971,48.64893],[-123.40684,48.64885]]}},{"type":"Feature","properties":{"name":"CA Track 001 Viaduct Park"},"geometry":{"type":"LineString","coordinates":[[-123.38035,48.44153],[-123.3806,48.44147]]}},{"type":"Feature","properties":{"name":"CA Track 028 from Airport to Lochside Trail via McTavish Exchange fixed"},"geometry":{"type":"LineString","coordinates":[[-123.42113,48.63529],[-123.4205,48.63499],[-123.41892,48.63499],[-123.41727,48.63429],[-123.41353,48.63075],[-123.41411,48.63004],[-123.41253,48.62994],[-123.41246,48.62921],[-123.41129,48.62942],[-123.41131,48.62849]]}},{"type":"Feature","properties":{"name":"CA Track 032 Willingdon Rd and E Saanich Rd roundabout to departures"},"geometry":{"type":"LineString","coordinates":[[-123.41971,48.63513],[-123.42028,48.6355],[-123.42079,48.63531]]}},{"type":"Feature","properties":{"name":"CA Track 041 McTavish Exchange to YYJ departures"},"geometry":{"type":"LineString","coordinates":[[-123.41265,48.62989],[-123.41362,48.63002],[-123.41381,48.63031]]}},{"type":"Feature","properties":{"name":"CA Track 063 Victoria (Swartz Bay) Berth 4 WB"},"geometry":{"type":"LineString","coordinates":[[-123.41003,48.68888],[-123.41106,48.68844]]}},{"type":"Feature","properties":{"name":"CA Track 069 Victoria (Swartz Bay) Berth 3 WB"},"geometry":{"type":"LineString","coordinates":[[-123.41022,48.68915],[-123.41109,48.68862]]}},{"type":"Feature","properties":{"name":"CA Track 076 to Victoria (Swartz Bay) Berth 1"},"geometry":{"type":"LineString","coordinates":[[-123.41112,48.68902],[-123.41175,48.68952]]}},{"type":"Feature","properties":{"name":"CA Track 078 Victoria (Swartz Bay) Berth 1 SB"},"geometry":{"type":"LineString","coordinates":[[-123.41122,48.6891],[-123.41115,48.68894]]}},{"type":"Feature","properties":{"name":"CA Trans-Canada Highway to Galloping Goose fixed"},"geometry":{"type":"LineString","coordinates":[[-123.37966,48.45561],[-123.37746,48.45493],[-123.37625,48.45397],[-123.37724,48.45383]]}},{"type":"Feature","properties":{"name":"CA Victoria (Swartz Bay) Berth 5 WB"},"geometry":{"type":"LineString","coordinates":[[-123.4099,48.68861],[-123.41102,48.68821]]}},{"type":"Feature","properties":{"name":"CA Waterfront Crescent 002"},"geometry":{"type":"LineString","coordinates":[[-123.3775,48.44157],[-123.37708,48.44136],[-123.37675,48.44184]]}},{"type":"Feature","properties":{"name":"CA Willingdon Road 002 to Victoria International Airport Departures"},"geometry":{"type":"LineString","coordinates":[[-123.4271,48.63635],[-123.42933,48.63729],[-123.42879,48.63986],[-123.42961,48.64025]]}},{"type":"Feature","properties":{"name":"CA Nanaimo, BC (Living Forest Oceanside Campground and RV Park) 767m fixed"},"geometry":{"type":"LineString","coordinates":[[-123.92153,49.13074],[-123.91845,49.1307],[-123.91594,49.13105],[-123.91416,49.13038],[-123.91261,49.13031],[-123.912,49.13045],[-123.91177,49.13088]]}},{"type":"Feature","properties":{"name":"CA Maki Road Nanaimo to Living Forest Campground Exit"},"geometry":{"type":"LineString","coordinates":[[-123.9201,49.13077],[-123.92155,49.13081]]}},{"type":"Feature","properties":{"name":"CA Nanaimo to Living Forest Campground Exit"},"geometry":{"type":"LineString","coordinates":[[-123.92081,49.13082],[-123.92147,49.13119]]}},{"type":"Feature","properties":{"name":"CA Track 002 Nanaimo to Living Forest Campground"},"geometry":{"type":"LineString","coordinates":[[-123.92125,49.13047],[-123.92097,49.13073]]}},{"type":"Feature","properties":{"name":"CA Arbutus Greenway pt1 fixed"},"geometry":{"type":"LineString","coordinates":[[-123.14007,49.19336],[-123.13983,49.19447],[-123.14001,49.19505],[-123.13806,49.19573],[-123.13674,49.19696],[-123.13448,49.20247],[-123.13529,49.20328],[-123.13966,49.20489],[-123.14038,49.20543],[-123.14089,49.20514],[-123.14207,49.20568],[-123.14229,49.20606],[-123.14217,49.20856],[-123.14444,49.2086],[-123.14548,49.21061]]}},{"type":"Feature","properties":{"name":"CA Southwest Marine Drive 001 SB"},"geometry":{"type":"LineString","coordinates":[[-123.14089,49.20514],[-123.13577,49.20336],[-123.13492,49.20233],[-123.13703,49.19674],[-123.13831,49.19572],[-123.13995,49.19516],[-123.13979,49.19566]]}},{"type":"Feature","properties":{"name":"CA Vancouver International Airport Access Track fixed"},"geometry":{"type":"LineString","coordinates":[[-123.18073,49.19297],[-123.18015,49.19445],[-123.17818,49.19493],[-123.16211,49.19324],[-123.15516,49.19329],[-123.15265,49.19438],[-123.15119,49.19683],[-123.14906,49.19681],[-123.14747,49.1974],[-123.14562,49.19757],[-123.14343,49.19684],[-123.14075,49.19645],[-123.13945,49.19551],[-123.1389,49.19559],[-123.13826,49.19624],[-123.13705,49.19607],[-123.13903,49.19372],[-123.14007,49.19336]]}},{"type":"Feature","properties":{"name":"CA Templeton Station Road 001 WB"},"geometry":{"type":"LineString","coordinates":[[-123.15008,49.19687],[-123.1516,49.19671],[-123.15192,49.19542]]}},{"type":"Feature","properties":{"name":"CA Track 002 (over pedestrian walkway - but safer than road) fixed 001"},"geometry":{"type":"LineString","coordinates":[[-123.14007,49.19336],[-123.13878,49.19273],[-123.1332,49.19213],[-123.13022,49.19218],[-123.13026,49.1928],[-123.12952,49.1929],[-123.12951,49.19381],[-123.12825,49.19381],[-123.12785,49.19478],[-123.12504,49.19471]]}},{"type":"Feature","properties":{"name":"CA Track 001 Sea Island Way from Airport"},"geometry":{"type":"LineString","coordinates":[[-123.14007,49.19336],[-123.13857,49.19283],[-123.13899,49.19221],[-123.14001,49.19235],[-123.13354,49.19098],[-123.12476,49.19082]]}},{"type":"Feature","properties":{"name":"CA Prince George, BC (Blue Cedars RV Park and Campground) 516m fixed"},"geometry":{"type":"LineString","coordinates":[[-122.81599,53.8583],[-122.81622,53.8589],[-122.81672,53.85914],[-122.81895,53.85944],[-122.82118,53.85923]]}},{"type":"Feature","properties":{"name":"CA Track 002 Prince George"},"geometry":{"type":"LineString","coordinates":[[-122.81543,53.85837],[-122.81612,53.85866]]}},{"type":"Feature","properties":{"name":"CA Track 003 Prince George"},"geometry":{"type":"LineString","coordinates":[[-122.81612,53.85866],[-122.81661,53.85822]]}},{"type":"Feature","properties":{"name":"CA Golden, BC (Golden Municipal Campground) 2.2km fixed"},"geometry":{"type":"LineString","coordinates":[[-116.96305,51.29615],[-116.95343,51.29619],[-116.95208,51.29702]]}},{"type":"Feature","properties":{"name":"CA Track from Glen Rouge Campground"},"geometry":{"type":"LineString","coordinates":[[-79.13714,43.80564],[-79.13677,43.80532]]}},{"type":"Feature","properties":{"name":"CA Rodd Avenue to Glen Rouge Campground fixed"},"geometry":{"type":"LineString","coordinates":[[-79.12926,43.80954],[-79.13183,43.80822],[-79.13711,43.80432],[-79.13725,43.80458],[-79.13658,43.80552],[-79.13787,43.80604],[-79.13905,43.80594]]}},{"type":"Feature","properties":{"name":"CA Track 001 FROM Glen Rouge Campground"},"geometry":{"type":"LineString","coordinates":[[-79.13711,43.80432],[-79.13595,43.80487],[-79.13152,43.80826],[-79.12922,43.80944]]}},{"type":"Feature","properties":{"name":"CA Renfrew, ON (Renfrew Ottawa West KOA)"},"geometry":{"type":"LineString","coordinates":[[-76.69128,45.4753],[-76.6929,45.47655],[-76.69423,45.47642],[-76.69743,45.47897],[-76.69248,45.48207],[-76.6919,45.48271],[-76.6906,45.48497],[-76.6887,45.49022],[-76.68795,45.49103],[-76.68456,45.49305],[-76.67627,45.49528],[-76.66875,45.49791],[-76.66687,45.49994],[-76.66395,45.50166],[-76.66202,45.50219],[-76.65439,45.50296],[-76.66849,45.5148],[-76.68597,45.52876],[-76.68186,45.53123]]}},{"type":"Feature","properties":{"name":"CA Flood Overpass Road CA NB access from Wild Rose Camping and Rv Park"},"geometry":{"type":"LineString","coordinates":[[-121.5198,49.36502],[-121.51985,49.36533]]}},{"type":"Feature","properties":{"name":"CA NB access from Wild Rose Camping and Rv Park"},"geometry":{"type":"LineString","coordinates":[[-121.52071,49.36345],[-121.51591,49.36148]]}},{"type":"Feature","properties":{"name":"CA NB access to Wild Rose Camping and Rv Park"},"geometry":{"type":"LineString","coordinates":[[-121.52591,49.36481],[-121.52268,49.36445],[-121.52071,49.36345],[-121.5199,49.36428],[-121.51968,49.36519],[-121.51917,49.36541],[-121.5134,49.36605],[-121.51339,49.36551]]}},{"type":"Feature","properties":{"name":"CA SB access from Wild Rose Camping and Rv Park"},"geometry":{"type":"LineString","coordinates":[[-121.52133,49.36516],[-121.52238,49.36482],[-121.52387,49.36504]]}},{"type":"Feature","properties":{"name":"CA SB access to Wild Rose Camping and Rv Park"},"geometry":{"type":"LineString","coordinates":[[-121.51798,49.36265],[-121.52161,49.36477],[-121.52133,49.36516],[-121.51917,49.36541]]}},{"type":"Feature","properties":{"name":"CA access from Samesun Kelowna Backpackers Hostel"},"geometry":{"type":"LineString","coordinates":[[-119.49825,49.88353],[-119.49609,49.88351],[-119.49941,49.8837],[-119.49941,49.88603],[-119.49966,49.88609]]}},{"type":"Feature","properties":{"name":"CA access to Samesun Kelowna Backpackers Hostel"},"geometry":{"type":"LineString","coordinates":[[-119.50327,49.88068],[-119.50179,49.88116],[-119.5006,49.88308],[-119.49921,49.88355],[-119.49825,49.88353]]}},{"type":"Feature","properties":{"name":"CA to Dutch's Campground Coldstream BC"},"geometry":{"type":"LineString","coordinates":[[-119.26718,50.23608],[-119.26703,50.23607]]}},{"type":"Feature","properties":{"name":"CA from Riverside RV Park and Campground Enderby BC"},"geometry":{"type":"LineString","coordinates":[[-119.13855,50.55435],[-119.1416,50.55812]]}},{"type":"Feature","properties":{"name":"CA to Riverside RV Park and Campground Enderby BC"},"geometry":{"type":"LineString","coordinates":[[-119.1401,50.55351],[-119.13857,50.5535],[-119.13855,50.55435],[-119.13721,50.55528],[-119.1351,50.55535],[-119.13501,50.55717],[-119.12936,50.55711],[-119.12945,50.5568]]}},{"type":"Feature","properties":{"name":"CA from Ox n Cart Lions Campground Oak Lake MB"},"geometry":{"type":"LineString","coordinates":[[-100.64487,49.76875],[-100.64243,49.76876],[-100.64107,49.76931],[-100.64317,49.77214]]}},{"type":"Feature","properties":{"name":"CA to Ox n Cart Lions Campground Oak Lake MB"},"geometry":{"type":"LineString","coordinates":[[-100.66768,49.76876],[-100.66768,49.76846],[-100.65468,49.76845],[-100.64487,49.76875],[-100.64485,49.767]]}},{"type":"Feature","properties":{"name":"CA to Ox n Cart Lions Campground Oak Lake MB pt1"},"geometry":{"type":"LineString","coordinates":[[-100.64463,49.77127],[-100.64321,49.77136],[-100.6421,49.77047]]}},{"type":"Feature","properties":{"name":"CA from Winnipeg West KOA Journey"},"geometry":{"type":"LineString","coordinates":[[-97.509,49.88706],[-97.50802,49.88711],[-97.5078,49.88768]]}},{"type":"Feature","properties":{"name":"CA to Winnipeg West KOA Journey"},"geometry":{"type":"LineString","coordinates":[[-97.50935,49.8874],[-97.509,49.88706],[-97.5108,49.88652]]}},{"type":"Feature","properties":{"name":"CA from Elkhorn Campground Elkhorn MB"},"geometry":{"type":"LineString","coordinates":[[-101.24084,49.97996],[-101.24069,49.97529],[-101.22845,49.97505]]}},{"type":"Feature","properties":{"name":"CA from Elkhorn Campground Elkhorn MB WB"},"geometry":{"type":"LineString","coordinates":[[-101.24038,49.98388],[-101.24,49.98437]]}},{"type":"Feature","properties":{"name":"CA to Elkhorn Campground Elkhorn MB"},"geometry":{"type":"LineString","coordinates":[[-101.24038,49.98388],[-101.24082,49.98295],[-101.24084,49.97996],[-101.24208,49.97995]]}},{"type":"Feature","properties":{"name":"CA to Elkhorn Campground Elkhorn MB WB"},"geometry":{"type":"LineString","coordinates":[[-101.22774,49.97528],[-101.22845,49.97505]]}},{"type":"Feature","properties":{"name":"CA Princeton, BC (Rivers Edge RV Park) 1.8km fix"},"geometry":{"type":"LineString","coordinates":[[-120.50467,49.45891],[-120.50472,49.45841],[-120.50298,49.4594],[-120.50148,49.46146],[-120.49978,49.46216],[-120.49825,49.46213],[-120.49109,49.45988],[-120.49105,49.46023],[-120.49342,49.46086],[-120.49338,49.46216]]}}]}