<?xml version="1.0" encoding="utf-8"?><gpx creator="Garmin Desktop App" version="1.1" xsi:schemaLocation="http://www.topografix.com/GPX/1/1 http://www.topografix.com/GPX/1/1/gpx.xsd http://www.garmin.com/xmlschemas/WaypointExtension/v1 http://www8.garmin.com/xmlschemas/WaypointExtensionv1.xsd http://www.garmin.com/xmlschemas/TrackPointExtension/v1 http://www.garmin.com/xmlschemas/TrackPointExtensionv1.xsd http://www.garmin.com/xmlschemas/GpxExtensions/v3 http://www8.garmin.com/xmlschemas/GpxExtensionsv3.xsd http://www.garmin.com/xmlschemas/ActivityExtension/v1 http://www8.garmin.com/xmlschemas/ActivityExtensionv1.xsd http://www.garmin.com/xmlschemas/AdventuresExtensions/v1 http://www8.garmin.com/xmlschemas/AdventuresExtensionv1.xsd http://www.garmin.com/xmlschemas/PressureExtension/v1 http://www.garmin.com/xmlschemas/PressureExtensionv1.xsd http://www.garmin.com/xmlschemas/TripExtensions/v1 http://www.garmin.com/xmlschemas/TripExtensionsv1.xsd http://www.garmin.com/xmlschemas/TripMetaDataExtensions/v1 http://www.garmin.com/xmlschemas/TripMetaDataExtensionsv1.xsd http://www.garmin.com/xmlschemas/ViaPointTransportationModeExtensions/v1 http://www.garmin.com/xmlschemas/ViaPointTransportationModeExtensionsv1.xsd http://www.garmin.com/xmlschemas/CreationTimeExtension/v1 http://www.garmin.com/xmlschemas/CreationTimeExtensionsv1.xsd http://www.garmin.com/xmlschemas/AccelerationExtension/v1 http://www.garmin.com/xmlschemas/AccelerationExtensionv1.xsd http://www.garmin.com/xmlschemas/PowerExtension/v1 http://www.garmin.com/xmlschemas/PowerExtensionv1.xsd http://www.garmin.com/xmlschemas/VideoExtension/v1 http://www.garmin.com/xmlschemas/VideoExtensionv1.xsd" xmlns="http://www.topografix.com/GPX/1/1" xmlns:xsi="http://www.w3.org/2001/XMLSchema-instance" xmlns:wptx1="http://www.garmin.com/xmlschemas/WaypointExtension/v1" xmlns:gpxtrx="http://www.garmin.com/xmlschemas/GpxExtensions/v3" xmlns:gpxtpx="http://www.garmin.com/xmlschemas/TrackPointExtension/v1" xmlns:gpxx="http://www.garmin.com/xmlschemas/GpxExtensions/v3" xmlns:trp="http://www.garmin.com/xmlschemas/TripExtensions/v1" xmlns:adv="http://www.garmin.com/xmlschemas/AdventuresExtensions/v1" xmlns:prs="http://www.garmin.com/xmlschemas/PressureExtension/v1" xmlns:tmd="http://www.garmin.com/xmlschemas/TripMetaDataExtensions/v1" xmlns:vptm="http://www.garmin.com/xmlschemas/ViaPointTransportationModeExtensions/v1" xmlns:ctx="http://www.garmin.com/xmlschemas/CreationTimeExtension/v1" xmlns:gpxacc="http://www.garmin.com/xmlschemas/AccelerationExtension/v1" xmlns:gpxpx="http://www.garmin.com/xmlschemas/PowerExtension/v1" xmlns:vidx1="http://www.garmin.com/xmlschemas/VideoExtension/v1">

  <metadata>
    <link href="http://www.garmin.com">
      <text>Garmin International</text>
    </link>
    <time>2024-09-13T13:52:18Z</time>
    <bounds maxlat="51.184380138292909" maxlon="-64.47809717617929" minlat="45.212044715881348" minlon="-123.39740753173828" />
  </metadata>

  <wpt lat="46.195766916498542" lon="-73.003428038209677">
    <ele>0</ele>
    <time>2023-02-13T14:17:56Z</time>
    <name>Aire de service de la Baie-de-Maskinongé (toilets, water, restaurant, phone, visitors information)</name>
    <cmt>area</cmt>
    <desc>area</desc>
    <sym>Drinking Water</sym>
    <type>user</type>
    <extensions>
      <gpxx:WaypointExtension>
        <gpxx:DisplayMode>SymbolOnly</gpxx:DisplayMode>
      </gpxx:WaypointExtension>
      <wptx1:WaypointExtension>
        <wptx1:DisplayMode>SymbolOnly</wptx1:DisplayMode>
      </wptx1:WaypointExtension>
      <ctx:CreationTimeExtension>
        <ctx:CreationTime>2023-02-13T14:17:56Z</ctx:CreationTime>
      </ctx:CreationTimeExtension>
    </extensions>
  </wpt>

  <wpt lat="45.476889638230205" lon="-74.28387732245028">
    <ele>0</ele>
    <time>2023-02-13T14:17:56Z</time>
    <name>Aire de service de Rigaud (toilets, water, restaurant, phone, visitors information)</name>
    <cmt>Halte Routière de Rigaud</cmt>
    <desc>Halte Routière de Rigaud</desc>
    <sym>Drinking Water</sym>
    <type>user</type>
    <extensions>
      <gpxx:WaypointExtension>
        <gpxx:DisplayMode>SymbolOnly</gpxx:DisplayMode>
      </gpxx:WaypointExtension>
      <wptx1:WaypointExtension>
        <wptx1:DisplayMode>SymbolOnly</wptx1:DisplayMode>
      </wptx1:WaypointExtension>
      <ctx:CreationTimeExtension>
        <ctx:CreationTime>2023-02-13T14:17:56Z</ctx:CreationTime>
      </ctx:CreationTimeExtension>
    </extensions>
  </wpt>

  <wpt lat="45.212044715881348" lon="-74.338538562878966">
    <ele>0</ele>
    <time>2023-02-13T14:17:56Z</time>
    <name>Aire de service de Rivière-Beaudette (toilets, water, visitors information, phone, restaurant)</name>
    <cmt>Centre Infotouriste de Rivière-Beaudette</cmt>
    <desc>Centre Infotouriste de Rivière-Beaudette</desc>
    <sym>Drinking Water</sym>
    <type>user</type>
    <extensions>
      <gpxx:WaypointExtension>
        <gpxx:DisplayMode>SymbolOnly</gpxx:DisplayMode>
      </gpxx:WaypointExtension>
      <wptx1:WaypointExtension>
        <wptx1:DisplayMode>SymbolOnly</wptx1:DisplayMode>
      </wptx1:WaypointExtension>
      <ctx:CreationTimeExtension>
        <ctx:CreationTime>2023-02-13T14:17:56Z</ctx:CreationTime>
      </ctx:CreationTimeExtension>
    </extensions>
  </wpt>

  <wpt lat="45.890543516725302" lon="-73.349519670009613">
    <ele>0</ele>
    <time>2023-02-13T14:17:56Z</time>
    <name>Aire de service du Point-du-Jour (toilets, water, phone, wifi, snack or vending machine)</name>
    <cmt>Aire de Services Du Point-Du-Jour</cmt>
    <desc>Aire de Services Du Point-Du-Jour</desc>
    <sym>Drinking Water</sym>
    <type>user</type>
    <extensions>
      <gpxx:WaypointExtension>
        <gpxx:DisplayMode>SymbolOnly</gpxx:DisplayMode>
      </gpxx:WaypointExtension>
      <wptx1:WaypointExtension>
        <wptx1:DisplayMode>SymbolOnly</wptx1:DisplayMode>
      </wptx1:WaypointExtension>
      <ctx:CreationTimeExtension>
        <ctx:CreationTime>2023-02-13T14:17:56Z</ctx:CreationTime>
      </ctx:CreationTimeExtension>
    </extensions>
  </wpt>

  <wpt lat="49.184403894469142" lon="-121.74266930669546">
    <ele>0</ele>
    <time>2023-02-13T14:17:56Z</time>
    <name>Bridal Veil Falls Provincial Park (toilets, water)</name>
    <cmt>forest, park</cmt>
    <desc>forest, park</desc>
    <sym>Drinking Water</sym>
    <type>user</type>
    <extensions>
      <gpxx:WaypointExtension>
        <gpxx:DisplayMode>SymbolOnly</gpxx:DisplayMode>
      </gpxx:WaypointExtension>
      <wptx1:WaypointExtension>
        <wptx1:DisplayMode>SymbolOnly</wptx1:DisplayMode>
      </wptx1:WaypointExtension>
      <ctx:CreationTimeExtension>
        <ctx:CreationTime>2023-02-13T14:17:56Z</ctx:CreationTime>
      </ctx:CreationTimeExtension>
    </extensions>
  </wpt>

  <wpt lat="49.412979567423463" lon="-120.26169338263571">
    <ele>0</ele>
    <time>2023-02-13T14:17:56Z</time>
    <name>Bromley Rock Provincial Park Campground - water</name>
    <cmt>forest, park</cmt>
    <desc>forest, park</desc>
    <sym>Drinking Water</sym>
    <type>user</type>
    <extensions>
      <gpxx:WaypointExtension>
        <gpxx:DisplayMode>SymbolOnly</gpxx:DisplayMode>
      </gpxx:WaypointExtension>
      <wptx1:WaypointExtension>
        <wptx1:DisplayMode>SymbolOnly</wptx1:DisplayMode>
      </wptx1:WaypointExtension>
      <ctx:CreationTimeExtension>
        <ctx:CreationTime>2023-02-13T14:17:56Z</ctx:CreationTime>
      </ctx:CreationTimeExtension>
    </extensions>
  </wpt>

  <wpt lat="48.42261060141027" lon="-123.3685902133584">
    <ele>0</ele>
    <time>2023-02-13T14:17:56Z</time>
    <name>drinking water</name>
    <cmt>area</cmt>
    <desc>area</desc>
    <sym>Drinking Water</sym>
    <type>user</type>
    <extensions>
      <gpxx:WaypointExtension>
        <gpxx:DisplayMode>SymbolOnly</gpxx:DisplayMode>
      </gpxx:WaypointExtension>
      <wptx1:WaypointExtension>
        <wptx1:DisplayMode>SymbolOnly</wptx1:DisplayMode>
      </wptx1:WaypointExtension>
      <ctx:CreationTimeExtension>
        <ctx:CreationTime>2023-02-13T14:17:56Z</ctx:CreationTime>
      </ctx:CreationTimeExtension>
    </extensions>
  </wpt>

  <wpt lat="46.442771041765809" lon="-72.318727970123291">
    <ele>0</ele>
    <time>2023-02-13T14:17:56Z</time>
    <name>Halte Antoine-Desrosiers (toilets, water, phone)</name>
    <cmt>picnic site</cmt>
    <desc>picnic site</desc>
    <sym>Drinking Water</sym>
    <type>user</type>
    <extensions>
      <gpxx:WaypointExtension>
        <gpxx:DisplayMode>SymbolOnly</gpxx:DisplayMode>
      </gpxx:WaypointExtension>
      <wptx1:WaypointExtension>
        <wptx1:DisplayMode>SymbolOnly</wptx1:DisplayMode>
      </wptx1:WaypointExtension>
      <ctx:CreationTimeExtension>
        <ctx:CreationTime>2023-02-13T14:17:56Z</ctx:CreationTime>
      </ctx:CreationTimeExtension>
    </extensions>
  </wpt>

  <wpt lat="49.098351001739502" lon="-66.678729141131043">
    <ele>0</ele>
    <time>2023-02-13T14:17:56Z</time>
    <name>Halte de Cap-Chat (toilets, water, restaurant, phone)</name>
    <cmt>Wc</cmt>
    <desc>Wc</desc>
    <sym>Drinking Water</sym>
    <type>user</type>
    <extensions>
      <gpxx:WaypointExtension>
        <gpxx:DisplayMode>SymbolOnly</gpxx:DisplayMode>
      </gpxx:WaypointExtension>
      <wptx1:WaypointExtension>
        <wptx1:DisplayMode>SymbolOnly</wptx1:DisplayMode>
      </wptx1:WaypointExtension>
      <ctx:CreationTimeExtension>
        <ctx:CreationTime>2023-02-13T14:17:56Z</ctx:CreationTime>
      </ctx:CreationTimeExtension>
    </extensions>
  </wpt>

  <wpt lat="49.164483463391662" lon="-64.805409908294678">
    <ele>0</ele>
    <time>2023-02-13T14:17:56Z</time>
    <name>Halte de Cloridorme (St-Yvon) (toilets, water)</name>
    <cmt>Wc</cmt>
    <desc>Wc</desc>
    <sym>Drinking Water</sym>
    <type>user</type>
    <extensions>
      <gpxx:WaypointExtension>
        <gpxx:DisplayMode>SymbolOnly</gpxx:DisplayMode>
      </gpxx:WaypointExtension>
      <wptx1:WaypointExtension>
        <wptx1:DisplayMode>SymbolOnly</wptx1:DisplayMode>
      </wptx1:WaypointExtension>
      <ctx:CreationTimeExtension>
        <ctx:CreationTime>2023-02-13T14:17:56Z</ctx:CreationTime>
      </ctx:CreationTimeExtension>
    </extensions>
  </wpt>

  <wpt lat="46.547769634053111" lon="-72.133411969989538">
    <ele>0</ele>
    <time>2023-02-13T14:17:56Z</time>
    <name>Halte de Deschaillons (Fenêtre sur le fleuve) (toilets, water, visitors information)</name>
    <cmt>area</cmt>
    <desc>area</desc>
    <sym>Drinking Water</sym>
    <type>user</type>
    <extensions>
      <gpxx:WaypointExtension>
        <gpxx:DisplayMode>SymbolOnly</gpxx:DisplayMode>
      </gpxx:WaypointExtension>
      <wptx1:WaypointExtension>
        <wptx1:DisplayMode>SymbolOnly</wptx1:DisplayMode>
      </wptx1:WaypointExtension>
      <ctx:CreationTimeExtension>
        <ctx:CreationTime>2023-02-13T14:17:56Z</ctx:CreationTime>
      </ctx:CreationTimeExtension>
    </extensions>
  </wpt>

  <wpt lat="47.808805676177144" lon="-69.555901139974594">
    <ele>0</ele>
    <time>2023-02-13T14:17:56Z</time>
    <name>Halte de Fraserville (toilets, water, phone)</name>
    <cmt>area</cmt>
    <desc>area</desc>
    <sym>Drinking Water</sym>
    <type>user</type>
    <extensions>
      <gpxx:WaypointExtension>
        <gpxx:DisplayMode>SymbolOnly</gpxx:DisplayMode>
      </gpxx:WaypointExtension>
      <wptx1:WaypointExtension>
        <wptx1:DisplayMode>SymbolOnly</wptx1:DisplayMode>
      </wptx1:WaypointExtension>
      <ctx:CreationTimeExtension>
        <ctx:CreationTime>2023-02-13T14:17:56Z</ctx:CreationTime>
      </ctx:CreationTimeExtension>
    </extensions>
  </wpt>

  <wpt lat="48.8238275796175" lon="-64.47809717617929">
    <ele>0</ele>
    <time>2023-02-13T14:17:56Z</time>
    <name>Halte de Gaspé (Harbour) (Toilets, water, phone, visitors centre)</name>
    <cmt>area</cmt>
    <desc>area</desc>
    <sym>Drinking Water</sym>
    <type>user</type>
    <extensions>
      <gpxx:WaypointExtension>
        <gpxx:DisplayMode>SymbolOnly</gpxx:DisplayMode>
      </gpxx:WaypointExtension>
      <wptx1:WaypointExtension>
        <wptx1:DisplayMode>SymbolOnly</wptx1:DisplayMode>
      </wptx1:WaypointExtension>
      <ctx:CreationTimeExtension>
        <ctx:CreationTime>2023-02-13T14:17:56Z</ctx:CreationTime>
      </ctx:CreationTimeExtension>
    </extensions>
  </wpt>

  <wpt lat="47.486686706542969" lon="-69.867982864379883">
    <ele>0</ele>
    <time>2023-02-13T14:17:56Z</time>
    <name>Halte de Kamouraska (toilets, water, snacks or vending machine, phone)</name>
    <cmt>Wc</cmt>
    <desc>Wc</desc>
    <sym>Drinking Water</sym>
    <type>user</type>
    <extensions>
      <gpxx:WaypointExtension>
        <gpxx:DisplayMode>SymbolOnly</gpxx:DisplayMode>
      </gpxx:WaypointExtension>
      <wptx1:WaypointExtension>
        <wptx1:DisplayMode>SymbolOnly</wptx1:DisplayMode>
      </wptx1:WaypointExtension>
      <ctx:CreationTimeExtension>
        <ctx:CreationTime>2023-02-13T14:17:56Z</ctx:CreationTime>
      </ctx:CreationTimeExtension>
    </extensions>
  </wpt>

  <wpt lat="48.006434440612793" lon="-69.345831871032715">
    <ele>0</ele>
    <time>2023-02-13T14:17:56Z</time>
    <name>Halte de l'Isle-Verte (toilets, water)</name>
    <cmt>Wc</cmt>
    <desc>Wc</desc>
    <sym>Drinking Water</sym>
    <type>user</type>
    <extensions>
      <gpxx:WaypointExtension>
        <gpxx:DisplayMode>SymbolOnly</gpxx:DisplayMode>
      </gpxx:WaypointExtension>
      <wptx1:WaypointExtension>
        <wptx1:DisplayMode>SymbolOnly</wptx1:DisplayMode>
      </wptx1:WaypointExtension>
      <ctx:CreationTimeExtension>
        <ctx:CreationTime>2023-02-13T14:17:56Z</ctx:CreationTime>
      </ctx:CreationTimeExtension>
    </extensions>
  </wpt>

  <wpt lat="46.640245914459229" lon="-71.948089599609375">
    <ele>0</ele>
    <time>2023-02-13T14:17:56Z</time>
    <name>Halte de la Barre-à-Boulard (toilets, water)</name>
    <cmt>picnic site</cmt>
    <desc>picnic site</desc>
    <sym>Drinking Water</sym>
    <type>user</type>
    <extensions>
      <gpxx:WaypointExtension>
        <gpxx:DisplayMode>SymbolOnly</gpxx:DisplayMode>
      </gpxx:WaypointExtension>
      <wptx1:WaypointExtension>
        <wptx1:DisplayMode>SymbolOnly</wptx1:DisplayMode>
      </wptx1:WaypointExtension>
      <ctx:CreationTimeExtension>
        <ctx:CreationTime>2023-02-13T14:17:56Z</ctx:CreationTime>
      </ctx:CreationTimeExtension>
    </extensions>
  </wpt>

  <wpt lat="46.698160171508789" lon="-71.299295425415039">
    <ele>0</ele>
    <time>2023-02-13T14:17:56Z</time>
    <name>Halte de la Chaudière-Appalaches (toilets, water, phone, snacks or vending machine, visitors centre)</name>
    <cmt>information</cmt>
    <desc>information</desc>
    <sym>Drinking Water</sym>
    <type>user</type>
    <extensions>
      <gpxx:WaypointExtension>
        <gpxx:DisplayMode>SymbolOnly</gpxx:DisplayMode>
      </gpxx:WaypointExtension>
      <wptx1:WaypointExtension>
        <wptx1:DisplayMode>SymbolOnly</wptx1:DisplayMode>
      </wptx1:WaypointExtension>
      <ctx:CreationTimeExtension>
        <ctx:CreationTime>2023-02-13T14:17:56Z</ctx:CreationTime>
      </ctx:CreationTimeExtension>
    </extensions>
  </wpt>

  <wpt lat="46.841862201690674" lon="-70.927026271820068">
    <ele>0</ele>
    <time>2023-02-13T14:17:56Z</time>
    <name>Halte de La Durantaye (toilets, water, snacks or vending machine, phone)</name>
    <cmt>Wc</cmt>
    <desc>Wc</desc>
    <sym>Drinking Water</sym>
    <type>user</type>
    <extensions>
      <gpxx:WaypointExtension>
        <gpxx:DisplayMode>SymbolOnly</gpxx:DisplayMode>
      </gpxx:WaypointExtension>
      <wptx1:WaypointExtension>
        <wptx1:DisplayMode>SymbolOnly</wptx1:DisplayMode>
      </wptx1:WaypointExtension>
      <ctx:CreationTimeExtension>
        <ctx:CreationTime>2023-02-13T14:17:56Z</ctx:CreationTime>
      </ctx:CreationTimeExtension>
    </extensions>
  </wpt>

  <wpt lat="48.853368759155273" lon="-67.529783165082335">
    <ele>0</ele>
    <time>2023-02-13T14:17:56Z</time>
    <name>Halte de la Marina (toilets, water)</name>
    <cmt>Wc</cmt>
    <desc>Wc</desc>
    <sym>Drinking Water</sym>
    <type>user</type>
    <extensions>
      <gpxx:WaypointExtension>
        <gpxx:DisplayMode>SymbolOnly</gpxx:DisplayMode>
      </gpxx:WaypointExtension>
      <wptx1:WaypointExtension>
        <wptx1:DisplayMode>SymbolOnly</wptx1:DisplayMode>
      </wptx1:WaypointExtension>
      <ctx:CreationTimeExtension>
        <ctx:CreationTime>2023-02-13T14:17:56Z</ctx:CreationTime>
      </ctx:CreationTimeExtension>
    </extensions>
  </wpt>

  <wpt lat="49.053289387375116" lon="-64.479187075048685">
    <ele>0</ele>
    <time>2023-02-13T14:17:56Z</time>
    <name>Halte de la Vieille Usine (Saint-Maurice) (toilets, water)</name>
    <cmt>area</cmt>
    <desc>area</desc>
    <sym>Drinking Water</sym>
    <type>user</type>
    <extensions>
      <gpxx:WaypointExtension>
        <gpxx:DisplayMode>SymbolOnly</gpxx:DisplayMode>
      </gpxx:WaypointExtension>
      <wptx1:WaypointExtension>
        <wptx1:DisplayMode>SymbolOnly</wptx1:DisplayMode>
      </wptx1:WaypointExtension>
      <ctx:CreationTimeExtension>
        <ctx:CreationTime>2023-02-13T14:17:56Z</ctx:CreationTime>
      </ctx:CreationTimeExtension>
    </extensions>
  </wpt>

  <wpt lat="48.424231326207519" lon="-67.345162527635694">
    <ele>0</ele>
    <time>2023-02-13T14:17:56Z</time>
    <name>Halte de Lac-au-Saumon (toilets, water, phone)</name>
    <cmt>area</cmt>
    <desc>area</desc>
    <sym>Drinking Water</sym>
    <type>user</type>
    <extensions>
      <gpxx:WaypointExtension>
        <gpxx:DisplayMode>SymbolOnly</gpxx:DisplayMode>
      </gpxx:WaypointExtension>
      <wptx1:WaypointExtension>
        <wptx1:DisplayMode>SymbolOnly</wptx1:DisplayMode>
      </wptx1:WaypointExtension>
      <ctx:CreationTimeExtension>
        <ctx:CreationTime>2023-02-13T14:17:56Z</ctx:CreationTime>
      </ctx:CreationTimeExtension>
    </extensions>
  </wpt>

  <wpt lat="46.610948564484715" lon="-71.95790296420455">
    <ele>0</ele>
    <time>2023-02-13T14:17:56Z</time>
    <name>Halte de Lotbinière (toilets, water, restaurant)</name>
    <cmt>area</cmt>
    <desc>area</desc>
    <sym>Drinking Water</sym>
    <type>user</type>
    <extensions>
      <gpxx:WaypointExtension>
        <gpxx:DisplayMode>SymbolOnly</gpxx:DisplayMode>
      </gpxx:WaypointExtension>
      <wptx1:WaypointExtension>
        <wptx1:DisplayMode>SymbolOnly</wptx1:DisplayMode>
      </wptx1:WaypointExtension>
      <ctx:CreationTimeExtension>
        <ctx:CreationTime>2023-02-13T14:17:56Z</ctx:CreationTime>
      </ctx:CreationTimeExtension>
    </extensions>
  </wpt>

  <wpt lat="47.739773662760854" lon="-69.63747357018292">
    <ele>0</ele>
    <time>2023-02-13T14:17:56Z</time>
    <name>Halte de Notre-Dame-du-Portage (water, toilets)</name>
    <cmt>area</cmt>
    <desc>area</desc>
    <sym>Drinking Water</sym>
    <type>user</type>
    <extensions>
      <gpxx:WaypointExtension>
        <gpxx:DisplayMode>SymbolOnly</gpxx:DisplayMode>
      </gpxx:WaypointExtension>
      <wptx1:WaypointExtension>
        <wptx1:DisplayMode>SymbolOnly</wptx1:DisplayMode>
      </wptx1:WaypointExtension>
      <ctx:CreationTimeExtension>
        <ctx:CreationTime>2023-02-13T14:17:56Z</ctx:CreationTime>
      </ctx:CreationTimeExtension>
    </extensions>
  </wpt>

  <wpt lat="46.847516968846321" lon="-70.923570832237601">
    <ele>0</ele>
    <time>2023-02-13T14:17:56Z</time>
    <name>Halte de Saint-Michel-de-Bellechasse (toilets, water, snacks or vending machine, phone)</name>
    <cmt>area</cmt>
    <desc>area</desc>
    <sym>Drinking Water</sym>
    <type>user</type>
    <extensions>
      <gpxx:WaypointExtension>
        <gpxx:DisplayMode>SymbolOnly</gpxx:DisplayMode>
      </gpxx:WaypointExtension>
      <wptx1:WaypointExtension>
        <wptx1:DisplayMode>SymbolOnly</wptx1:DisplayMode>
      </wptx1:WaypointExtension>
      <ctx:CreationTimeExtension>
        <ctx:CreationTime>2023-02-13T14:17:56Z</ctx:CreationTime>
      </ctx:CreationTimeExtension>
    </extensions>
  </wpt>

  <wpt lat="45.5280034057796" lon="-74.215667825192213">
    <ele>0</ele>
    <time>2023-02-13T14:17:56Z</time>
    <name>Halte de Saint-Placide (toilets, water)</name>
    <cmt>Halte Municipale de St-Placide</cmt>
    <desc>Halte Municipale de St-Placide</desc>
    <sym>Drinking Water</sym>
    <type>user</type>
    <extensions>
      <gpxx:WaypointExtension>
        <gpxx:DisplayMode>SymbolOnly</gpxx:DisplayMode>
      </gpxx:WaypointExtension>
      <wptx1:WaypointExtension>
        <wptx1:DisplayMode>SymbolOnly</wptx1:DisplayMode>
      </wptx1:WaypointExtension>
      <ctx:CreationTimeExtension>
        <ctx:CreationTime>2023-02-13T14:17:56Z</ctx:CreationTime>
      </ctx:CreationTimeExtension>
    </extensions>
  </wpt>

  <wpt lat="46.884683081880212" lon="-70.856306059285998">
    <ele>0</ele>
    <time>2023-02-13T14:17:56Z</time>
    <name>Halte de Saint-Vallier (toilets, water)</name>
    <cmt>area</cmt>
    <desc>area</desc>
    <sym>Drinking Water</sym>
    <type>user</type>
    <extensions>
      <gpxx:WaypointExtension>
        <gpxx:DisplayMode>SymbolOnly</gpxx:DisplayMode>
      </gpxx:WaypointExtension>
      <wptx1:WaypointExtension>
        <wptx1:DisplayMode>SymbolOnly</wptx1:DisplayMode>
      </wptx1:WaypointExtension>
      <ctx:CreationTimeExtension>
        <ctx:CreationTime>2023-02-13T14:17:56Z</ctx:CreationTime>
      </ctx:CreationTimeExtension>
    </extensions>
  </wpt>

  <wpt lat="47.339051384478807" lon="-70.091930804774165">
    <ele>0</ele>
    <time>2023-02-13T14:17:56Z</time>
    <name>Halte de Sainte-Anne-de-la-Pocatière (toilets, water, restaurant)</name>
    <cmt>meadow</cmt>
    <desc>meadow</desc>
    <sym>Drinking Water</sym>
    <type>user</type>
    <extensions>
      <gpxx:WaypointExtension>
        <gpxx:DisplayMode>SymbolOnly</gpxx:DisplayMode>
      </gpxx:WaypointExtension>
      <wptx1:WaypointExtension>
        <wptx1:DisplayMode>SymbolOnly</wptx1:DisplayMode>
      </wptx1:WaypointExtension>
      <ctx:CreationTimeExtension>
        <ctx:CreationTime>2023-02-13T14:17:56Z</ctx:CreationTime>
      </ctx:CreationTimeExtension>
    </extensions>
  </wpt>

  <wpt lat="49.156286716461182" lon="-66.42014273442328">
    <ele>0</ele>
    <time>2023-02-13T14:17:56Z</time>
    <name>Halte de Sainte-Anne-des-Monts (toilets, water, restaurants)</name>
    <cmt>Wc</cmt>
    <desc>Wc</desc>
    <sym>Drinking Water</sym>
    <type>user</type>
    <extensions>
      <gpxx:WaypointExtension>
        <gpxx:DisplayMode>SymbolOnly</gpxx:DisplayMode>
      </gpxx:WaypointExtension>
      <wptx1:WaypointExtension>
        <wptx1:DisplayMode>SymbolOnly</wptx1:DisplayMode>
      </wptx1:WaypointExtension>
      <ctx:CreationTimeExtension>
        <ctx:CreationTime>2023-02-13T14:17:56Z</ctx:CreationTime>
      </ctx:CreationTimeExtension>
    </extensions>
  </wpt>

  <wpt lat="48.539267079904675" lon="-67.560582216829062">
    <ele>0</ele>
    <time>2023-02-13T14:17:56Z</time>
    <name>Halte de Val-Brillant (toilets, drinking water)</name>
    <cmt>forest, park</cmt>
    <desc>forest, park</desc>
    <sym>Drinking Water</sym>
    <type>user</type>
    <extensions>
      <gpxx:WaypointExtension>
        <gpxx:DisplayMode>SymbolOnly</gpxx:DisplayMode>
      </gpxx:WaypointExtension>
      <wptx1:WaypointExtension>
        <wptx1:DisplayMode>SymbolOnly</wptx1:DisplayMode>
      </wptx1:WaypointExtension>
      <ctx:CreationTimeExtension>
        <ctx:CreationTime>2023-02-13T14:17:56Z</ctx:CreationTime>
      </ctx:CreationTimeExtension>
    </extensions>
  </wpt>

  <wpt lat="48.033362729474902" lon="-66.703201532363892">
    <ele>0</ele>
    <time>2023-02-13T14:17:56Z</time>
    <name>Halte des Corsaires-Acadiens-de-la-Petite-Rochelle (toilets, water, visitors information)</name>
    <sym>Drinking Water</sym>
    <type>user</type>
    <extensions>
      <gpxx:WaypointExtension>
        <gpxx:DisplayMode>SymbolOnly</gpxx:DisplayMode>
      </gpxx:WaypointExtension>
      <wptx1:WaypointExtension>
        <wptx1:DisplayMode>SymbolOnly</wptx1:DisplayMode>
      </wptx1:WaypointExtension>
      <ctx:CreationTimeExtension>
        <ctx:CreationTime>2023-02-13T14:17:56Z</ctx:CreationTime>
      </ctx:CreationTimeExtension>
    </extensions>
  </wpt>

  <wpt lat="47.490086071193218" lon="-69.860866963863373">
    <ele>0</ele>
    <time>2023-02-13T14:17:56Z</time>
    <name>Halte des Monadnocks (toilets, water, snacks or vending mahine, phone)</name>
    <cmt>service road</cmt>
    <desc>service road</desc>
    <sym>Drinking Water</sym>
    <type>user</type>
    <extensions>
      <gpxx:WaypointExtension>
        <gpxx:DisplayMode>SymbolOnly</gpxx:DisplayMode>
      </gpxx:WaypointExtension>
      <wptx1:WaypointExtension>
        <wptx1:DisplayMode>SymbolOnly</wptx1:DisplayMode>
      </wptx1:WaypointExtension>
      <ctx:CreationTimeExtension>
        <ctx:CreationTime>2023-02-13T14:17:56Z</ctx:CreationTime>
      </ctx:CreationTimeExtension>
    </extensions>
  </wpt>

  <wpt lat="47.030686363577843" lon="-70.469066826626658">
    <ele>0</ele>
    <time>2023-02-13T14:17:56Z</time>
    <name>Halte du Cap-Saint-Ignace (toilets, water, visitors information)</name>
    <cmt>residential area</cmt>
    <desc>residential area</desc>
    <sym>Drinking Water</sym>
    <type>user</type>
    <extensions>
      <gpxx:WaypointExtension>
        <gpxx:DisplayMode>SymbolOnly</gpxx:DisplayMode>
      </gpxx:WaypointExtension>
      <wptx1:WaypointExtension>
        <wptx1:DisplayMode>SymbolOnly</wptx1:DisplayMode>
      </wptx1:WaypointExtension>
      <ctx:CreationTimeExtension>
        <ctx:CreationTime>2023-02-13T14:17:56Z</ctx:CreationTime>
      </ctx:CreationTimeExtension>
    </extensions>
  </wpt>

  <wpt lat="48.788111535832286" lon="-67.697087964043021">
    <ele>0</ele>
    <time>2023-02-13T14:17:56Z</time>
    <name>Halte du Parc des Rives (toilets, water)</name>
    <cmt>area</cmt>
    <desc>area</desc>
    <sym>Drinking Water</sym>
    <type>user</type>
    <extensions>
      <gpxx:WaypointExtension>
        <gpxx:DisplayMode>SymbolOnly</gpxx:DisplayMode>
      </gpxx:WaypointExtension>
      <wptx1:WaypointExtension>
        <wptx1:DisplayMode>SymbolOnly</wptx1:DisplayMode>
      </wptx1:WaypointExtension>
      <ctx:CreationTimeExtension>
        <ctx:CreationTime>2023-02-13T14:17:56Z</ctx:CreationTime>
      </ctx:CreationTimeExtension>
    </extensions>
  </wpt>

  <wpt lat="49.125482887029648" lon="-66.501341164112091">
    <ele>0</ele>
    <time>2023-02-13T14:17:56Z</time>
    <name>Halte du Parc Multi-sports (toilets, water)</name>
    <cmt>area</cmt>
    <desc>area</desc>
    <sym>Drinking Water</sym>
    <type>user</type>
    <extensions>
      <gpxx:WaypointExtension>
        <gpxx:DisplayMode>SymbolOnly</gpxx:DisplayMode>
      </gpxx:WaypointExtension>
      <wptx1:WaypointExtension>
        <wptx1:DisplayMode>SymbolOnly</wptx1:DisplayMode>
      </wptx1:WaypointExtension>
      <ctx:CreationTimeExtension>
        <ctx:CreationTime>2023-02-13T14:17:56Z</ctx:CreationTime>
      </ctx:CreationTimeExtension>
    </extensions>
  </wpt>

  <wpt lat="49.250829219818115" lon="-65.325307762250304">
    <ele>0</ele>
    <time>2023-02-13T14:17:56Z</time>
    <name>Halte Du Phare (toilets, drinking water, resturants)</name>
    <cmt>Halte Du Phare</cmt>
    <desc>Halte Du Phare</desc>
    <sym>Drinking Water</sym>
    <type>user</type>
    <extensions>
      <gpxx:WaypointExtension>
        <gpxx:DisplayMode>SymbolOnly</gpxx:DisplayMode>
      </gpxx:WaypointExtension>
      <wptx1:WaypointExtension>
        <wptx1:DisplayMode>SymbolOnly</wptx1:DisplayMode>
      </wptx1:WaypointExtension>
      <ctx:CreationTimeExtension>
        <ctx:CreationTime>2023-02-13T14:17:56Z</ctx:CreationTime>
      </ctx:CreationTimeExtension>
    </extensions>
  </wpt>

  <wpt lat="46.39741170220077" lon="-72.444311259314418">
    <ele>0</ele>
    <time>2023-02-13T14:17:56Z</time>
    <name>Halte Notre-Dame-de-la-Rive (toilets, water)</name>
    <cmt>area</cmt>
    <desc>area</desc>
    <sym>Drinking Water</sym>
    <type>user</type>
    <extensions>
      <gpxx:WaypointExtension>
        <gpxx:DisplayMode>SymbolOnly</gpxx:DisplayMode>
      </gpxx:WaypointExtension>
      <wptx1:WaypointExtension>
        <wptx1:DisplayMode>SymbolOnly</wptx1:DisplayMode>
      </wptx1:WaypointExtension>
      <ctx:CreationTimeExtension>
        <ctx:CreationTime>2023-02-13T14:17:56Z</ctx:CreationTime>
      </ctx:CreationTimeExtension>
    </extensions>
  </wpt>

  <wpt lat="48.683918779715896" lon="-67.964321561157703">
    <ele>0</ele>
    <time>2023-02-13T14:17:56Z</time>
    <name>Halte-sur-Mer (toilets, water, wifi)</name>
    <cmt>area</cmt>
    <desc>area</desc>
    <sym>Drinking Water</sym>
    <type>user</type>
    <extensions>
      <gpxx:WaypointExtension>
        <gpxx:DisplayMode>SymbolOnly</gpxx:DisplayMode>
      </gpxx:WaypointExtension>
      <wptx1:WaypointExtension>
        <wptx1:DisplayMode>SymbolOnly</wptx1:DisplayMode>
      </wptx1:WaypointExtension>
      <ctx:CreationTimeExtension>
        <ctx:CreationTime>2023-02-13T14:17:56Z</ctx:CreationTime>
      </ctx:CreationTimeExtension>
    </extensions>
  </wpt>

  <wpt lat="51.184380138292909" lon="-116.11952296458185">
    <ele>0</ele>
    <time>2023-02-13T14:17:56Z</time>
    <name>Marble Canyon Campground (Kootenay National Park) (Toilets, water)</name>
    <cmt>Marble Canyon Campground&lt;br&gt;&lt;br&gt; (Kootenay National Park)</cmt>
    <desc>Marble Canyon Campground&lt;br&gt;&lt;br&gt; (Kootenay National Park)</desc>
    <sym>Drinking Water</sym>
    <type>user</type>
    <extensions>
      <gpxx:WaypointExtension>
        <gpxx:DisplayMode>SymbolOnly</gpxx:DisplayMode>
      </gpxx:WaypointExtension>
      <wptx1:WaypointExtension>
        <wptx1:DisplayMode>SymbolOnly</wptx1:DisplayMode>
      </wptx1:WaypointExtension>
      <ctx:CreationTimeExtension>
        <ctx:CreationTime>2023-02-13T14:17:56Z</ctx:CreationTime>
      </ctx:CreationTimeExtension>
    </extensions>
  </wpt>

  <wpt lat="48.509025173261762" lon="-123.36607228964567">
    <ele>0</ele>
    <time>2023-02-13T14:17:56Z</time>
    <name>Mcminn Park - water</name>
    <cmt>McMinn Park</cmt>
    <desc>McMinn Park</desc>
    <sym>Drinking Water</sym>
    <type>user</type>
    <extensions>
      <gpxx:WaypointExtension>
        <gpxx:DisplayMode>SymbolOnly</gpxx:DisplayMode>
      </gpxx:WaypointExtension>
      <wptx1:WaypointExtension>
        <wptx1:DisplayMode>SymbolOnly</wptx1:DisplayMode>
      </wptx1:WaypointExtension>
      <ctx:CreationTimeExtension>
        <ctx:CreationTime>2023-02-13T14:17:56Z</ctx:CreationTime>
      </ctx:CreationTimeExtension>
    </extensions>
  </wpt>

  <wpt lat="46.288332883268595" lon="-72.699539959430695">
    <ele>0</ele>
    <time>2023-02-13T14:17:56Z</time>
    <name>Parc du Lac-Saint-Pierre (toilets, water, snacks or vending machine)</name>
    <cmt>area</cmt>
    <desc>area</desc>
    <sym>Drinking Water</sym>
    <type>user</type>
    <extensions>
      <gpxx:WaypointExtension>
        <gpxx:DisplayMode>SymbolOnly</gpxx:DisplayMode>
      </gpxx:WaypointExtension>
      <wptx1:WaypointExtension>
        <wptx1:DisplayMode>SymbolOnly</wptx1:DisplayMode>
      </wptx1:WaypointExtension>
      <ctx:CreationTimeExtension>
        <ctx:CreationTime>2023-02-13T14:17:56Z</ctx:CreationTime>
      </ctx:CreationTimeExtension>
    </extensions>
  </wpt>

  <wpt lat="48.587143588811159" lon="-68.286090334877372">
    <ele>0</ele>
    <time>2023-02-13T14:17:56Z</time>
    <name>Place Clément-Chouinard (toilets, water, restaurant)</name>
    <cmt>area</cmt>
    <desc>area</desc>
    <sym>Drinking Water</sym>
    <type>user</type>
    <extensions>
      <gpxx:WaypointExtension>
        <gpxx:DisplayMode>SymbolOnly</gpxx:DisplayMode>
      </gpxx:WaypointExtension>
      <wptx1:WaypointExtension>
        <wptx1:DisplayMode>SymbolOnly</wptx1:DisplayMode>
      </wptx1:WaypointExtension>
      <ctx:CreationTimeExtension>
        <ctx:CreationTime>2023-02-13T14:17:56Z</ctx:CreationTime>
      </ctx:CreationTimeExtension>
    </extensions>
  </wpt>

  <wpt lat="48.833923917263746" lon="-87.519597038626671">
    <time>2023-06-14T20:07:40Z</time>
    <name>Potable Water at Marina</name>
    <sym>Drinking Water</sym>
    <type>user</type>
    <extensions>
      <gpxx:WaypointExtension>
        <gpxx:DisplayMode>SymbolOnly</gpxx:DisplayMode>
      </gpxx:WaypointExtension>
      <wptx1:WaypointExtension>
        <wptx1:DisplayMode>SymbolOnly</wptx1:DisplayMode>
      </wptx1:WaypointExtension>
      <ctx:CreationTimeExtension>
        <ctx:CreationTime>2023-06-14T20:07:40Z</ctx:CreationTime>
      </ctx:CreationTimeExtension>
    </extensions>
  </wpt>

  <wpt lat="48.475992679595947" lon="-123.35972785949707">
    <ele>0</ele>
    <time>2023-02-13T14:17:56Z</time>
    <name>Water</name>
    <cmt>Water</cmt>
    <desc>Water</desc>
    <sym>Drinking Water</sym>
    <type>user</type>
    <extensions>
      <gpxx:WaypointExtension>
        <gpxx:DisplayMode>SymbolOnly</gpxx:DisplayMode>
      </gpxx:WaypointExtension>
      <wptx1:WaypointExtension>
        <wptx1:DisplayMode>SymbolOnly</wptx1:DisplayMode>
      </wptx1:WaypointExtension>
      <ctx:CreationTimeExtension>
        <ctx:CreationTime>2023-02-13T14:17:56Z</ctx:CreationTime>
      </ctx:CreationTimeExtension>
    </extensions>
  </wpt>

  <wpt lat="46.30022780969739" lon="-79.459608737379313">
    <ele>0</ele>
    <time>2023-02-13T14:17:56Z</time>
    <name>Water Bottle Fill Station  Lee Park.</name>
    <cmt>Part of the public washroom at the park. </cmt>
    <desc>Part of the public washroom at the park. </desc>
    <sym>Drinking Water</sym>
    <type>user</type>
    <extensions>
      <gpxx:WaypointExtension>
        <gpxx:DisplayMode>SymbolOnly</gpxx:DisplayMode>
      </gpxx:WaypointExtension>
      <wptx1:WaypointExtension>
        <wptx1:DisplayMode>SymbolOnly</wptx1:DisplayMode>
      </wptx1:WaypointExtension>
      <ctx:CreationTimeExtension>
        <ctx:CreationTime>2023-02-13T14:17:56Z</ctx:CreationTime>
      </ctx:CreationTimeExtension>
    </extensions>
  </wpt>

  <wpt lat="48.410117626190186" lon="-123.37414741516113">
    <ele>0</ele>
    <time>2023-02-13T14:17:56Z</time>
    <name>Water by Harrison Yacht Pond</name>
    <cmt>Water</cmt>
    <desc>Water</desc>
    <sym>Drinking Water</sym>
    <type>user</type>
    <extensions>
      <gpxx:WaypointExtension>
        <gpxx:DisplayMode>SymbolOnly</gpxx:DisplayMode>
      </gpxx:WaypointExtension>
      <wptx1:WaypointExtension>
        <wptx1:DisplayMode>SymbolOnly</wptx1:DisplayMode>
      </wptx1:WaypointExtension>
      <ctx:CreationTimeExtension>
        <ctx:CreationTime>2023-02-13T14:17:56Z</ctx:CreationTime>
      </ctx:CreationTimeExtension>
    </extensions>
  </wpt>

  <wpt lat="46.258292393758893" lon="-79.409986026585102">
    <ele>0</ele>
    <time>2023-02-13T14:17:56Z</time>
    <name>Water Fill Station Omischl Sports Complex</name>
    <cmt>Outdoor taps available.  Washroom facilities.</cmt>
    <desc>Outdoor taps available.  Washroom facilities.</desc>
    <sym>Drinking Water</sym>
    <type>user</type>
    <extensions>
      <gpxx:WaypointExtension>
        <gpxx:DisplayMode>SymbolOnly</gpxx:DisplayMode>
      </gpxx:WaypointExtension>
      <wptx1:WaypointExtension>
        <wptx1:DisplayMode>SymbolOnly</wptx1:DisplayMode>
      </wptx1:WaypointExtension>
      <ctx:CreationTimeExtension>
        <ctx:CreationTime>2023-02-13T14:17:56Z</ctx:CreationTime>
      </ctx:CreationTimeExtension>
    </extensions>
  </wpt>

  <wpt lat="48.456087503582239" lon="-123.37770972400904">
    <ele>0</ele>
    <time>2023-02-13T14:17:56Z</time>
    <name>Water fountain (seasonal)</name>
    <cmt>area</cmt>
    <desc>area</desc>
    <sym>Drinking Water</sym>
    <type>user</type>
    <extensions>
      <gpxx:WaypointExtension>
        <gpxx:DisplayMode>SymbolOnly</gpxx:DisplayMode>
      </gpxx:WaypointExtension>
      <wptx1:WaypointExtension>
        <wptx1:DisplayMode>SymbolOnly</wptx1:DisplayMode>
      </wptx1:WaypointExtension>
      <ctx:CreationTimeExtension>
        <ctx:CreationTime>2023-02-13T14:17:56Z</ctx:CreationTime>
      </ctx:CreationTimeExtension>
    </extensions>
  </wpt>

  <wpt lat="48.437878489494324" lon="-123.38314823806286">
    <ele>0</ele>
    <time>2023-02-13T14:17:56Z</time>
    <name>Water fountain at Selkirk Trestle</name>
    <cmt>forest, park</cmt>
    <desc>forest, park</desc>
    <sym>Drinking Water</sym>
    <type>user</type>
    <extensions>
      <gpxx:WaypointExtension>
        <gpxx:DisplayMode>SymbolOnly</gpxx:DisplayMode>
      </gpxx:WaypointExtension>
      <wptx1:WaypointExtension>
        <wptx1:DisplayMode>SymbolOnly</wptx1:DisplayMode>
      </wptx1:WaypointExtension>
      <ctx:CreationTimeExtension>
        <ctx:CreationTime>2023-02-13T14:17:56Z</ctx:CreationTime>
      </ctx:CreationTimeExtension>
    </extensions>
  </wpt>

  <wpt lat="49.063675403594971" lon="-120.78598737716675">
    <ele>0</ele>
    <time>2023-02-13T14:17:56Z</time>
    <name>Water1</name>
    <cmt>Water</cmt>
    <desc>Water</desc>
    <sym>Drinking Water</sym>
    <type>user</type>
    <extensions>
      <gpxx:WaypointExtension>
        <gpxx:DisplayMode>SymbolOnly</gpxx:DisplayMode>
      </gpxx:WaypointExtension>
      <wptx1:WaypointExtension>
        <wptx1:DisplayMode>SymbolOnly</wptx1:DisplayMode>
      </wptx1:WaypointExtension>
      <ctx:CreationTimeExtension>
        <ctx:CreationTime>2023-02-13T14:17:56Z</ctx:CreationTime>
      </ctx:CreationTimeExtension>
    </extensions>
  </wpt>

  <wpt lat="48.593881130218506" lon="-123.39740753173828">
    <ele>0</ele>
    <time>2023-02-13T14:17:56Z</time>
    <name>Water2</name>
    <cmt>Water</cmt>
    <desc>Water</desc>
    <sym>Drinking Water</sym>
    <type>user</type>
    <extensions>
      <gpxx:WaypointExtension>
        <gpxx:DisplayMode>SymbolOnly</gpxx:DisplayMode>
      </gpxx:WaypointExtension>
      <wptx1:WaypointExtension>
        <wptx1:DisplayMode>SymbolOnly</wptx1:DisplayMode>
      </wptx1:WaypointExtension>
      <ctx:CreationTimeExtension>
        <ctx:CreationTime>2023-02-13T14:17:56Z</ctx:CreationTime>
      </ctx:CreationTimeExtension>
    </extensions>
  </wpt>

</gpx>