<?xml version="1.0" encoding="utf-8"?><gpx creator="Garmin Desktop App" version="1.1" xsi:schemaLocation="http://www.topografix.com/GPX/1/1 http://www.topografix.com/GPX/1/1/gpx.xsd http://www.garmin.com/xmlschemas/WaypointExtension/v1 http://www8.garmin.com/xmlschemas/WaypointExtensionv1.xsd http://www.garmin.com/xmlschemas/TrackPointExtension/v1 http://www.garmin.com/xmlschemas/TrackPointExtensionv1.xsd http://www.garmin.com/xmlschemas/GpxExtensions/v3 http://www8.garmin.com/xmlschemas/GpxExtensionsv3.xsd http://www.garmin.com/xmlschemas/ActivityExtension/v1 http://www8.garmin.com/xmlschemas/ActivityExtensionv1.xsd http://www.garmin.com/xmlschemas/AdventuresExtensions/v1 http://www8.garmin.com/xmlschemas/AdventuresExtensionv1.xsd http://www.garmin.com/xmlschemas/PressureExtension/v1 http://www.garmin.com/xmlschemas/PressureExtensionv1.xsd http://www.garmin.com/xmlschemas/TripExtensions/v1 http://www.garmin.com/xmlschemas/TripExtensionsv1.xsd http://www.garmin.com/xmlschemas/TripMetaDataExtensions/v1 http://www.garmin.com/xmlschemas/TripMetaDataExtensionsv1.xsd http://www.garmin.com/xmlschemas/ViaPointTransportationModeExtensions/v1 http://www.garmin.com/xmlschemas/ViaPointTransportationModeExtensionsv1.xsd http://www.garmin.com/xmlschemas/CreationTimeExtension/v1 http://www.garmin.com/xmlschemas/CreationTimeExtensionsv1.xsd http://www.garmin.com/xmlschemas/AccelerationExtension/v1 http://www.garmin.com/xmlschemas/AccelerationExtensionv1.xsd http://www.garmin.com/xmlschemas/PowerExtension/v1 http://www.garmin.com/xmlschemas/PowerExtensionv1.xsd http://www.garmin.com/xmlschemas/VideoExtension/v1 http://www.garmin.com/xmlschemas/VideoExtensionv1.xsd" xmlns="http://www.topografix.com/GPX/1/1" xmlns:xsi="http://www.w3.org/2001/XMLSchema-instance" xmlns:wptx1="http://www.garmin.com/xmlschemas/WaypointExtension/v1" xmlns:gpxtrx="http://www.garmin.com/xmlschemas/GpxExtensions/v3" xmlns:gpxtpx="http://www.garmin.com/xmlschemas/TrackPointExtension/v1" xmlns:gpxx="http://www.garmin.com/xmlschemas/GpxExtensions/v3" xmlns:trp="http://www.garmin.com/xmlschemas/TripExtensions/v1" xmlns:adv="http://www.garmin.com/xmlschemas/AdventuresExtensions/v1" xmlns:prs="http://www.garmin.com/xmlschemas/PressureExtension/v1" xmlns:tmd="http://www.garmin.com/xmlschemas/TripMetaDataExtensions/v1" xmlns:vptm="http://www.garmin.com/xmlschemas/ViaPointTransportationModeExtensions/v1" xmlns:ctx="http://www.garmin.com/xmlschemas/CreationTimeExtension/v1" xmlns:gpxacc="http://www.garmin.com/xmlschemas/AccelerationExtension/v1" xmlns:gpxpx="http://www.garmin.com/xmlschemas/PowerExtension/v1" xmlns:vidx1="http://www.garmin.com/xmlschemas/VideoExtension/v1">

  <metadata>
    <link href="http://www.garmin.com">
      <text>Garmin International</text>
    </link>
    <time>2026-10-04T13:44:46Z</time>
    <bounds maxlat="50.390042765066028" maxlon="-64.555020332336426" minlat="44.744216585531831" minlon="-125.90964236296713" />
  </metadata>

  <wpt lat="45.423724735155702" lon="-75.698697566986084">
    <ele>0</ele>
    <time>2026-06-27T16:54:51Z</time>
    <name>Centennial Flame (Ottawa, ON)</name>
    <cmt>&lt;img src="https://www.canada.ca/content/dam/pspc-spac/images/services/infrastructure-buildings/parliamentary-precinct/terrains-grounds3.jpg"&gt;
The Centennial Flame is a major feature on the Parliament Hill grounds. You will find it just inside the Queen’s Gate in front of the Peace Tower.

It was originally built as a temporary monument. Prime Minister Lester B. Pearson lit the flame for the first time on December 31, 1966, to open the celebrations of Canada's 100th anniversary of Confederation. Canadians loved the monument so much that it became a permanent feature.

Text &amp; Image Source: https://www.canada.ca/en/public-services-procurement/services/infrastructure-buildings/parliamentary-precinct/discover/grounds.html</cmt>
    <desc>&lt;img src="https://www.canada.ca/content/dam/pspc-spac/images/services/infrastructure-buildings/parliamentary-precinct/terrains-grounds3.jpg"&gt;
The Centennial Flame is a major feature on the Parliament Hill grounds. You will find it just inside the Queen’s Gate in front of the Peace Tower.

It was originally built as a temporary monument. Prime Minister Lester B. Pearson lit the flame for the first time on December 31, 1966, to open the celebrations of Canada's 100th anniversary of Confederation. Canadians loved the monument so much that it became a permanent feature.

Text &amp; Image Source: https://www.canada.ca/en/public-services-procurement/services/infrastructure-buildings/parliamentary-precinct/discover/grounds.html</desc>
    <link href="https://www.canada.ca/en/public-services-procurement/services/infrastructure-buildings/parliamentary-precinct/discover/grounds.html" />
    <sym>Scenic Area</sym>
    <type>user</type>
    <extensions>
      <gpxx:WaypointExtension>
        <gpxx:DisplayMode>SymbolAndName</gpxx:DisplayMode>
        <gpxx:Address>
          <gpxx:City>Ottawa</gpxx:City>
          <gpxx:State>Ontario</gpxx:State>
          <gpxx:Country>Canada</gpxx:Country>
        </gpxx:Address>
      </gpxx:WaypointExtension>
      <wptx1:WaypointExtension>
        <wptx1:DisplayMode>SymbolAndName</wptx1:DisplayMode>
        <wptx1:Address>
          <wptx1:City>Ottawa</wptx1:City>
          <wptx1:State>Ontario</wptx1:State>
          <wptx1:Country>Canada</wptx1:Country>
        </wptx1:Address>
      </wptx1:WaypointExtension>
      <ctx:CreationTimeExtension>
        <ctx:CreationTime>2026-06-27T16:54:51Z</ctx:CreationTime>
      </ctx:CreationTimeExtension>
    </extensions>
  </wpt>

  <wpt lat="49.154089568182826" lon="-125.90964236296713">
    <ele>0</ele>
    <time>2026-06-27T16:54:51Z</time>
    <name>Pacific Terminus of Trans-Canada Highway sign (Tofino, BC)</name>
    <cmt>&lt;img src="https://upload.wikimedia.org/wikipedia/commons/d/d8/Trans_Canada_Highway_Terminus_%286886239392%29.jpg"&gt;

"
Road across Canada ends in Tofino, locals say
TOFINO -- The black-and-white sign in Tofino's harbour is a pretty low-key affair, an arched orca adding a decorative flourish at the top, but there's nothing modest about the statement it makes.
..
It's literally at the end of the road  beyond it is the water's edge, a wooden wharf and the green mountainous backdrop of Meares Island in Clayoquot Sound.
..
That road stretches for some 8,000 kilometres to St. John's, N.L., at the other end of Canada.

The sign declares the spot on the west coast of Vancouver Island to be the "Pacific terminus" of the Trans-Canada Highway. Trouble is, it isn't  at least, not officially.
"

Text Source = https://www.timescolonist.com/life/travel/road-across-canada-ends-in-tofino-locals-say-4562904
Image source = https://commons.wikimedia.org/wiki/File:Trans_Canada_Highway_Terminus_(6886239392).jpg</cmt>
    <desc>&lt;img src="https://upload.wikimedia.org/wikipedia/commons/d/d8/Trans_Canada_Highway_Terminus_%286886239392%29.jpg"&gt;

"
Road across Canada ends in Tofino, locals say
TOFINO -- The black-and-white sign in Tofino's harbour is a pretty low-key affair, an arched orca adding a decorative flourish at the top, but there's nothing modest about the statement it makes.
..
It's literally at the end of the road  beyond it is the water's edge, a wooden wharf and the green mountainous backdrop of Meares Island in Clayoquot Sound.
..
That road stretches for some 8,000 kilometres to St. John's, N.L., at the other end of Canada.

The sign declares the spot on the west coast of Vancouver Island to be the "Pacific terminus" of the Trans-Canada Highway. Trouble is, it isn't  at least, not officially.
"

Text Source = https://www.timescolonist.com/life/travel/road-across-canada-ends-in-tofino-locals-say-4562904
Image source = https://commons.wikimedia.org/wiki/File:Trans_Canada_Highway_Terminus_(6886239392).jpg</desc>
    <link href="https://www.timescolonist.com/life/travel/road-across-canada-ends-in-tofino-locals-say-4562904" />
    <sym>Scenic Area</sym>
    <type>user</type>
    <extensions>
      <gpxx:WaypointExtension>
        <gpxx:DisplayMode>SymbolAndName</gpxx:DisplayMode>
        <gpxx:Address>
          <gpxx:City>Tofino</gpxx:City>
          <gpxx:State>BC</gpxx:State>
          <gpxx:Country>Canada</gpxx:Country>
        </gpxx:Address>
      </gpxx:WaypointExtension>
      <wptx1:WaypointExtension>
        <wptx1:DisplayMode>SymbolAndName</wptx1:DisplayMode>
        <wptx1:Address>
          <wptx1:City>Tofino</wptx1:City>
          <wptx1:State>BC</wptx1:State>
          <wptx1:Country>Canada</wptx1:Country>
        </wptx1:Address>
      </wptx1:WaypointExtension>
      <ctx:CreationTimeExtension>
        <ctx:CreationTime>2026-06-27T16:54:51Z</ctx:CreationTime>
      </ctx:CreationTimeExtension>
    </extensions>
  </wpt>

  <wpt lat="46.21873140335083" lon="-64.555020332336426">
    <ele>0</ele>
    <time>2026-06-27T16:54:51Z</time>
    <name>The Giant Lobster (Shediac, NB)</name>
    <cmt>&lt;img src="https://tourismnewbrunswick.ca/sites/default/files/styles/listing_hero/public/images/wiki/P_TheWorldsLargestLobs_1.jpg"&gt;
Unveiled on June 30, 1990, this impressive sculpture, made of reinforced concrete, is no doubt Shediac’s most emblematic monument. The sculpture measures 10.7 metres in length, five metres in height, and weighs 90 tonnes. It was created and constructed by New Brunswick sculptor Winston Bronnum (1929-1991), known for his large, full-scale animal sculptures. As impressive as the Giant Lobster’s size is, it also reflects the crustacean’s real-life anatomy. The statue was commissioned by the Shediac Rotary Club, whose members were the project’s initiators and masterminds.

The Giant Lobster is, beyond a doubt, one of the Maritimes’ most photographed tourist attractions. It also speaks to Shediac’s long history in the fishing industry, earning the town the title of Lobster Capital of the World around the middle of the 20th century. The sight of this impressive monument lends credence to the title.

Source: https://shediac.ca/en/community-life/recreational-facilities/the-giant-lobster
Image Source: https://tourismnewbrunswick.ca/listing/worlds-largest-lobster</cmt>
    <desc>&lt;img src="https://tourismnewbrunswick.ca/sites/default/files/styles/listing_hero/public/images/wiki/P_TheWorldsLargestLobs_1.jpg"&gt;
Unveiled on June 30, 1990, this impressive sculpture, made of reinforced concrete, is no doubt Shediac’s most emblematic monument. The sculpture measures 10.7 metres in length, five metres in height, and weighs 90 tonnes. It was created and constructed by New Brunswick sculptor Winston Bronnum (1929-1991), known for his large, full-scale animal sculptures. As impressive as the Giant Lobster’s size is, it also reflects the crustacean’s real-life anatomy. The statue was commissioned by the Shediac Rotary Club, whose members were the project’s initiators and masterminds.

The Giant Lobster is, beyond a doubt, one of the Maritimes’ most photographed tourist attractions. It also speaks to Shediac’s long history in the fishing industry, earning the town the title of Lobster Capital of the World around the middle of the 20th century. The sight of this impressive monument lends credence to the title.

Source: https://shediac.ca/en/community-life/recreational-facilities/the-giant-lobster
Image Source: https://tourismnewbrunswick.ca/listing/worlds-largest-lobster</desc>
    <link href="https://shediac.ca/en/community-life/recreational-facilities/the-giant-lobster" />
    <sym>Scenic Area</sym>
    <type>user</type>
    <extensions>
      <gpxx:WaypointExtension>
        <gpxx:DisplayMode>SymbolAndName</gpxx:DisplayMode>
        <gpxx:Address>
          <gpxx:StreetAddress>229 Main St</gpxx:StreetAddress>
          <gpxx:City>Shediac</gpxx:City>
          <gpxx:State>New Brunswick</gpxx:State>
          <gpxx:Country>Canada</gpxx:Country>
          <gpxx:PostalCode>E4P 2A5</gpxx:PostalCode>
        </gpxx:Address>
      </gpxx:WaypointExtension>
      <wptx1:WaypointExtension>
        <wptx1:DisplayMode>SymbolAndName</wptx1:DisplayMode>
        <wptx1:Address>
          <wptx1:StreetAddress>229 Main St</wptx1:StreetAddress>
          <wptx1:City>Shediac</wptx1:City>
          <wptx1:State>New Brunswick</wptx1:State>
          <wptx1:Country>Canada</wptx1:Country>
          <wptx1:PostalCode>E4P 2A5</wptx1:PostalCode>
        </wptx1:Address>
      </wptx1:WaypointExtension>
      <ctx:CreationTimeExtension>
        <ctx:CreationTime>2026-06-27T16:54:51Z</ctx:CreationTime>
      </ctx:CreationTimeExtension>
    </extensions>
  </wpt>

  <wpt lat="50.390042765066028" lon="-105.53502386435866">
    <ele>0</ele>
    <time>2026-06-27T16:54:51Z</time>
    <name>Tunnels of Moose Jaw (Moose Jaw, SK)</name>
    <cmt>&lt;img src="https://live.staticflickr.com/1411/922033219_21edffe20e_b.jpg"
Local Folklore: Popular urban legends claim the tunnels were used by early Chinese immigrants hiding from persecution or by American gangsters—most famously Al Capone—during the Prohibition era for bootlegging. While historical proof for these specific legends is sparse, the lore inspired a major commercial tourist attraction launched in 2000.
Text source = https://en.wikipedia.org/wiki/Moose_Jaw#Museums
Image source = https://www.flickr.com/photos/canadarideforclimate/922033219/</cmt>
    <desc>&lt;img src="https://live.staticflickr.com/1411/922033219_21edffe20e_b.jpg"
Local Folklore: Popular urban legends claim the tunnels were used by early Chinese immigrants hiding from persecution or by American gangsters—most famously Al Capone—during the Prohibition era for bootlegging. While historical proof for these specific legends is sparse, the lore inspired a major commercial tourist attraction launched in 2000.
Text source = https://en.wikipedia.org/wiki/Moose_Jaw#Museums
Image source = https://www.flickr.com/photos/canadarideforclimate/922033219/</desc>
    <link href="https://en.wikipedia.org/wiki/Moose_Jaw#Museums" />
    <sym>Scenic Area</sym>
    <type>user</type>
    <extensions>
      <gpxx:WaypointExtension>
        <gpxx:DisplayMode>SymbolAndName</gpxx:DisplayMode>
        <gpxx:Address>
          <gpxx:City>Moose Jaw</gpxx:City>
          <gpxx:State>SK</gpxx:State>
          <gpxx:Country>Canada</gpxx:Country>
        </gpxx:Address>
      </gpxx:WaypointExtension>
      <wptx1:WaypointExtension>
        <wptx1:DisplayMode>SymbolAndName</wptx1:DisplayMode>
        <wptx1:Address>
          <wptx1:City>Moose Jaw</wptx1:City>
          <wptx1:State>SK</wptx1:State>
          <wptx1:Country>Canada</wptx1:Country>
        </wptx1:Address>
      </wptx1:WaypointExtension>
      <ctx:CreationTimeExtension>
        <ctx:CreationTime>2026-06-27T16:54:51Z</ctx:CreationTime>
      </ctx:CreationTimeExtension>
    </extensions>
  </wpt>

  <wpt lat="44.744216585531831" lon="-81.136715663596988">
    <ele>0</ele>
    <time>2026-06-27T16:54:51Z</time>
    <name>Wiarton Willie Statue (Wiarton, ON)</name>
    <cmt>&lt;img src="https://thumb.wikimedia.org/wikipedia/commons/thumb/4/4f/Wiarton_Willie_Park_%2847508970351%29.jpg/960px-Wiarton_Willie_Park_%2847508970351%29.jpg"&gt;
Every February 2nd, anticipation fills the air as people from all corners of the globe eagerly await the prediction from our famed groundhog. With all eyes on Wiarton Willie, the question lingers: will he cast a shadow, foretelling six more weeks of winter, or will his absence of a shadow herald an early spring?
Text Source = https://southbrucepeninsula.com/parks-recreation-culture/events-festivals/wiarton-willie/
Image Source = https://en.wikipedia.org/wiki/Wiarton_Willie#/media/File:Wiarton_Willie_Park_(47508970351).jpg</cmt>
    <desc>&lt;img src="https://thumb.wikimedia.org/wikipedia/commons/thumb/4/4f/Wiarton_Willie_Park_%2847508970351%29.jpg/960px-Wiarton_Willie_Park_%2847508970351%29.jpg"&gt;
Every February 2nd, anticipation fills the air as people from all corners of the globe eagerly await the prediction from our famed groundhog. With all eyes on Wiarton Willie, the question lingers: will he cast a shadow, foretelling six more weeks of winter, or will his absence of a shadow herald an early spring?
Text Source = https://southbrucepeninsula.com/parks-recreation-culture/events-festivals/wiarton-willie/
Image Source = https://en.wikipedia.org/wiki/Wiarton_Willie#/media/File:Wiarton_Willie_Park_(47508970351).jpg</desc>
    <link href="https://southbrucepeninsula.com/parks-recreation-culture/events-festivals/wiarton-willie/" />
    <sym>Scenic Area</sym>
    <type>user</type>
    <extensions>
      <gpxx:WaypointExtension>
        <gpxx:DisplayMode>SymbolAndName</gpxx:DisplayMode>
        <gpxx:Address>
          <gpxx:City>Wiarton</gpxx:City>
          <gpxx:State>ON</gpxx:State>
          <gpxx:Country>Canada</gpxx:Country>
        </gpxx:Address>
      </gpxx:WaypointExtension>
      <wptx1:WaypointExtension>
        <wptx1:DisplayMode>SymbolAndName</wptx1:DisplayMode>
        <wptx1:Address>
          <wptx1:City>Wiarton</wptx1:City>
          <wptx1:State>ON</wptx1:State>
          <wptx1:Country>Canada</wptx1:Country>
        </wptx1:Address>
      </wptx1:WaypointExtension>
      <ctx:CreationTimeExtension>
        <ctx:CreationTime>2026-06-27T16:54:51Z</ctx:CreationTime>
      </ctx:CreationTimeExtension>
    </extensions>
  </wpt>

</gpx>