<?xml version="1.0" encoding="utf-8"?><gpx creator="Garmin Desktop App" version="1.1" xsi:schemaLocation="http://www.topografix.com/GPX/1/1 http://www.topografix.com/GPX/1/1/gpx.xsd http://www.garmin.com/xmlschemas/WaypointExtension/v1 http://www8.garmin.com/xmlschemas/WaypointExtensionv1.xsd http://www.garmin.com/xmlschemas/TrackPointExtension/v1 http://www.garmin.com/xmlschemas/TrackPointExtensionv1.xsd http://www.garmin.com/xmlschemas/GpxExtensions/v3 http://www8.garmin.com/xmlschemas/GpxExtensionsv3.xsd http://www.garmin.com/xmlschemas/ActivityExtension/v1 http://www8.garmin.com/xmlschemas/ActivityExtensionv1.xsd http://www.garmin.com/xmlschemas/AdventuresExtensions/v1 http://www8.garmin.com/xmlschemas/AdventuresExtensionv1.xsd http://www.garmin.com/xmlschemas/PressureExtension/v1 http://www.garmin.com/xmlschemas/PressureExtensionv1.xsd http://www.garmin.com/xmlschemas/TripExtensions/v1 http://www.garmin.com/xmlschemas/TripExtensionsv1.xsd http://www.garmin.com/xmlschemas/TripMetaDataExtensions/v1 http://www.garmin.com/xmlschemas/TripMetaDataExtensionsv1.xsd http://www.garmin.com/xmlschemas/ViaPointTransportationModeExtensions/v1 http://www.garmin.com/xmlschemas/ViaPointTransportationModeExtensionsv1.xsd http://www.garmin.com/xmlschemas/CreationTimeExtension/v1 http://www.garmin.com/xmlschemas/CreationTimeExtensionsv1.xsd http://www.garmin.com/xmlschemas/AccelerationExtension/v1 http://www.garmin.com/xmlschemas/AccelerationExtensionv1.xsd http://www.garmin.com/xmlschemas/PowerExtension/v1 http://www.garmin.com/xmlschemas/PowerExtensionv1.xsd http://www.garmin.com/xmlschemas/VideoExtension/v1 http://www.garmin.com/xmlschemas/VideoExtensionv1.xsd" xmlns="http://www.topografix.com/GPX/1/1" xmlns:xsi="http://www.w3.org/2001/XMLSchema-instance" xmlns:wptx1="http://www.garmin.com/xmlschemas/WaypointExtension/v1" xmlns:gpxtrx="http://www.garmin.com/xmlschemas/GpxExtensions/v3" xmlns:gpxtpx="http://www.garmin.com/xmlschemas/TrackPointExtension/v1" xmlns:gpxx="http://www.garmin.com/xmlschemas/GpxExtensions/v3" xmlns:trp="http://www.garmin.com/xmlschemas/TripExtensions/v1" xmlns:adv="http://www.garmin.com/xmlschemas/AdventuresExtensions/v1" xmlns:prs="http://www.garmin.com/xmlschemas/PressureExtension/v1" xmlns:tmd="http://www.garmin.com/xmlschemas/TripMetaDataExtensions/v1" xmlns:vptm="http://www.garmin.com/xmlschemas/ViaPointTransportationModeExtensions/v1" xmlns:ctx="http://www.garmin.com/xmlschemas/CreationTimeExtension/v1" xmlns:gpxacc="http://www.garmin.com/xmlschemas/AccelerationExtension/v1" xmlns:gpxpx="http://www.garmin.com/xmlschemas/PowerExtension/v1" xmlns:vidx1="http://www.garmin.com/xmlschemas/VideoExtension/v1">

  <metadata>
    <link href="http://www.garmin.com">
      <text>Garmin International</text>
    </link>
    <time>2024-09-10T17:50:31Z</time>
    <bounds maxlat="54.636477017775178" maxlon="-63.275692965835333" minlat="43.645221004262567" minlon="-130.35195993259549" />
  </metadata>

  <wpt lat="49.116879282519221" lon="-122.27687758393586">
    <name>Abbotsford VIA Rail</name>
    <sym>Crossing</sym>
    <type>user</type>
    <extensions>
      <gpxx:WaypointExtension>
        <gpxx:DisplayMode>SymbolOnly</gpxx:DisplayMode>
      </gpxx:WaypointExtension>
      <wptx1:WaypointExtension>
        <wptx1:DisplayMode>SymbolOnly</wptx1:DisplayMode>
      </wptx1:WaypointExtension>
    </extensions>
  </wpt>

  <wpt lat="49.239552039653063" lon="-121.76423803903162">
    <name>Agassiz VIA Rail</name>
    <sym>Crossing</sym>
    <type>user</type>
    <extensions>
      <gpxx:WaypointExtension>
        <gpxx:DisplayMode>SymbolOnly</gpxx:DisplayMode>
      </gpxx:WaypointExtension>
      <wptx1:WaypointExtension>
        <wptx1:DisplayMode>SymbolOnly</wptx1:DisplayMode>
      </wptx1:WaypointExtension>
    </extensions>
  </wpt>

  <wpt lat="45.317942015826702" lon="-74.63979204185307">
    <name>Alexandria train station - VIA Rail</name>
    <sym>Crossing</sym>
    <type>user</type>
    <extensions>
      <gpxx:WaypointExtension>
        <gpxx:DisplayMode>SymbolOnly</gpxx:DisplayMode>
      </gpxx:WaypointExtension>
      <wptx1:WaypointExtension>
        <wptx1:DisplayMode>SymbolOnly</wptx1:DisplayMode>
      </wptx1:WaypointExtension>
    </extensions>
  </wpt>

  <wpt lat="45.830463040620089" lon="-64.212565021589398">
    <name>Amherst VIA Rail</name>
    <sym>Crossing</sym>
    <type>user</type>
    <extensions>
      <gpxx:WaypointExtension>
        <gpxx:DisplayMode>SymbolOnly</gpxx:DisplayMode>
      </gpxx:WaypointExtension>
      <wptx1:WaypointExtension>
        <wptx1:DisplayMode>SymbolOnly</wptx1:DisplayMode>
      </wptx1:WaypointExtension>
    </extensions>
  </wpt>

  <wpt lat="50.730396984145045" lon="-121.2692900095135">
    <name>Ashcroft VIA Rail</name>
    <sym>Crossing</sym>
    <type>user</type>
    <extensions>
      <gpxx:WaypointExtension>
        <gpxx:DisplayMode>SymbolOnly</gpxx:DisplayMode>
      </gpxx:WaypointExtension>
      <wptx1:WaypointExtension>
        <wptx1:DisplayMode>SymbolOnly</wptx1:DisplayMode>
      </wptx1:WaypointExtension>
    </extensions>
  </wpt>

  <wpt lat="47.620216961950064" lon="-65.670646028593183">
    <name>Bathurst VIA Train Station</name>
    <sym>Crossing</sym>
    <type>user</type>
    <extensions>
      <gpxx:WaypointExtension>
        <gpxx:DisplayMode>SymbolOnly</gpxx:DisplayMode>
      </gpxx:WaypointExtension>
      <wptx1:WaypointExtension>
        <wptx1:DisplayMode>SymbolOnly</wptx1:DisplayMode>
      </wptx1:WaypointExtension>
    </extensions>
  </wpt>

  <wpt lat="44.179633967578411" lon="-77.374124005436897">
    <name>Belleville VIA Rail</name>
    <sym>Crossing</sym>
    <type>user</type>
    <extensions>
      <gpxx:WaypointExtension>
        <gpxx:DisplayMode>SymbolOnly</gpxx:DisplayMode>
      </gpxx:WaypointExtension>
      <wptx1:WaypointExtension>
        <wptx1:DisplayMode>SymbolOnly</wptx1:DisplayMode>
      </wptx1:WaypointExtension>
    </extensions>
  </wpt>

  <wpt lat="44.592206999659538" lon="-75.692853033542633">
    <name>Brockville VIA Rail</name>
    <sym>Crossing</sym>
    <type>user</type>
    <extensions>
      <gpxx:WaypointExtension>
        <gpxx:DisplayMode>SymbolOnly</gpxx:DisplayMode>
      </gpxx:WaypointExtension>
      <wptx1:WaypointExtension>
        <wptx1:DisplayMode>SymbolOnly</wptx1:DisplayMode>
      </wptx1:WaypointExtension>
    </extensions>
  </wpt>

  <wpt lat="45.312227988615632" lon="-75.087334038689733">
    <name>Casselman VIA Rail</name>
    <sym>Crossing</sym>
    <type>user</type>
    <extensions>
      <gpxx:WaypointExtension>
        <gpxx:DisplayMode>SymbolOnly</gpxx:DisplayMode>
      </gpxx:WaypointExtension>
      <wptx1:WaypointExtension>
        <wptx1:DisplayMode>SymbolOnly</wptx1:DisplayMode>
      </wptx1:WaypointExtension>
    </extensions>
  </wpt>

  <wpt lat="43.967892006039619" lon="-78.170663975179195">
    <name>Cobourg Train Station - VIA Rail</name>
    <sym>Crossing</sym>
    <type>user</type>
    <extensions>
      <gpxx:WaypointExtension>
        <gpxx:DisplayMode>SymbolOnly</gpxx:DisplayMode>
      </gpxx:WaypointExtension>
      <wptx1:WaypointExtension>
        <wptx1:DisplayMode>SymbolOnly</wptx1:DisplayMode>
      </wptx1:WaypointExtension>
    </extensions>
  </wpt>

  <wpt lat="45.042243031784892" lon="-74.743635021150112">
    <name>Cornwall VIA Rail</name>
    <sym>Crossing</sym>
    <type>user</type>
    <extensions>
      <gpxx:WaypointExtension>
        <gpxx:DisplayMode>SymbolOnly</gpxx:DisplayMode>
      </gpxx:WaypointExtension>
      <wptx1:WaypointExtension>
        <wptx1:DisplayMode>SymbolOnly</wptx1:DisplayMode>
      </wptx1:WaypointExtension>
    </extensions>
  </wpt>

  <wpt lat="45.448752008378506" lon="-73.741327039897442">
    <name>Dorval VIA Rail</name>
    <sym>Crossing</sym>
    <type>user</type>
    <extensions>
      <gpxx:WaypointExtension>
        <gpxx:DisplayMode>SymbolOnly</gpxx:DisplayMode>
      </gpxx:WaypointExtension>
      <wptx1:WaypointExtension>
        <wptx1:DisplayMode>SymbolOnly</wptx1:DisplayMode>
      </wptx1:WaypointExtension>
    </extensions>
  </wpt>

  <wpt lat="45.299277026206255" lon="-75.736577985808253">
    <name>Fallowfield train station (Ottawa) - VIA Rail</name>
    <sym>Crossing</sym>
    <type>user</type>
    <extensions>
      <gpxx:WaypointExtension>
        <gpxx:DisplayMode>SymbolOnly</gpxx:DisplayMode>
      </gpxx:WaypointExtension>
      <wptx1:WaypointExtension>
        <wptx1:DisplayMode>SymbolOnly</wptx1:DisplayMode>
      </wptx1:WaypointExtension>
    </extensions>
  </wpt>

  <wpt lat="44.358382998034358" lon="-76.171748964115977">
    <name>Gananoque train station - VIA Rail</name>
    <sym>Crossing</sym>
    <type>user</type>
    <extensions>
      <gpxx:WaypointExtension>
        <gpxx:DisplayMode>SymbolOnly</gpxx:DisplayMode>
      </gpxx:WaypointExtension>
      <wptx1:WaypointExtension>
        <wptx1:DisplayMode>SymbolOnly</wptx1:DisplayMode>
      </wptx1:WaypointExtension>
    </extensions>
  </wpt>

  <wpt lat="45.274750990793109" lon="-74.232801022008061">
    <name>Gare de train Coteau - VIA Rail</name>
    <sym>Crossing</sym>
    <type>user</type>
    <extensions>
      <gpxx:WaypointExtension>
        <gpxx:DisplayMode>SymbolOnly</gpxx:DisplayMode>
      </gpxx:WaypointExtension>
      <wptx1:WaypointExtension>
        <wptx1:DisplayMode>SymbolOnly</wptx1:DisplayMode>
      </wptx1:WaypointExtension>
    </extensions>
  </wpt>

  <wpt lat="43.754724031314254" lon="-79.198271976783872">
    <name>Guildwood train station - VIA Rail</name>
    <sym>Crossing</sym>
    <type>user</type>
    <extensions>
      <gpxx:WaypointExtension>
        <gpxx:DisplayMode>SymbolOnly</gpxx:DisplayMode>
      </gpxx:WaypointExtension>
      <wptx1:WaypointExtension>
        <wptx1:DisplayMode>SymbolOnly</wptx1:DisplayMode>
      </wptx1:WaypointExtension>
    </extensions>
  </wpt>

  <wpt lat="44.639588976278901" lon="-63.56818400323391">
    <name>Halifax, NS VIA Rail</name>
    <sym>Crossing</sym>
    <type>user</type>
    <extensions>
      <gpxx:WaypointExtension>
        <gpxx:DisplayMode>SymbolOnly</gpxx:DisplayMode>
      </gpxx:WaypointExtension>
      <wptx1:WaypointExtension>
        <wptx1:DisplayMode>SymbolOnly</wptx1:DisplayMode>
      </wptx1:WaypointExtension>
    </extensions>
  </wpt>

  <wpt lat="52.876189593225718" lon="-118.07958810590208">
    <name>Jasper VIA Rail</name>
    <sym>Crossing</sym>
    <type>user</type>
    <extensions>
      <gpxx:WaypointExtension>
        <gpxx:DisplayMode>SymbolOnly</gpxx:DisplayMode>
      </gpxx:WaypointExtension>
      <wptx1:WaypointExtension>
        <wptx1:DisplayMode>SymbolOnly</wptx1:DisplayMode>
      </wptx1:WaypointExtension>
    </extensions>
  </wpt>

  <wpt lat="50.718162674456835" lon="-120.34831456840038">
    <name>Kamloops North</name>
    <sym>Crossing</sym>
    <type>user</type>
    <extensions>
      <gpxx:WaypointExtension>
        <gpxx:DisplayMode>SymbolOnly</gpxx:DisplayMode>
      </gpxx:WaypointExtension>
      <wptx1:WaypointExtension>
        <wptx1:DisplayMode>SymbolOnly</wptx1:DisplayMode>
      </wptx1:WaypointExtension>
    </extensions>
  </wpt>

  <wpt lat="44.257225999608636" lon="-76.536801969632506">
    <name>Kingston VIA Rail</name>
    <sym>Crossing</sym>
    <type>user</type>
    <extensions>
      <gpxx:WaypointExtension>
        <gpxx:DisplayMode>SymbolOnly</gpxx:DisplayMode>
      </gpxx:WaypointExtension>
      <wptx1:WaypointExtension>
        <wptx1:DisplayMode>SymbolOnly</wptx1:DisplayMode>
      </wptx1:WaypointExtension>
    </extensions>
  </wpt>

  <wpt lat="50.925899259746075" lon="-102.80758266337216">
    <name>Melville VIA Rail</name>
    <sym>Crossing</sym>
    <type>user</type>
    <extensions>
      <gpxx:WaypointExtension>
        <gpxx:DisplayMode>SymbolOnly</gpxx:DisplayMode>
      </gpxx:WaypointExtension>
      <wptx1:WaypointExtension>
        <wptx1:DisplayMode>SymbolOnly</wptx1:DisplayMode>
      </wptx1:WaypointExtension>
    </extensions>
  </wpt>

  <wpt lat="46.083403984084725" lon="-64.786089034751058">
    <name>Moncton train station VIA Rail</name>
    <sym>Crossing</sym>
    <type>user</type>
    <extensions>
      <gpxx:WaypointExtension>
        <gpxx:DisplayMode>SymbolOnly</gpxx:DisplayMode>
      </gpxx:WaypointExtension>
      <wptx1:WaypointExtension>
        <wptx1:DisplayMode>SymbolOnly</wptx1:DisplayMode>
      </wptx1:WaypointExtension>
    </extensions>
  </wpt>

  <wpt lat="45.499667963013053" lon="-73.566624037921429">
    <name>Montreal Central Train Station Via Rail</name>
    <sym>Crossing</sym>
    <type>user</type>
    <extensions>
      <gpxx:WaypointExtension>
        <gpxx:DisplayMode>SymbolOnly</gpxx:DisplayMode>
      </gpxx:WaypointExtension>
      <wptx1:WaypointExtension>
        <wptx1:DisplayMode>SymbolOnly</wptx1:DisplayMode>
      </wptx1:WaypointExtension>
    </extensions>
  </wpt>

  <wpt lat="44.253498986363411" lon="-76.954276990145445">
    <name>Napanee VIA Rail</name>
    <sym>Crossing</sym>
    <type>user</type>
    <extensions>
      <gpxx:WaypointExtension>
        <gpxx:DisplayMode>SymbolOnly</gpxx:DisplayMode>
      </gpxx:WaypointExtension>
      <wptx1:WaypointExtension>
        <wptx1:DisplayMode>SymbolOnly</wptx1:DisplayMode>
      </wptx1:WaypointExtension>
    </extensions>
  </wpt>

  <wpt lat="49.876867029815912" lon="-121.4496730081737">
    <name>North Bend VIA Rail</name>
    <sym>Crossing</sym>
    <type>user</type>
    <extensions>
      <gpxx:WaypointExtension>
        <gpxx:DisplayMode>SymbolOnly</gpxx:DisplayMode>
      </gpxx:WaypointExtension>
      <wptx1:WaypointExtension>
        <wptx1:DisplayMode>SymbolOnly</wptx1:DisplayMode>
      </wptx1:WaypointExtension>
    </extensions>
  </wpt>

  <wpt lat="43.871012041345239" lon="-78.884779997169971">
    <name>Oshawa VIA Rail</name>
    <sym>Crossing</sym>
    <type>user</type>
    <extensions>
      <gpxx:WaypointExtension>
        <gpxx:DisplayMode>SymbolOnly</gpxx:DisplayMode>
      </gpxx:WaypointExtension>
      <wptx1:WaypointExtension>
        <wptx1:DisplayMode>SymbolOnly</wptx1:DisplayMode>
      </wptx1:WaypointExtension>
    </extensions>
  </wpt>

  <wpt lat="49.273697482421994" lon="-123.0978917889297">
    <name>Pacific Central Station  VIA Rail</name>
    <sym>Crossing</sym>
    <type>user</type>
    <extensions>
      <gpxx:WaypointExtension>
        <gpxx:DisplayMode>SymbolOnly</gpxx:DisplayMode>
      </gpxx:WaypointExtension>
      <wptx1:WaypointExtension>
        <wptx1:DisplayMode>SymbolOnly</wptx1:DisplayMode>
      </wptx1:WaypointExtension>
    </extensions>
  </wpt>

  <wpt lat="43.943497985601425" lon="-78.298842972144485">
    <name>Port Hope VIA Rail</name>
    <sym>Crossing</sym>
    <type>user</type>
    <extensions>
      <gpxx:WaypointExtension>
        <gpxx:DisplayMode>SymbolOnly</gpxx:DisplayMode>
      </gpxx:WaypointExtension>
      <wptx1:WaypointExtension>
        <wptx1:DisplayMode>SymbolOnly</wptx1:DisplayMode>
      </wptx1:WaypointExtension>
    </extensions>
  </wpt>

  <wpt lat="49.977383986115456" lon="-98.288260968402028">
    <name>Portage la Prairie VIA Rail</name>
    <sym>Crossing</sym>
    <type>user</type>
    <extensions>
      <gpxx:WaypointExtension>
        <gpxx:DisplayMode>SymbolOnly</gpxx:DisplayMode>
      </gpxx:WaypointExtension>
      <wptx1:WaypointExtension>
        <wptx1:DisplayMode>SymbolOnly</wptx1:DisplayMode>
      </wptx1:WaypointExtension>
    </extensions>
  </wpt>

  <wpt lat="53.919317023828626" lon="-122.74418503046036">
    <name>Prince George Via Rail</name>
    <sym>Crossing</sym>
    <type>user</type>
    <extensions>
      <gpxx:WaypointExtension>
        <gpxx:DisplayMode>SymbolOnly</gpxx:DisplayMode>
      </gpxx:WaypointExtension>
      <wptx1:WaypointExtension>
        <wptx1:DisplayMode>SymbolOnly</wptx1:DisplayMode>
      </wptx1:WaypointExtension>
    </extensions>
  </wpt>

  <wpt lat="54.295871928334236" lon="-130.35195993259549">
    <name>Prince Rupert VIA Rail</name>
    <sym>Crossing</sym>
    <type>user</type>
    <extensions>
      <gpxx:WaypointExtension>
        <gpxx:DisplayMode>SymbolOnly</gpxx:DisplayMode>
      </gpxx:WaypointExtension>
      <wptx1:WaypointExtension>
        <wptx1:DisplayMode>SymbolOnly</wptx1:DisplayMode>
      </wptx1:WaypointExtension>
    </extensions>
  </wpt>

  <wpt lat="46.817452004179358" lon="-71.213850975036621">
    <name>Québec City VIA Rail</name>
    <sym>Crossing</sym>
    <type>user</type>
    <extensions>
      <gpxx:WaypointExtension>
        <gpxx:DisplayMode>SymbolOnly</gpxx:DisplayMode>
      </gpxx:WaypointExtension>
      <wptx1:WaypointExtension>
        <wptx1:DisplayMode>SymbolOnly</wptx1:DisplayMode>
      </wptx1:WaypointExtension>
    </extensions>
  </wpt>

  <wpt lat="49.973263023421168" lon="-93.357646996155381">
    <name>Red Lake Road VIA Rail</name>
    <sym>Crossing</sym>
    <type>user</type>
    <extensions>
      <gpxx:WaypointExtension>
        <gpxx:DisplayMode>SymbolOnly</gpxx:DisplayMode>
      </gpxx:WaypointExtension>
      <wptx1:WaypointExtension>
        <wptx1:DisplayMode>SymbolOnly</wptx1:DisplayMode>
      </wptx1:WaypointExtension>
    </extensions>
  </wpt>

  <wpt lat="48.450191002339125" lon="-68.52149398997426">
    <name>Rimouski Train Station VIA Rail</name>
    <sym>Crossing</sym>
    <type>user</type>
    <extensions>
      <gpxx:WaypointExtension>
        <gpxx:DisplayMode>SymbolOnly</gpxx:DisplayMode>
      </gpxx:WaypointExtension>
      <wptx1:WaypointExtension>
        <wptx1:DisplayMode>SymbolOnly</wptx1:DisplayMode>
      </wptx1:WaypointExtension>
    </extensions>
  </wpt>

  <wpt lat="50.02887200564146" lon="-100.23848533630371">
    <name>Rivers VIA Rail</name>
    <sym>Crossing</sym>
    <type>user</type>
    <extensions>
      <gpxx:WaypointExtension>
        <gpxx:DisplayMode>SymbolOnly</gpxx:DisplayMode>
      </gpxx:WaypointExtension>
      <wptx1:WaypointExtension>
        <wptx1:DisplayMode>SymbolOnly</wptx1:DisplayMode>
      </wptx1:WaypointExtension>
    </extensions>
  </wpt>

  <wpt lat="46.754324035719037" lon="-71.297645028680563">
    <name>Sainte-Foy VIA Rail</name>
    <sym>Crossing</sym>
    <type>user</type>
    <extensions>
      <gpxx:WaypointExtension>
        <gpxx:DisplayMode>SymbolOnly</gpxx:DisplayMode>
      </gpxx:WaypointExtension>
      <wptx1:WaypointExtension>
        <wptx1:DisplayMode>SymbolOnly</wptx1:DisplayMode>
      </wptx1:WaypointExtension>
    </extensions>
  </wpt>

  <wpt lat="52.104975963011384" lon="-106.73835050314665">
    <name>Saskatoon VIA Rail</name>
    <sym>Crossing</sym>
    <type>user</type>
    <extensions>
      <gpxx:WaypointExtension>
        <gpxx:DisplayMode>SymbolOnly</gpxx:DisplayMode>
      </gpxx:WaypointExtension>
      <wptx1:WaypointExtension>
        <wptx1:DisplayMode>SymbolOnly</wptx1:DisplayMode>
      </wptx1:WaypointExtension>
    </extensions>
  </wpt>

  <wpt lat="49.194159507751465" lon="-123.17819603718817">
    <time>2022-05-29T21:58:45Z</time>
    <name>Skytrain Yvr Airport (bicycles can be easily taken on train)</name>
    <cmt>Yvr Airport</cmt>
    <desc>Yvr Airport</desc>
    <sym>Crossing</sym>
    <type>user</type>
    <extensions>
      <gpxx:WaypointExtension>
        <gpxx:DisplayMode>SymbolOnly</gpxx:DisplayMode>
      </gpxx:WaypointExtension>
      <wptx1:WaypointExtension>
        <wptx1:DisplayMode>SymbolOnly</wptx1:DisplayMode>
      </wptx1:WaypointExtension>
      <ctx:CreationTimeExtension>
        <ctx:CreationTime>2022-05-29T21:58:45Z</ctx:CreationTime>
      </ctx:CreationTimeExtension>
    </extensions>
  </wpt>

  <wpt lat="44.91253400221467" lon="-76.023889007046819">
    <name>Smiths Falls VIA Rail</name>
    <sym>Crossing</sym>
    <type>user</type>
    <extensions>
      <gpxx:WaypointExtension>
        <gpxx:DisplayMode>SymbolOnly</gpxx:DisplayMode>
      </gpxx:WaypointExtension>
      <wptx1:WaypointExtension>
        <wptx1:DisplayMode>SymbolOnly</wptx1:DisplayMode>
      </wptx1:WaypointExtension>
    </extensions>
  </wpt>

  <wpt lat="46.524610267952085" lon="-80.902086161077023">
    <name>Sudbury Jct  VIA Rail</name>
    <sym>Crossing</sym>
    <type>user</type>
    <extensions>
      <gpxx:WaypointExtension>
        <gpxx:DisplayMode>SymbolOnly</gpxx:DisplayMode>
      </gpxx:WaypointExtension>
      <wptx1:WaypointExtension>
        <wptx1:DisplayMode>SymbolOnly</wptx1:DisplayMode>
      </wptx1:WaypointExtension>
    </extensions>
  </wpt>

  <wpt lat="54.514491995796561" lon="-128.58658402226865">
    <name>Terrace VIA Rail</name>
    <sym>Crossing</sym>
    <type>user</type>
    <extensions>
      <gpxx:WaypointExtension>
        <gpxx:DisplayMode>SymbolOnly</gpxx:DisplayMode>
      </gpxx:WaypointExtension>
      <wptx1:WaypointExtension>
        <wptx1:DisplayMode>SymbolOnly</wptx1:DisplayMode>
      </wptx1:WaypointExtension>
    </extensions>
  </wpt>

  <wpt lat="43.645221004262567" lon="-79.38056998886168">
    <name>Toronto, ON - Union Station  VIA Rail</name>
    <sym>Crossing</sym>
    <type>user</type>
    <extensions>
      <gpxx:WaypointExtension>
        <gpxx:DisplayMode>SymbolOnly</gpxx:DisplayMode>
      </gpxx:WaypointExtension>
      <wptx1:WaypointExtension>
        <wptx1:DisplayMode>SymbolOnly</wptx1:DisplayMode>
      </wptx1:WaypointExtension>
    </extensions>
  </wpt>

  <wpt lat="44.115276038646698" lon="-77.598922038450837">
    <name>Trenton Junction VIA Rail</name>
    <sym>Crossing</sym>
    <type>user</type>
    <extensions>
      <gpxx:WaypointExtension>
        <gpxx:DisplayMode>SymbolOnly</gpxx:DisplayMode>
      </gpxx:WaypointExtension>
      <wptx1:WaypointExtension>
        <wptx1:DisplayMode>SymbolOnly</wptx1:DisplayMode>
      </wptx1:WaypointExtension>
    </extensions>
  </wpt>

  <wpt lat="54.636477017775178" lon="-128.41601396910846">
    <name>Usk VIA Rail</name>
    <sym>Crossing</sym>
    <type>user</type>
    <extensions>
      <gpxx:WaypointExtension>
        <gpxx:DisplayMode>SymbolOnly</gpxx:DisplayMode>
      </gpxx:WaypointExtension>
      <wptx1:WaypointExtension>
        <wptx1:DisplayMode>SymbolOnly</wptx1:DisplayMode>
      </wptx1:WaypointExtension>
    </extensions>
  </wpt>

  <wpt lat="52.834857171401381" lon="-119.26169210113585">
    <name>Valemount VIA Rail</name>
    <sym>Crossing</sym>
    <type>user</type>
    <extensions>
      <gpxx:WaypointExtension>
        <gpxx:DisplayMode>SymbolOnly</gpxx:DisplayMode>
      </gpxx:WaypointExtension>
      <wptx1:WaypointExtension>
        <wptx1:DisplayMode>SymbolOnly</wptx1:DisplayMode>
      </wptx1:WaypointExtension>
    </extensions>
  </wpt>

  <wpt lat="47.974826032295823" lon="-66.939177000895143">
    <name>VIA Rail - Gare de Matapédia</name>
    <sym>Crossing</sym>
    <type>user</type>
    <extensions>
      <gpxx:WaypointExtension>
        <gpxx:DisplayMode>SymbolOnly</gpxx:DisplayMode>
      </gpxx:WaypointExtension>
      <wptx1:WaypointExtension>
        <wptx1:DisplayMode>SymbolOnly</wptx1:DisplayMode>
      </wptx1:WaypointExtension>
    </extensions>
  </wpt>

  <wpt lat="48.588861962780356" lon="-68.189424024894834">
    <name>VIA Rail - Gare de Mont-Joli</name>
    <sym>Crossing</sym>
    <type>user</type>
    <extensions>
      <gpxx:WaypointExtension>
        <gpxx:DisplayMode>SymbolOnly</gpxx:DisplayMode>
      </gpxx:WaypointExtension>
      <wptx1:WaypointExtension>
        <wptx1:DisplayMode>SymbolOnly</wptx1:DisplayMode>
      </wptx1:WaypointExtension>
    </extensions>
  </wpt>

  <wpt lat="47.824886022135615" lon="-69.527438040822744">
    <name>VIA Rail - Gare de Rivière-du-Loup</name>
    <sym>Crossing</sym>
    <type>user</type>
    <extensions>
      <gpxx:WaypointExtension>
        <gpxx:DisplayMode>SymbolOnly</gpxx:DisplayMode>
      </gpxx:WaypointExtension>
      <wptx1:WaypointExtension>
        <wptx1:DisplayMode>SymbolOnly</wptx1:DisplayMode>
      </wptx1:WaypointExtension>
    </extensions>
  </wpt>

  <wpt lat="48.00401802174747" lon="-66.680734008550644">
    <name>Via Rail Canada Inc Campbelton, NB</name>
    <sym>Crossing</sym>
    <type>user</type>
    <extensions>
      <gpxx:WaypointExtension>
        <gpxx:DisplayMode>SymbolOnly</gpxx:DisplayMode>
      </gpxx:WaypointExtension>
      <wptx1:WaypointExtension>
        <wptx1:DisplayMode>SymbolOnly</wptx1:DisplayMode>
      </wptx1:WaypointExtension>
    </extensions>
  </wpt>

  <wpt lat="45.362685034051538" lon="-63.275692965835333">
    <name>Via Rail Canada Truro, NS</name>
    <sym>Crossing</sym>
    <type>user</type>
    <extensions>
      <gpxx:WaypointExtension>
        <gpxx:DisplayMode>SymbolOnly</gpxx:DisplayMode>
      </gpxx:WaypointExtension>
      <wptx1:WaypointExtension>
        <wptx1:DisplayMode>SymbolOnly</wptx1:DisplayMode>
      </wptx1:WaypointExtension>
    </extensions>
  </wpt>

  <wpt lat="47.00366604141891" lon="-65.574294039979577">
    <name>Via Rail Station Miramichi City</name>
    <sym>Crossing</sym>
    <type>user</type>
    <extensions>
      <gpxx:WaypointExtension>
        <gpxx:DisplayMode>SymbolOnly</gpxx:DisplayMode>
      </gpxx:WaypointExtension>
      <wptx1:WaypointExtension>
        <wptx1:DisplayMode>SymbolOnly</wptx1:DisplayMode>
      </wptx1:WaypointExtension>
    </extensions>
  </wpt>

  <wpt lat="46.487364610657096" lon="-80.991902863606811">
    <name>VIA Rail Sudbury</name>
    <sym>Crossing</sym>
    <type>user</type>
    <extensions>
      <gpxx:WaypointExtension>
        <gpxx:DisplayMode>SymbolOnly</gpxx:DisplayMode>
      </gpxx:WaypointExtension>
      <wptx1:WaypointExtension>
        <wptx1:DisplayMode>SymbolOnly</wptx1:DisplayMode>
      </wptx1:WaypointExtension>
    </extensions>
  </wpt>

  <wpt lat="44.74894892424345" lon="-79.335015937685966">
    <name>Washago VIA station</name>
    <sym>Crossing</sym>
    <type>user</type>
    <extensions>
      <gpxx:WaypointExtension>
        <gpxx:DisplayMode>SymbolOnly</gpxx:DisplayMode>
      </gpxx:WaypointExtension>
      <wptx1:WaypointExtension>
        <wptx1:DisplayMode>SymbolOnly</wptx1:DisplayMode>
      </wptx1:WaypointExtension>
    </extensions>
  </wpt>

  <wpt lat="49.285891139879823" lon="-123.1116343382746">
    <time>2022-05-29T22:03:59Z</time>
    <name>Waterfront Skytrain - you can take the bicycle on the skytrain easily (to get to the airport)</name>
    <cmt>Waterfront Station</cmt>
    <desc>Waterfront Station</desc>
    <sym>Crossing</sym>
    <type>user</type>
    <extensions>
      <gpxx:WaypointExtension>
        <gpxx:DisplayMode>SymbolOnly</gpxx:DisplayMode>
      </gpxx:WaypointExtension>
      <wptx1:WaypointExtension>
        <wptx1:DisplayMode>SymbolOnly</wptx1:DisplayMode>
      </wptx1:WaypointExtension>
      <ctx:CreationTimeExtension>
        <ctx:CreationTime>2022-05-29T22:03:59Z</ctx:CreationTime>
      </ctx:CreationTimeExtension>
    </extensions>
  </wpt>

  <wpt lat="51.67098599486053" lon="-105.46842503361404">
    <name>Watrous  VIA Rail</name>
    <sym>Crossing</sym>
    <type>user</type>
    <extensions>
      <gpxx:WaypointExtension>
        <gpxx:DisplayMode>SymbolOnly</gpxx:DisplayMode>
      </gpxx:WaypointExtension>
      <wptx1:WaypointExtension>
        <wptx1:DisplayMode>SymbolOnly</wptx1:DisplayMode>
      </wptx1:WaypointExtension>
    </extensions>
  </wpt>

  <wpt lat="48.58930972404778" lon="-85.282329535111785">
    <name>White River VIA Rail</name>
    <sym>Crossing</sym>
    <type>user</type>
    <extensions>
      <gpxx:WaypointExtension>
        <gpxx:DisplayMode>SymbolOnly</gpxx:DisplayMode>
      </gpxx:WaypointExtension>
      <wptx1:WaypointExtension>
        <wptx1:DisplayMode>SymbolOnly</wptx1:DisplayMode>
      </wptx1:WaypointExtension>
    </extensions>
  </wpt>

  <wpt lat="49.889385486021638" lon="-97.133583314716816">
    <name>Winnipeg VIA Rail Union Station</name>
    <sym>Crossing</sym>
    <type>user</type>
    <extensions>
      <gpxx:WaypointExtension>
        <gpxx:DisplayMode>SymbolOnly</gpxx:DisplayMode>
      </gpxx:WaypointExtension>
      <wptx1:WaypointExtension>
        <wptx1:DisplayMode>SymbolOnly</wptx1:DisplayMode>
      </wptx1:WaypointExtension>
    </extensions>
  </wpt>

</gpx>