<?xml version="1.0" encoding="utf-8"?><gpx creator="Garmin Desktop App" version="1.1" xsi:schemaLocation="http://www.topografix.com/GPX/1/1 http://www.topografix.com/GPX/1/1/gpx.xsd http://www.garmin.com/xmlschemas/WaypointExtension/v1 http://www8.garmin.com/xmlschemas/WaypointExtensionv1.xsd http://www.garmin.com/xmlschemas/TrackPointExtension/v1 http://www.garmin.com/xmlschemas/TrackPointExtensionv1.xsd http://www.garmin.com/xmlschemas/GpxExtensions/v3 http://www8.garmin.com/xmlschemas/GpxExtensionsv3.xsd http://www.garmin.com/xmlschemas/ActivityExtension/v1 http://www8.garmin.com/xmlschemas/ActivityExtensionv1.xsd http://www.garmin.com/xmlschemas/AdventuresExtensions/v1 http://www8.garmin.com/xmlschemas/AdventuresExtensionv1.xsd http://www.garmin.com/xmlschemas/PressureExtension/v1 http://www.garmin.com/xmlschemas/PressureExtensionv1.xsd http://www.garmin.com/xmlschemas/TripExtensions/v1 http://www.garmin.com/xmlschemas/TripExtensionsv1.xsd http://www.garmin.com/xmlschemas/TripMetaDataExtensions/v1 http://www.garmin.com/xmlschemas/TripMetaDataExtensionsv1.xsd http://www.garmin.com/xmlschemas/ViaPointTransportationModeExtensions/v1 http://www.garmin.com/xmlschemas/ViaPointTransportationModeExtensionsv1.xsd http://www.garmin.com/xmlschemas/CreationTimeExtension/v1 http://www.garmin.com/xmlschemas/CreationTimeExtensionsv1.xsd http://www.garmin.com/xmlschemas/AccelerationExtension/v1 http://www.garmin.com/xmlschemas/AccelerationExtensionv1.xsd http://www.garmin.com/xmlschemas/PowerExtension/v1 http://www.garmin.com/xmlschemas/PowerExtensionv1.xsd http://www.garmin.com/xmlschemas/VideoExtension/v1 http://www.garmin.com/xmlschemas/VideoExtensionv1.xsd" xmlns="http://www.topografix.com/GPX/1/1" xmlns:xsi="http://www.w3.org/2001/XMLSchema-instance" xmlns:wptx1="http://www.garmin.com/xmlschemas/WaypointExtension/v1" xmlns:gpxtrx="http://www.garmin.com/xmlschemas/GpxExtensions/v3" xmlns:gpxtpx="http://www.garmin.com/xmlschemas/TrackPointExtension/v1" xmlns:gpxx="http://www.garmin.com/xmlschemas/GpxExtensions/v3" xmlns:trp="http://www.garmin.com/xmlschemas/TripExtensions/v1" xmlns:adv="http://www.garmin.com/xmlschemas/AdventuresExtensions/v1" xmlns:prs="http://www.garmin.com/xmlschemas/PressureExtension/v1" xmlns:tmd="http://www.garmin.com/xmlschemas/TripMetaDataExtensions/v1" xmlns:vptm="http://www.garmin.com/xmlschemas/ViaPointTransportationModeExtensions/v1" xmlns:ctx="http://www.garmin.com/xmlschemas/CreationTimeExtension/v1" xmlns:gpxacc="http://www.garmin.com/xmlschemas/AccelerationExtension/v1" xmlns:gpxpx="http://www.garmin.com/xmlschemas/PowerExtension/v1" xmlns:vidx1="http://www.garmin.com/xmlschemas/VideoExtension/v1">

  <metadata>
    <link href="http://www.garmin.com">
      <text>Garmin International</text>
    </link>
    <time>2024-09-13T14:48:17Z</time>
    <bounds maxlat="54.312988864257932" maxlon="-52.729418277740479" minlat="43.639218807220459" minlon="-130.31785078346729" />
  </metadata>

  <wpt lat="47.575864791870117" lon="-52.729418277740479">
    <time>2022-04-20T03:19:51Z</time>
    <name>A.C. Hunter Library</name>
    <cmt>A.C. Hunter Library</cmt>
    <desc>A.C. Hunter Library</desc>
    <sym>Library</sym>
    <type>user</type>
    <extensions>
      <gpxx:WaypointExtension>
        <gpxx:DisplayMode>SymbolOnly</gpxx:DisplayMode>
      </gpxx:WaypointExtension>
      <wptx1:WaypointExtension>
        <wptx1:DisplayMode>SymbolOnly</wptx1:DisplayMode>
      </wptx1:WaypointExtension>
      <ctx:CreationTimeExtension>
        <ctx:CreationTime>2022-04-20T03:19:51Z</ctx:CreationTime>
      </ctx:CreationTimeExtension>
    </extensions>
  </wpt>

  <wpt lat="44.391841208562255" lon="-79.688365710899234">
    <time>2022-04-21T09:24:00Z</time>
    <name>Barrie Public Library</name>
    <cmt>Barrie Public Library</cmt>
    <desc>Barrie Public Library</desc>
    <sym>Library</sym>
    <type>user</type>
    <extensions>
      <gpxx:WaypointExtension>
        <gpxx:DisplayMode>SymbolOnly</gpxx:DisplayMode>
      </gpxx:WaypointExtension>
      <wptx1:WaypointExtension>
        <wptx1:DisplayMode>SymbolOnly</wptx1:DisplayMode>
      </wptx1:WaypointExtension>
      <ctx:CreationTimeExtension>
        <ctx:CreationTime>2022-04-21T09:24:00Z</ctx:CreationTime>
      </ctx:CreationTimeExtension>
    </extensions>
  </wpt>

  <wpt lat="45.515318484976888" lon="-73.56166304089129">
    <time>2022-04-21T00:13:37Z</time>
    <name>Bibliothèque Et Archives Nationales Du Québec</name>
    <cmt>Bibliothèque Et Archives Nationales Du Québec</cmt>
    <desc>Bibliothèque Et Archives Nationales Du Québec</desc>
    <sym>Library</sym>
    <type>user</type>
    <extensions>
      <gpxx:WaypointExtension>
        <gpxx:DisplayMode>SymbolOnly</gpxx:DisplayMode>
      </gpxx:WaypointExtension>
      <wptx1:WaypointExtension>
        <wptx1:DisplayMode>SymbolOnly</wptx1:DisplayMode>
      </wptx1:WaypointExtension>
      <ctx:CreationTimeExtension>
        <ctx:CreationTime>2022-04-21T00:13:37Z</ctx:CreationTime>
      </ctx:CreationTimeExtension>
    </extensions>
  </wpt>

  <wpt lat="47.837433815002441" lon="-69.536590576171875">
    <time>2022-04-20T02:58:32Z</time>
    <name>Bibliothèque Municipale Françoise-Bédard</name>
    <cmt>Bibliothèque Municipale Françoise-Bédard</cmt>
    <desc>Bibliothèque Municipale Françoise-Bédard</desc>
    <sym>Library</sym>
    <type>user</type>
    <extensions>
      <gpxx:WaypointExtension>
        <gpxx:DisplayMode>SymbolOnly</gpxx:DisplayMode>
      </gpxx:WaypointExtension>
      <wptx1:WaypointExtension>
        <wptx1:DisplayMode>SymbolOnly</wptx1:DisplayMode>
      </wptx1:WaypointExtension>
      <ctx:CreationTimeExtension>
        <ctx:CreationTime>2022-04-20T02:58:32Z</ctx:CreationTime>
      </ctx:CreationTimeExtension>
    </extensions>
  </wpt>

  <wpt lat="52.105402937158942" lon="-119.30758067406714">
    <time>2023-01-29T10:53:03Z</time>
    <name>Blue River Library, Thompson-Nicola Regional Library</name>
    <cmt>area</cmt>
    <desc>area</desc>
    <sym>Library</sym>
    <type>user</type>
    <extensions>
      <gpxx:WaypointExtension>
        <gpxx:DisplayMode>SymbolOnly</gpxx:DisplayMode>
      </gpxx:WaypointExtension>
      <wptx1:WaypointExtension>
        <wptx1:DisplayMode>SymbolOnly</wptx1:DisplayMode>
      </wptx1:WaypointExtension>
      <ctx:CreationTimeExtension>
        <ctx:CreationTime>2023-01-29T10:53:03Z</ctx:CreationTime>
      </ctx:CreationTimeExtension>
    </extensions>
  </wpt>

  <wpt lat="43.718504905700684" lon="-79.719994068145752">
    <time>2022-04-21T00:36:14Z</time>
    <name>Brampton Library - Chinguacousy Branch</name>
    <cmt>Chinguacousy Branch</cmt>
    <desc>Chinguacousy Branch</desc>
    <sym>Library</sym>
    <type>user</type>
    <extensions>
      <gpxx:WaypointExtension>
        <gpxx:DisplayMode>SymbolOnly</gpxx:DisplayMode>
      </gpxx:WaypointExtension>
      <wptx1:WaypointExtension>
        <wptx1:DisplayMode>SymbolOnly</wptx1:DisplayMode>
      </wptx1:WaypointExtension>
      <ctx:CreationTimeExtension>
        <ctx:CreationTime>2022-04-21T00:36:14Z</ctx:CreationTime>
      </ctx:CreationTimeExtension>
    </extensions>
  </wpt>

  <wpt lat="49.848378030583262" lon="-99.947482673451304">
    <time>2022-04-22T03:08:14Z</time>
    <name>Brandon Public Library</name>
    <cmt>residential area</cmt>
    <desc>residential area</desc>
    <sym>Library</sym>
    <type>user</type>
    <extensions>
      <gpxx:WaypointExtension>
        <gpxx:DisplayMode>SymbolOnly</gpxx:DisplayMode>
      </gpxx:WaypointExtension>
      <wptx1:WaypointExtension>
        <wptx1:DisplayMode>SymbolOnly</wptx1:DisplayMode>
      </wptx1:WaypointExtension>
      <ctx:CreationTimeExtension>
        <ctx:CreationTime>2022-04-22T03:08:14Z</ctx:CreationTime>
      </ctx:CreationTimeExtension>
    </extensions>
  </wpt>

  <wpt lat="50.807337323203683" lon="-121.32513586431742">
    <time>2022-04-22T02:56:44Z</time>
    <name>Cache Creek Library, Thompson-Nicola Regional Library</name>
    <cmt>retail area</cmt>
    <desc>retail area</desc>
    <sym>Library</sym>
    <type>user</type>
    <extensions>
      <gpxx:WaypointExtension>
        <gpxx:DisplayMode>SymbolOnly</gpxx:DisplayMode>
      </gpxx:WaypointExtension>
      <wptx1:WaypointExtension>
        <wptx1:DisplayMode>SymbolOnly</wptx1:DisplayMode>
      </wptx1:WaypointExtension>
      <ctx:CreationTimeExtension>
        <ctx:CreationTime>2022-04-22T02:56:44Z</ctx:CreationTime>
      </ctx:CreationTimeExtension>
    </extensions>
  </wpt>

  <wpt lat="51.045633321627975" lon="-114.05515291728079">
    <time>2022-04-20T02:53:01Z</time>
    <name>Calgary Central Library</name>
    <cmt>Central Library</cmt>
    <desc>Central Library</desc>
    <sym>Library</sym>
    <type>user</type>
    <extensions>
      <gpxx:WaypointExtension>
        <gpxx:DisplayMode>SymbolOnly</gpxx:DisplayMode>
      </gpxx:WaypointExtension>
      <wptx1:WaypointExtension>
        <wptx1:DisplayMode>SymbolOnly</wptx1:DisplayMode>
      </wptx1:WaypointExtension>
      <ctx:CreationTimeExtension>
        <ctx:CreationTime>2022-04-20T02:53:01Z</ctx:CreationTime>
      </ctx:CreationTimeExtension>
    </extensions>
  </wpt>

  <wpt lat="51.08717679977417" lon="-114.18288230895996">
    <time>2022-05-14T21:32:30Z</time>
    <name>Calgary Public Library - Bowness</name>
    <cmt>Calgary Public Library - Bowness</cmt>
    <desc>Calgary Public Library - Bowness</desc>
    <sym>Library</sym>
    <type>user</type>
    <extensions>
      <gpxx:WaypointExtension>
        <gpxx:DisplayMode>SymbolOnly</gpxx:DisplayMode>
      </gpxx:WaypointExtension>
      <wptx1:WaypointExtension>
        <wptx1:DisplayMode>SymbolOnly</wptx1:DisplayMode>
      </wptx1:WaypointExtension>
      <ctx:CreationTimeExtension>
        <ctx:CreationTime>2022-05-14T21:32:30Z</ctx:CreationTime>
      </ctx:CreationTimeExtension>
    </extensions>
  </wpt>

  <wpt lat="50.0272536277771" lon="-125.24577140808105">
    <time>2022-04-21T09:18:01Z</time>
    <name>Campbell River - Vancouver Island Regional Library</name>
    <cmt>library</cmt>
    <desc>library</desc>
    <sym>Library</sym>
    <type>user</type>
    <extensions>
      <gpxx:WaypointExtension>
        <gpxx:DisplayMode>SymbolOnly</gpxx:DisplayMode>
      </gpxx:WaypointExtension>
      <wptx1:WaypointExtension>
        <wptx1:DisplayMode>SymbolOnly</wptx1:DisplayMode>
      </wptx1:WaypointExtension>
      <ctx:CreationTimeExtension>
        <ctx:CreationTime>2022-04-21T09:18:01Z</ctx:CreationTime>
      </ctx:CreationTimeExtension>
    </extensions>
  </wpt>

  <wpt lat="48.004288673400879" lon="-66.675810813903809">
    <time>2022-04-21T09:22:56Z</time>
    <name>Campbellton Centennial Library</name>
    <cmt>Campbellton Centennial Library</cmt>
    <desc>Campbellton Centennial Library</desc>
    <sym>Library</sym>
    <type>user</type>
    <extensions>
      <gpxx:WaypointExtension>
        <gpxx:DisplayMode>SymbolOnly</gpxx:DisplayMode>
      </gpxx:WaypointExtension>
      <wptx1:WaypointExtension>
        <wptx1:DisplayMode>SymbolOnly</wptx1:DisplayMode>
      </wptx1:WaypointExtension>
      <ctx:CreationTimeExtension>
        <ctx:CreationTime>2022-04-21T09:22:56Z</ctx:CreationTime>
      </ctx:CreationTimeExtension>
    </extensions>
  </wpt>

  <wpt lat="51.088699121028185" lon="-115.35039877519011">
    <time>2022-04-22T02:59:25Z</time>
    <name>Canmore Public Library</name>
    <cmt>area</cmt>
    <desc>area</desc>
    <sym>Library</sym>
    <type>user</type>
    <extensions>
      <gpxx:WaypointExtension>
        <gpxx:DisplayMode>SymbolOnly</gpxx:DisplayMode>
      </gpxx:WaypointExtension>
      <wptx1:WaypointExtension>
        <wptx1:DisplayMode>SymbolOnly</wptx1:DisplayMode>
      </wptx1:WaypointExtension>
      <ctx:CreationTimeExtension>
        <ctx:CreationTime>2022-04-22T02:59:25Z</ctx:CreationTime>
      </ctx:CreationTimeExtension>
    </extensions>
  </wpt>

  <wpt lat="48.42318526469171" lon="-123.36408376693726">
    <time>2022-04-20T02:45:26Z</time>
    <name>Central Library Victoria</name>
    <cmt>Central Library</cmt>
    <desc>Central Library</desc>
    <sym>Library</sym>
    <type>user</type>
    <extensions>
      <gpxx:WaypointExtension>
        <gpxx:DisplayMode>SymbolOnly</gpxx:DisplayMode>
      </gpxx:WaypointExtension>
      <wptx1:WaypointExtension>
        <wptx1:DisplayMode>SymbolOnly</wptx1:DisplayMode>
      </wptx1:WaypointExtension>
      <ctx:CreationTimeExtension>
        <ctx:CreationTime>2022-04-20T02:45:26Z</ctx:CreationTime>
      </ctx:CreationTimeExtension>
    </extensions>
  </wpt>

  <wpt lat="46.234373962506652" lon="-63.126454437151551">
    <time>2022-04-21T00:15:27Z</time>
    <name>Confederation Centre Public Library</name>
    <cmt>Confederation Centre Public Library</cmt>
    <desc>Confederation Centre Public Library</desc>
    <sym>Library</sym>
    <type>user</type>
    <extensions>
      <gpxx:WaypointExtension>
        <gpxx:DisplayMode>SymbolOnly</gpxx:DisplayMode>
      </gpxx:WaypointExtension>
      <wptx1:WaypointExtension>
        <wptx1:DisplayMode>SymbolOnly</wptx1:DisplayMode>
      </wptx1:WaypointExtension>
      <ctx:CreationTimeExtension>
        <ctx:CreationTime>2022-04-21T00:15:27Z</ctx:CreationTime>
      </ctx:CreationTimeExtension>
    </extensions>
  </wpt>

  <wpt lat="48.95236574113369" lon="-57.945127515122294">
    <time>2022-04-21T00:57:58Z</time>
    <name>Corner Brook Public Library</name>
    <cmt>Corner Brook</cmt>
    <desc>Corner Brook</desc>
    <sym>Library</sym>
    <type>user</type>
    <extensions>
      <gpxx:WaypointExtension>
        <gpxx:DisplayMode>SymbolOnly</gpxx:DisplayMode>
      </gpxx:WaypointExtension>
      <wptx1:WaypointExtension>
        <wptx1:DisplayMode>SymbolOnly</wptx1:DisplayMode>
      </wptx1:WaypointExtension>
      <ctx:CreationTimeExtension>
        <ctx:CreationTime>2022-04-21T00:57:58Z</ctx:CreationTime>
      </ctx:CreationTimeExtension>
    </extensions>
  </wpt>

  <wpt lat="44.225686490535736" lon="-76.657812930643559">
    <time>2022-09-27T16:53:49Z</time>
    <name>County of Lennox &amp; Addington Libraries - Amherstview Branch</name>
    <cmt>area</cmt>
    <desc>area</desc>
    <sym>Library</sym>
    <type>user</type>
    <extensions>
      <gpxx:WaypointExtension>
        <gpxx:DisplayMode>SymbolOnly</gpxx:DisplayMode>
      </gpxx:WaypointExtension>
      <wptx1:WaypointExtension>
        <wptx1:DisplayMode>SymbolOnly</wptx1:DisplayMode>
      </wptx1:WaypointExtension>
      <ctx:CreationTimeExtension>
        <ctx:CreationTime>2022-09-27T16:53:49Z</ctx:CreationTime>
      </ctx:CreationTimeExtension>
    </extensions>
  </wpt>

  <wpt lat="49.514215104281902" lon="-115.76381301507354">
    <time>2022-04-21T09:13:57Z</time>
    <name>Cranbrook Public Library</name>
    <cmt>area</cmt>
    <desc>area</desc>
    <sym>Library</sym>
    <type>user</type>
    <extensions>
      <gpxx:WaypointExtension>
        <gpxx:DisplayMode>SymbolOnly</gpxx:DisplayMode>
      </gpxx:WaypointExtension>
      <wptx1:WaypointExtension>
        <wptx1:DisplayMode>SymbolOnly</wptx1:DisplayMode>
      </wptx1:WaypointExtension>
      <ctx:CreationTimeExtension>
        <ctx:CreationTime>2022-04-21T09:13:57Z</ctx:CreationTime>
      </ctx:CreationTimeExtension>
    </extensions>
  </wpt>

  <wpt lat="49.089725017547607" lon="-116.50606163777411">
    <time>2022-05-08T08:54:12Z</time>
    <name>Creston Library</name>
    <cmt>Creston Library</cmt>
    <desc>Creston Library</desc>
    <sym>Library</sym>
    <type>user</type>
    <extensions>
      <gpxx:WaypointExtension>
        <gpxx:DisplayMode>SymbolOnly</gpxx:DisplayMode>
      </gpxx:WaypointExtension>
      <wptx1:WaypointExtension>
        <wptx1:DisplayMode>SymbolOnly</wptx1:DisplayMode>
      </wptx1:WaypointExtension>
      <ctx:CreationTimeExtension>
        <ctx:CreationTime>2022-05-08T08:54:12Z</ctx:CreationTime>
      </ctx:CreationTimeExtension>
    </extensions>
  </wpt>

  <wpt lat="45.139133222401142" lon="-77.275977535173297">
    <time>2022-03-26T00:16:25Z</time>
    <name>Denbigh Public Library</name>
    <cmt>area</cmt>
    <desc>area</desc>
    <sym>Library</sym>
    <type>user</type>
    <extensions>
      <gpxx:WaypointExtension>
        <gpxx:DisplayMode>SymbolOnly</gpxx:DisplayMode>
      </gpxx:WaypointExtension>
      <wptx1:WaypointExtension>
        <wptx1:DisplayMode>SymbolOnly</wptx1:DisplayMode>
      </wptx1:WaypointExtension>
      <ctx:CreationTimeExtension>
        <ctx:CreationTime>2022-03-26T00:16:25Z</ctx:CreationTime>
      </ctx:CreationTimeExtension>
    </extensions>
  </wpt>

  <wpt lat="46.298210620880127" lon="-67.528324127197266">
    <time>2022-07-24T19:17:04Z</time>
    <name>Dr. Walter Chestnut Public Library</name>
    <cmt>Dr. Walter Chestnut Public Library</cmt>
    <desc>Dr. Walter Chestnut Public Library</desc>
    <sym>Library</sym>
    <type>user</type>
    <extensions>
      <gpxx:WaypointExtension>
        <gpxx:DisplayMode>SymbolOnly</gpxx:DisplayMode>
      </gpxx:WaypointExtension>
      <wptx1:WaypointExtension>
        <wptx1:DisplayMode>SymbolOnly</wptx1:DisplayMode>
      </wptx1:WaypointExtension>
      <ctx:CreationTimeExtension>
        <ctx:CreationTime>2022-07-24T19:17:04Z</ctx:CreationTime>
      </ctx:CreationTimeExtension>
    </extensions>
  </wpt>

  <wpt lat="46.261003017425537" lon="-81.769630908966064">
    <time>2022-04-02T21:38:11Z</time>
    <name>Espanola Public Library</name>
    <cmt>Espanola Public Library</cmt>
    <desc>Espanola Public Library</desc>
    <sym>Library</sym>
    <type>user</type>
    <extensions>
      <gpxx:WaypointExtension>
        <gpxx:DisplayMode>SymbolOnly</gpxx:DisplayMode>
      </gpxx:WaypointExtension>
      <wptx1:WaypointExtension>
        <wptx1:DisplayMode>SymbolOnly</wptx1:DisplayMode>
      </wptx1:WaypointExtension>
      <ctx:CreationTimeExtension>
        <ctx:CreationTime>2022-04-02T21:38:11Z</ctx:CreationTime>
      </ctx:CreationTimeExtension>
    </extensions>
  </wpt>

  <wpt lat="48.611522940918803" lon="-93.380531938746572">
    <time>2022-06-30T16:55:50Z</time>
    <name>Fort Frances Public Library Technology Centre</name>
    <cmt>Fort Frances</cmt>
    <desc>Fort Frances</desc>
    <sym>Library</sym>
    <type>user</type>
    <extensions>
      <gpxx:WaypointExtension>
        <gpxx:DisplayMode>SymbolOnly</gpxx:DisplayMode>
      </gpxx:WaypointExtension>
      <wptx1:WaypointExtension>
        <wptx1:DisplayMode>SymbolOnly</wptx1:DisplayMode>
      </wptx1:WaypointExtension>
      <ctx:CreationTimeExtension>
        <ctx:CreationTime>2022-06-30T16:55:50Z</ctx:CreationTime>
      </ctx:CreationTimeExtension>
    </extensions>
  </wpt>

  <wpt lat="45.962548339739442" lon="-66.639847839251161">
    <time>2022-04-21T09:21:04Z</time>
    <name>Fredericton Public Library</name>
    <cmt>Fredericton Public Library</cmt>
    <desc>Fredericton Public Library</desc>
    <sym>Library</sym>
    <type>user</type>
    <extensions>
      <gpxx:WaypointExtension>
        <gpxx:DisplayMode>SymbolOnly</gpxx:DisplayMode>
      </gpxx:WaypointExtension>
      <wptx1:WaypointExtension>
        <wptx1:DisplayMode>SymbolOnly</wptx1:DisplayMode>
      </wptx1:WaypointExtension>
      <ctx:CreationTimeExtension>
        <ctx:CreationTime>2022-04-21T09:21:04Z</ctx:CreationTime>
      </ctx:CreationTimeExtension>
    </extensions>
  </wpt>

  <wpt lat="51.297290325164795" lon="-116.96523427963257">
    <time>2022-04-21T09:12:35Z</time>
    <name>Golden &amp; District Library</name>
    <cmt>Golden &amp; District Library</cmt>
    <desc>Golden &amp; District Library</desc>
    <sym>Library</sym>
    <type>user</type>
    <extensions>
      <gpxx:WaypointExtension>
        <gpxx:DisplayMode>SymbolOnly</gpxx:DisplayMode>
      </gpxx:WaypointExtension>
      <wptx1:WaypointExtension>
        <wptx1:DisplayMode>SymbolOnly</wptx1:DisplayMode>
      </wptx1:WaypointExtension>
      <ctx:CreationTimeExtension>
        <ctx:CreationTime>2022-04-21T09:12:35Z</ctx:CreationTime>
      </ctx:CreationTimeExtension>
    </extensions>
  </wpt>

  <wpt lat="47.044916236773133" lon="-67.742514610290527">
    <time>2022-05-01T05:57:49Z</time>
    <name>Grand Falls Library</name>
    <cmt>Grand Falls Library</cmt>
    <desc>Grand Falls Library</desc>
    <sym>Library</sym>
    <type>user</type>
    <extensions>
      <gpxx:WaypointExtension>
        <gpxx:DisplayMode>SymbolOnly</gpxx:DisplayMode>
      </gpxx:WaypointExtension>
      <wptx1:WaypointExtension>
        <wptx1:DisplayMode>SymbolOnly</wptx1:DisplayMode>
      </wptx1:WaypointExtension>
      <ctx:CreationTimeExtension>
        <ctx:CreationTime>2022-05-01T05:57:49Z</ctx:CreationTime>
      </ctx:CreationTimeExtension>
    </extensions>
  </wpt>

  <wpt lat="46.495492458343506" lon="-80.997541034594178">
    <time>2022-04-22T03:12:57Z</time>
    <name>Greater Sudbury Public Library - Main Library</name>
    <cmt>Main Branch</cmt>
    <desc>Main Branch</desc>
    <sym>Library</sym>
    <type>user</type>
    <extensions>
      <gpxx:WaypointExtension>
        <gpxx:DisplayMode>SymbolOnly</gpxx:DisplayMode>
      </gpxx:WaypointExtension>
      <wptx1:WaypointExtension>
        <wptx1:DisplayMode>SymbolOnly</wptx1:DisplayMode>
      </wptx1:WaypointExtension>
      <ctx:CreationTimeExtension>
        <ctx:CreationTime>2022-04-22T03:12:57Z</ctx:CreationTime>
      </ctx:CreationTimeExtension>
    </extensions>
  </wpt>

  <wpt lat="49.087643623352051" lon="-118.67723456583917">
    <time>2022-05-07T22:53:26Z</time>
    <name>Greenwood Public Library</name>
    <cmt>Greenwood Public Library</cmt>
    <desc>Greenwood Public Library</desc>
    <sym>Library</sym>
    <type>user</type>
    <extensions>
      <gpxx:WaypointExtension>
        <gpxx:DisplayMode>SymbolOnly</gpxx:DisplayMode>
      </gpxx:WaypointExtension>
      <wptx1:WaypointExtension>
        <wptx1:DisplayMode>SymbolOnly</wptx1:DisplayMode>
      </wptx1:WaypointExtension>
      <ctx:CreationTimeExtension>
        <ctx:CreationTime>2022-05-07T22:53:26Z</ctx:CreationTime>
      </ctx:CreationTimeExtension>
    </extensions>
  </wpt>

  <wpt lat="50.09498493745923" lon="-108.48611058667302">
    <time>2022-04-21T00:55:52Z</time>
    <name>Gull Lake Branch Library</name>
    <cmt>area</cmt>
    <desc>area</desc>
    <sym>Library</sym>
    <type>user</type>
    <extensions>
      <gpxx:WaypointExtension>
        <gpxx:DisplayMode>SymbolOnly</gpxx:DisplayMode>
      </gpxx:WaypointExtension>
      <wptx1:WaypointExtension>
        <wptx1:DisplayMode>SymbolOnly</wptx1:DisplayMode>
      </wptx1:WaypointExtension>
      <ctx:CreationTimeExtension>
        <ctx:CreationTime>2022-04-21T00:55:52Z</ctx:CreationTime>
      </ctx:CreationTimeExtension>
    </extensions>
  </wpt>

  <wpt lat="44.642794132232666" lon="-63.575155735015869">
    <time>2022-04-20T02:54:58Z</time>
    <name>Halifax Central Library</name>
    <cmt>Halifax Central Library</cmt>
    <desc>Halifax Central Library</desc>
    <sym>Library</sym>
    <type>user</type>
    <extensions>
      <gpxx:WaypointExtension>
        <gpxx:DisplayMode>SymbolOnly</gpxx:DisplayMode>
      </gpxx:WaypointExtension>
      <wptx1:WaypointExtension>
        <wptx1:DisplayMode>SymbolOnly</wptx1:DisplayMode>
      </wptx1:WaypointExtension>
      <ctx:CreationTimeExtension>
        <ctx:CreationTime>2022-04-20T02:54:58Z</ctx:CreationTime>
      </ctx:CreationTimeExtension>
    </extensions>
  </wpt>

  <wpt lat="50.426414860412478" lon="-107.22013626247644">
    <time>2022-09-17T13:46:16Z</time>
    <name>Herbert Branch Library</name>
    <cmt>Herbert</cmt>
    <desc>Herbert</desc>
    <sym>Library</sym>
    <type>user</type>
    <extensions>
      <gpxx:WaypointExtension>
        <gpxx:DisplayMode>SymbolOnly</gpxx:DisplayMode>
      </gpxx:WaypointExtension>
      <wptx1:WaypointExtension>
        <wptx1:DisplayMode>SymbolOnly</wptx1:DisplayMode>
      </wptx1:WaypointExtension>
      <ctx:CreationTimeExtension>
        <ctx:CreationTime>2022-09-17T13:46:16Z</ctx:CreationTime>
      </ctx:CreationTimeExtension>
    </extensions>
  </wpt>

  <wpt lat="49.379167640581727" lon="-121.431884765625">
    <time>2022-04-20T02:43:12Z</time>
    <name>Hope Library</name>
    <cmt>library</cmt>
    <desc>library</desc>
    <sym>Library</sym>
    <type>user</type>
    <extensions>
      <gpxx:WaypointExtension>
        <gpxx:DisplayMode>SymbolOnly</gpxx:DisplayMode>
      </gpxx:WaypointExtension>
      <wptx1:WaypointExtension>
        <wptx1:DisplayMode>SymbolOnly</wptx1:DisplayMode>
      </wptx1:WaypointExtension>
      <ctx:CreationTimeExtension>
        <ctx:CreationTime>2022-04-20T02:43:12Z</ctx:CreationTime>
      </ctx:CreationTimeExtension>
    </extensions>
  </wpt>

  <wpt lat="49.416276924312115" lon="-91.66695736348629">
    <time>2022-04-06T00:04:01Z</time>
    <name>Ignace Public Library</name>
    <cmt>area</cmt>
    <desc>area</desc>
    <sym>Library</sym>
    <type>user</type>
    <extensions>
      <gpxx:WaypointExtension>
        <gpxx:DisplayMode>SymbolOnly</gpxx:DisplayMode>
      </gpxx:WaypointExtension>
      <wptx1:WaypointExtension>
        <wptx1:DisplayMode>SymbolOnly</wptx1:DisplayMode>
      </wptx1:WaypointExtension>
      <ctx:CreationTimeExtension>
        <ctx:CreationTime>2022-04-06T00:04:01Z</ctx:CreationTime>
      </ctx:CreationTimeExtension>
    </extensions>
  </wpt>

  <wpt lat="50.531959533691406" lon="-103.66761445999146">
    <time>2022-09-17T13:16:51Z</time>
    <name>Indian Head Public Library Branch</name>
    <cmt>library</cmt>
    <desc>library</desc>
    <sym>Library</sym>
    <type>user</type>
    <extensions>
      <gpxx:WaypointExtension>
        <gpxx:DisplayMode>SymbolOnly</gpxx:DisplayMode>
      </gpxx:WaypointExtension>
      <wptx1:WaypointExtension>
        <wptx1:DisplayMode>SymbolOnly</wptx1:DisplayMode>
      </wptx1:WaypointExtension>
      <ctx:CreationTimeExtension>
        <ctx:CreationTime>2022-09-17T13:16:51Z</ctx:CreationTime>
      </ctx:CreationTimeExtension>
    </extensions>
  </wpt>

  <wpt lat="50.510340593755245" lon="-116.03010473772883">
    <time>2022-04-21T09:33:45Z</time>
    <name>Invermere Public Library</name>
    <cmt>forest, park</cmt>
    <desc>forest, park</desc>
    <sym>Library</sym>
    <type>user</type>
    <extensions>
      <gpxx:WaypointExtension>
        <gpxx:DisplayMode>SymbolOnly</gpxx:DisplayMode>
      </gpxx:WaypointExtension>
      <wptx1:WaypointExtension>
        <wptx1:DisplayMode>SymbolOnly</wptx1:DisplayMode>
      </wptx1:WaypointExtension>
      <ctx:CreationTimeExtension>
        <ctx:CreationTime>2022-04-21T09:33:45Z</ctx:CreationTime>
      </ctx:CreationTimeExtension>
    </extensions>
  </wpt>

  <wpt lat="49.956816136837006" lon="-110.27328648604453">
    <time>2022-09-19T13:52:17Z</time>
    <name>Irvine Community Library</name>
    <cmt>area</cmt>
    <desc>area</desc>
    <sym>Library</sym>
    <type>user</type>
    <extensions>
      <gpxx:WaypointExtension>
        <gpxx:DisplayMode>SymbolOnly</gpxx:DisplayMode>
      </gpxx:WaypointExtension>
      <wptx1:WaypointExtension>
        <wptx1:DisplayMode>SymbolOnly</wptx1:DisplayMode>
      </wptx1:WaypointExtension>
      <ctx:CreationTimeExtension>
        <ctx:CreationTime>2022-09-19T13:52:17Z</ctx:CreationTime>
      </ctx:CreationTimeExtension>
    </extensions>
  </wpt>

  <wpt lat="50.675661563873291" lon="-120.33014059066772">
    <time>2022-04-22T02:55:41Z</time>
    <name>Kamloops Library</name>
    <cmt>Kamloops Library</cmt>
    <desc>Kamloops Library</desc>
    <sym>Library</sym>
    <type>user</type>
    <extensions>
      <gpxx:WaypointExtension>
        <gpxx:DisplayMode>SymbolOnly</gpxx:DisplayMode>
      </gpxx:WaypointExtension>
      <wptx1:WaypointExtension>
        <wptx1:DisplayMode>SymbolOnly</wptx1:DisplayMode>
      </wptx1:WaypointExtension>
      <ctx:CreationTimeExtension>
        <ctx:CreationTime>2022-04-22T02:55:41Z</ctx:CreationTime>
      </ctx:CreationTimeExtension>
    </extensions>
  </wpt>

  <wpt lat="49.768345439806581" lon="-94.48991060256958">
    <time>2022-04-21T00:50:30Z</time>
    <name>Kenora Public Library (Main Branch)</name>
    <cmt>Kenora Public Library</cmt>
    <desc>Kenora Public Library</desc>
    <sym>Library</sym>
    <type>user</type>
    <extensions>
      <gpxx:WaypointExtension>
        <gpxx:DisplayMode>SymbolOnly</gpxx:DisplayMode>
      </gpxx:WaypointExtension>
      <wptx1:WaypointExtension>
        <wptx1:DisplayMode>SymbolOnly</wptx1:DisplayMode>
      </wptx1:WaypointExtension>
      <ctx:CreationTimeExtension>
        <ctx:CreationTime>2022-04-21T00:50:30Z</ctx:CreationTime>
      </ctx:CreationTimeExtension>
    </extensions>
  </wpt>

  <wpt lat="49.692385196685791" lon="-112.83413887023926">
    <time>2022-04-21T00:26:32Z</time>
    <name>Lethbridge Public Library - Main Branch</name>
    <cmt>Lethbridge Public Library - Main Branch</cmt>
    <desc>Lethbridge Public Library - Main Branch</desc>
    <sym>Library</sym>
    <type>user</type>
    <extensions>
      <gpxx:WaypointExtension>
        <gpxx:DisplayMode>SymbolOnly</gpxx:DisplayMode>
      </gpxx:WaypointExtension>
      <wptx1:WaypointExtension>
        <wptx1:DisplayMode>SymbolOnly</wptx1:DisplayMode>
      </wptx1:WaypointExtension>
      <ctx:CreationTimeExtension>
        <ctx:CreationTime>2022-04-21T00:26:32Z</ctx:CreationTime>
      </ctx:CreationTimeExtension>
    </extensions>
  </wpt>

  <wpt lat="48.717950060963631" lon="-86.376400161534548">
    <time>2022-04-22T03:09:43Z</time>
    <name>Marathon Public Library</name>
    <cmt>area</cmt>
    <desc>area</desc>
    <sym>Library</sym>
    <type>user</type>
    <extensions>
      <gpxx:WaypointExtension>
        <gpxx:DisplayMode>SymbolOnly</gpxx:DisplayMode>
      </gpxx:WaypointExtension>
      <wptx1:WaypointExtension>
        <wptx1:DisplayMode>SymbolOnly</wptx1:DisplayMode>
      </wptx1:WaypointExtension>
      <ctx:CreationTimeExtension>
        <ctx:CreationTime>2022-04-22T03:09:43Z</ctx:CreationTime>
      </ctx:CreationTimeExtension>
    </extensions>
  </wpt>

  <wpt lat="50.040643215179443" lon="-110.68099021911621">
    <time>2022-04-20T23:59:17Z</time>
    <name>Medicine Hat Public Library</name>
    <cmt>Medicine Hat Public Library</cmt>
    <desc>Medicine Hat Public Library</desc>
    <sym>Library</sym>
    <type>user</type>
    <extensions>
      <gpxx:WaypointExtension>
        <gpxx:DisplayMode>SymbolOnly</gpxx:DisplayMode>
      </gpxx:WaypointExtension>
      <wptx1:WaypointExtension>
        <wptx1:DisplayMode>SymbolOnly</wptx1:DisplayMode>
      </wptx1:WaypointExtension>
      <ctx:CreationTimeExtension>
        <ctx:CreationTime>2022-04-20T23:59:17Z</ctx:CreationTime>
      </ctx:CreationTimeExtension>
    </extensions>
  </wpt>

  <wpt lat="49.892027378082275" lon="-97.142379283905029">
    <time>2022-04-20T03:02:29Z</time>
    <name>Millennium Library (Winnipeg Public Library main branch)</name>
    <cmt>Millennium Library</cmt>
    <desc>Millennium Library</desc>
    <sym>Library</sym>
    <type>user</type>
    <extensions>
      <gpxx:WaypointExtension>
        <gpxx:DisplayMode>SymbolOnly</gpxx:DisplayMode>
      </gpxx:WaypointExtension>
      <wptx1:WaypointExtension>
        <wptx1:DisplayMode>SymbolOnly</wptx1:DisplayMode>
      </wptx1:WaypointExtension>
      <ctx:CreationTimeExtension>
        <ctx:CreationTime>2022-04-20T03:02:29Z</ctx:CreationTime>
      </ctx:CreationTimeExtension>
    </extensions>
  </wpt>

  <wpt lat="46.088483333587646" lon="-64.774425029754639">
    <time>2022-04-21T09:22:01Z</time>
    <name>Moncton Public Library</name>
    <cmt>Moncton Public Library</cmt>
    <desc>Moncton Public Library</desc>
    <sym>Library</sym>
    <type>user</type>
    <extensions>
      <gpxx:WaypointExtension>
        <gpxx:DisplayMode>SymbolOnly</gpxx:DisplayMode>
      </gpxx:WaypointExtension>
      <wptx1:WaypointExtension>
        <wptx1:DisplayMode>SymbolOnly</wptx1:DisplayMode>
      </wptx1:WaypointExtension>
      <ctx:CreationTimeExtension>
        <ctx:CreationTime>2022-04-21T09:22:01Z</ctx:CreationTime>
      </ctx:CreationTimeExtension>
    </extensions>
  </wpt>

  <wpt lat="50.39503812789917" lon="-105.53144931793213">
    <time>2022-04-22T03:06:35Z</time>
    <name>Moose Jaw Library and Art Gallery</name>
    <cmt>Moose Jaw Library and Art Gallery</cmt>
    <desc>Moose Jaw Library and Art Gallery</desc>
    <sym>Library</sym>
    <type>user</type>
    <extensions>
      <gpxx:WaypointExtension>
        <gpxx:DisplayMode>SymbolOnly</gpxx:DisplayMode>
      </gpxx:WaypointExtension>
      <wptx1:WaypointExtension>
        <wptx1:DisplayMode>SymbolOnly</wptx1:DisplayMode>
      </wptx1:WaypointExtension>
      <ctx:CreationTimeExtension>
        <ctx:CreationTime>2022-04-22T03:06:35Z</ctx:CreationTime>
      </ctx:CreationTimeExtension>
    </extensions>
  </wpt>

  <wpt lat="50.144013119861484" lon="-101.66669416241348">
    <time>2022-09-27T16:31:45Z</time>
    <name>Moosomin Public Library Branch</name>
    <cmt>residential area</cmt>
    <desc>residential area</desc>
    <sym>Library</sym>
    <type>user</type>
    <extensions>
      <gpxx:WaypointExtension>
        <gpxx:DisplayMode>SymbolOnly</gpxx:DisplayMode>
      </gpxx:WaypointExtension>
      <wptx1:WaypointExtension>
        <wptx1:DisplayMode>SymbolOnly</wptx1:DisplayMode>
      </wptx1:WaypointExtension>
      <ctx:CreationTimeExtension>
        <ctx:CreationTime>2022-09-27T16:31:45Z</ctx:CreationTime>
      </ctx:CreationTimeExtension>
    </extensions>
  </wpt>

  <wpt lat="51.188929080963135" lon="-114.47196006774902">
    <time>2022-04-22T03:04:58Z</time>
    <name>Nan Boothby Memorial Library (Cochrane Public Library)</name>
    <cmt>Nan Boothby Memorial Library</cmt>
    <desc>Nan Boothby Memorial Library</desc>
    <sym>Library</sym>
    <type>user</type>
    <extensions>
      <gpxx:WaypointExtension>
        <gpxx:DisplayMode>SymbolOnly</gpxx:DisplayMode>
      </gpxx:WaypointExtension>
      <wptx1:WaypointExtension>
        <wptx1:DisplayMode>SymbolOnly</wptx1:DisplayMode>
      </wptx1:WaypointExtension>
      <ctx:CreationTimeExtension>
        <ctx:CreationTime>2022-04-22T03:04:58Z</ctx:CreationTime>
      </ctx:CreationTimeExtension>
    </extensions>
  </wpt>

  <wpt lat="49.490489959716797" lon="-117.29475983418524">
    <time>2022-04-21T05:43:13Z</time>
    <name>Nelson Public Library</name>
    <cmt>Nelson Public Library</cmt>
    <desc>Nelson Public Library</desc>
    <sym>Library</sym>
    <type>user</type>
    <extensions>
      <gpxx:WaypointExtension>
        <gpxx:DisplayMode>SymbolOnly</gpxx:DisplayMode>
      </gpxx:WaypointExtension>
      <wptx1:WaypointExtension>
        <wptx1:DisplayMode>SymbolOnly</wptx1:DisplayMode>
      </wptx1:WaypointExtension>
      <ctx:CreationTimeExtension>
        <ctx:CreationTime>2022-04-21T05:43:13Z</ctx:CreationTime>
      </ctx:CreationTimeExtension>
    </extensions>
  </wpt>

  <wpt lat="45.587952369824052" lon="-62.643760582432151">
    <time>2022-04-21T00:17:43Z</time>
    <name>New Glasgow Public Library</name>
    <cmt>New Glasgow</cmt>
    <desc>New Glasgow</desc>
    <sym>Library</sym>
    <type>user</type>
    <extensions>
      <gpxx:WaypointExtension>
        <gpxx:DisplayMode>SymbolOnly</gpxx:DisplayMode>
      </gpxx:WaypointExtension>
      <wptx1:WaypointExtension>
        <wptx1:DisplayMode>SymbolOnly</wptx1:DisplayMode>
      </wptx1:WaypointExtension>
      <ctx:CreationTimeExtension>
        <ctx:CreationTime>2022-04-21T00:17:43Z</ctx:CreationTime>
      </ctx:CreationTimeExtension>
    </extensions>
  </wpt>

  <wpt lat="49.01238058693707" lon="-88.263166984543204">
    <time>2022-06-02T06:59:38Z</time>
    <name>Nipigon Public Library</name>
    <cmt>residential area</cmt>
    <desc>residential area</desc>
    <sym>Library</sym>
    <type>user</type>
    <extensions>
      <gpxx:WaypointExtension>
        <gpxx:DisplayMode>SymbolOnly</gpxx:DisplayMode>
      </gpxx:WaypointExtension>
      <wptx1:WaypointExtension>
        <wptx1:DisplayMode>SymbolOnly</wptx1:DisplayMode>
      </wptx1:WaypointExtension>
      <ctx:CreationTimeExtension>
        <ctx:CreationTime>2022-06-02T06:59:38Z</ctx:CreationTime>
      </ctx:CreationTimeExtension>
    </extensions>
  </wpt>

  <wpt lat="46.308883717283607" lon="-79.459849465638399">
    <time>2022-04-22T03:11:33Z</time>
    <name>North Bay Public Library</name>
    <cmt>area</cmt>
    <desc>area</desc>
    <sym>Library</sym>
    <type>user</type>
    <extensions>
      <gpxx:WaypointExtension>
        <gpxx:DisplayMode>SymbolOnly</gpxx:DisplayMode>
      </gpxx:WaypointExtension>
      <wptx1:WaypointExtension>
        <wptx1:DisplayMode>SymbolOnly</wptx1:DisplayMode>
      </wptx1:WaypointExtension>
      <ctx:CreationTimeExtension>
        <ctx:CreationTime>2022-04-22T03:11:33Z</ctx:CreationTime>
      </ctx:CreationTimeExtension>
    </extensions>
  </wpt>

  <wpt lat="49.889860237017274" lon="-119.49429988861084">
    <time>2022-04-21T00:43:47Z</time>
    <name>Okanagan Regional Library Kelowna</name>
    <cmt>Okanagan Regional Library Kelowna</cmt>
    <desc>Okanagan Regional Library Kelowna</desc>
    <sym>Library</sym>
    <type>user</type>
    <extensions>
      <gpxx:WaypointExtension>
        <gpxx:DisplayMode>SymbolOnly</gpxx:DisplayMode>
      </gpxx:WaypointExtension>
      <wptx1:WaypointExtension>
        <wptx1:DisplayMode>SymbolOnly</wptx1:DisplayMode>
      </wptx1:WaypointExtension>
      <ctx:CreationTimeExtension>
        <ctx:CreationTime>2022-04-21T00:43:47Z</ctx:CreationTime>
      </ctx:CreationTimeExtension>
    </extensions>
  </wpt>

  <wpt lat="43.919284259900451" lon="-80.095696365460753">
    <time>2022-03-23T12:29:42Z</time>
    <name>Orangeville Public Library (Main Street Branch)</name>
    <cmt>Orangeville Public Library (Main Street Branch)</cmt>
    <desc>Orangeville Public Library (Main Street Branch)</desc>
    <sym>Library</sym>
    <type>user</type>
    <extensions>
      <gpxx:WaypointExtension>
        <gpxx:DisplayMode>SymbolOnly</gpxx:DisplayMode>
      </gpxx:WaypointExtension>
      <wptx1:WaypointExtension>
        <wptx1:DisplayMode>SymbolOnly</wptx1:DisplayMode>
      </wptx1:WaypointExtension>
      <ctx:CreationTimeExtension>
        <ctx:CreationTime>2022-03-23T12:29:42Z</ctx:CreationTime>
      </ctx:CreationTimeExtension>
    </extensions>
  </wpt>

  <wpt lat="43.869287967681885" lon="-78.848984241485596">
    <time>2022-04-21T00:45:49Z</time>
    <name>Oshawa Public Libraries - Jess Hann Branch</name>
    <cmt>Jess Hann Branch</cmt>
    <desc>Jess Hann Branch</desc>
    <sym>Library</sym>
    <type>user</type>
    <extensions>
      <gpxx:WaypointExtension>
        <gpxx:DisplayMode>SymbolOnly</gpxx:DisplayMode>
      </gpxx:WaypointExtension>
      <wptx1:WaypointExtension>
        <wptx1:DisplayMode>SymbolOnly</wptx1:DisplayMode>
      </wptx1:WaypointExtension>
      <ctx:CreationTimeExtension>
        <ctx:CreationTime>2022-04-21T00:45:49Z</ctx:CreationTime>
      </ctx:CreationTimeExtension>
    </extensions>
  </wpt>

  <wpt lat="49.029444213956594" lon="-119.46572463959455">
    <time>2022-05-01T06:07:54Z</time>
    <name>Osoyoos Library | ORL Branch</name>
    <cmt>area</cmt>
    <desc>area</desc>
    <sym>Library</sym>
    <type>user</type>
    <extensions>
      <gpxx:WaypointExtension>
        <gpxx:DisplayMode>SymbolOnly</gpxx:DisplayMode>
      </gpxx:WaypointExtension>
      <wptx1:WaypointExtension>
        <wptx1:DisplayMode>SymbolOnly</wptx1:DisplayMode>
      </wptx1:WaypointExtension>
      <ctx:CreationTimeExtension>
        <ctx:CreationTime>2022-05-01T06:07:54Z</ctx:CreationTime>
      </ctx:CreationTimeExtension>
    </extensions>
  </wpt>

  <wpt lat="45.430097579956055" lon="-75.683140838518739">
    <time>2022-04-19T02:23:54Z</time>
    <name>Ottawa Public Library Rideau Branch</name>
    <cmt>Ottawa Public Library Rideau Branch</cmt>
    <desc>Ottawa Public Library Rideau Branch</desc>
    <sym>Library</sym>
    <type>user</type>
    <extensions>
      <gpxx:WaypointExtension>
        <gpxx:DisplayMode>SymbolOnly</gpxx:DisplayMode>
      </gpxx:WaypointExtension>
      <wptx1:WaypointExtension>
        <wptx1:DisplayMode>SymbolOnly</wptx1:DisplayMode>
      </wptx1:WaypointExtension>
      <ctx:CreationTimeExtension>
        <ctx:CreationTime>2022-04-19T02:23:54Z</ctx:CreationTime>
      </ctx:CreationTimeExtension>
    </extensions>
  </wpt>

  <wpt lat="44.564065933227539" lon="-80.944991111755371">
    <time>2022-04-21T09:24:56Z</time>
    <name>Owen Sound &amp; North Grey Union Public Library</name>
    <cmt>Owen Sound &amp; North Grey Union Public Library</cmt>
    <desc>Owen Sound &amp; North Grey Union Public Library</desc>
    <sym>Library</sym>
    <type>user</type>
    <extensions>
      <gpxx:WaypointExtension>
        <gpxx:DisplayMode>SymbolOnly</gpxx:DisplayMode>
      </gpxx:WaypointExtension>
      <wptx1:WaypointExtension>
        <wptx1:DisplayMode>SymbolOnly</wptx1:DisplayMode>
      </wptx1:WaypointExtension>
      <ctx:CreationTimeExtension>
        <ctx:CreationTime>2022-04-21T09:24:56Z</ctx:CreationTime>
      </ctx:CreationTimeExtension>
    </extensions>
  </wpt>

  <wpt lat="49.491262435913086" lon="-119.58903551101685">
    <time>2021-11-10T10:04:54Z</time>
    <name>Penticton Public Library</name>
    <cmt>Penticton Library</cmt>
    <desc>Penticton Library</desc>
    <sym>Library</sym>
    <type>user</type>
    <extensions>
      <gpxx:WaypointExtension>
        <gpxx:DisplayMode>SymbolOnly</gpxx:DisplayMode>
      </gpxx:WaypointExtension>
      <wptx1:WaypointExtension>
        <wptx1:DisplayMode>SymbolOnly</wptx1:DisplayMode>
      </wptx1:WaypointExtension>
      <ctx:CreationTimeExtension>
        <ctx:CreationTime>2021-11-10T10:04:54Z</ctx:CreationTime>
      </ctx:CreationTimeExtension>
    </extensions>
  </wpt>

  <wpt lat="43.812317764386535" lon="-79.12503719329834">
    <time>2022-04-25T08:30:34Z</time>
    <name>Pickering Public Library (Rougemount)</name>
    <cmt>Pickering Public Library (Rougemount)</cmt>
    <desc>Pickering Public Library (Rougemount)</desc>
    <sym>Library</sym>
    <type>user</type>
    <extensions>
      <gpxx:WaypointExtension>
        <gpxx:DisplayMode>SymbolOnly</gpxx:DisplayMode>
      </gpxx:WaypointExtension>
      <wptx1:WaypointExtension>
        <wptx1:DisplayMode>SymbolOnly</wptx1:DisplayMode>
      </wptx1:WaypointExtension>
      <ctx:CreationTimeExtension>
        <ctx:CreationTime>2022-04-25T08:30:34Z</ctx:CreationTime>
      </ctx:CreationTimeExtension>
    </extensions>
  </wpt>

  <wpt lat="49.48591947555542" lon="-113.94148349761963">
    <time>2022-05-01T06:09:12Z</time>
    <name>Pincher Creek Library</name>
    <cmt>Pincher Creek Library</cmt>
    <desc>Pincher Creek Library</desc>
    <sym>Library</sym>
    <type>user</type>
    <extensions>
      <gpxx:WaypointExtension>
        <gpxx:DisplayMode>SymbolOnly</gpxx:DisplayMode>
      </gpxx:WaypointExtension>
      <wptx1:WaypointExtension>
        <wptx1:DisplayMode>SymbolOnly</wptx1:DisplayMode>
      </wptx1:WaypointExtension>
      <ctx:CreationTimeExtension>
        <ctx:CreationTime>2022-05-01T06:09:12Z</ctx:CreationTime>
      </ctx:CreationTimeExtension>
    </extensions>
  </wpt>

  <wpt lat="49.974210262298584" lon="-98.288111686706543">
    <time>2022-04-21T00:51:44Z</time>
    <name>Portage la Prairie Regional Library</name>
    <cmt>Portage la Prairie Regional Library</cmt>
    <desc>Portage la Prairie Regional Library</desc>
    <sym>Library</sym>
    <type>user</type>
    <extensions>
      <gpxx:WaypointExtension>
        <gpxx:DisplayMode>SymbolOnly</gpxx:DisplayMode>
      </gpxx:WaypointExtension>
      <wptx1:WaypointExtension>
        <wptx1:DisplayMode>SymbolOnly</wptx1:DisplayMode>
      </wptx1:WaypointExtension>
      <ctx:CreationTimeExtension>
        <ctx:CreationTime>2022-04-21T00:51:44Z</ctx:CreationTime>
      </ctx:CreationTimeExtension>
    </extensions>
  </wpt>

  <wpt lat="53.91190767288208" lon="-122.74987936019897">
    <time>2022-04-21T00:29:25Z</time>
    <name>Prince George Public Library</name>
    <cmt>Public Library</cmt>
    <desc>Public Library</desc>
    <sym>Library</sym>
    <type>user</type>
    <extensions>
      <gpxx:WaypointExtension>
        <gpxx:DisplayMode>SymbolOnly</gpxx:DisplayMode>
      </gpxx:WaypointExtension>
      <wptx1:WaypointExtension>
        <wptx1:DisplayMode>SymbolOnly</wptx1:DisplayMode>
      </wptx1:WaypointExtension>
      <ctx:CreationTimeExtension>
        <ctx:CreationTime>2022-04-21T00:29:25Z</ctx:CreationTime>
      </ctx:CreationTimeExtension>
    </extensions>
  </wpt>

  <wpt lat="54.312988864257932" lon="-130.31785078346729">
    <time>2022-04-23T20:41:03Z</time>
    <name>Prince Rupert Public Library</name>
    <cmt>Prince Rupert Public Library</cmt>
    <desc>Prince Rupert Public Library</desc>
    <sym>Library</sym>
    <type>user</type>
    <extensions>
      <gpxx:WaypointExtension>
        <gpxx:DisplayMode>SymbolOnly</gpxx:DisplayMode>
      </gpxx:WaypointExtension>
      <wptx1:WaypointExtension>
        <wptx1:DisplayMode>SymbolOnly</wptx1:DisplayMode>
      </wptx1:WaypointExtension>
      <ctx:CreationTimeExtension>
        <ctx:CreationTime>2022-04-23T20:41:03Z</ctx:CreationTime>
      </ctx:CreationTimeExtension>
    </extensions>
  </wpt>

  <wpt lat="50.44846773147583" lon="-104.61432703770697">
    <time>2022-04-21T00:25:09Z</time>
    <name>Regina Public Library Central Branch</name>
    <cmt>Regina Public Library Central Branch</cmt>
    <desc>Regina Public Library Central Branch</desc>
    <sym>Library</sym>
    <type>user</type>
    <extensions>
      <gpxx:WaypointExtension>
        <gpxx:DisplayMode>SymbolOnly</gpxx:DisplayMode>
      </gpxx:WaypointExtension>
      <wptx1:WaypointExtension>
        <wptx1:DisplayMode>SymbolOnly</wptx1:DisplayMode>
      </wptx1:WaypointExtension>
      <ctx:CreationTimeExtension>
        <ctx:CreationTime>2022-04-21T00:25:09Z</ctx:CreationTime>
      </ctx:CreationTimeExtension>
    </extensions>
  </wpt>

  <wpt lat="45.473270919173956" lon="-76.68547966517508">
    <time>2022-03-26T00:26:39Z</time>
    <name>Renfrew Public Library</name>
    <cmt>commercial/industrial area</cmt>
    <desc>commercial/industrial area</desc>
    <sym>Library</sym>
    <type>user</type>
    <extensions>
      <gpxx:WaypointExtension>
        <gpxx:DisplayMode>SymbolOnly</gpxx:DisplayMode>
      </gpxx:WaypointExtension>
      <wptx1:WaypointExtension>
        <wptx1:DisplayMode>SymbolOnly</wptx1:DisplayMode>
      </wptx1:WaypointExtension>
      <ctx:CreationTimeExtension>
        <ctx:CreationTime>2022-03-26T00:26:39Z</ctx:CreationTime>
      </ctx:CreationTimeExtension>
    </extensions>
  </wpt>

  <wpt lat="51.554545685648918" lon="-107.9910050611943">
    <time>2022-05-01T06:11:03Z</time>
    <name>Rosetown Centennial Library</name>
    <cmt>area</cmt>
    <desc>area</desc>
    <sym>Library</sym>
    <type>user</type>
    <extensions>
      <gpxx:WaypointExtension>
        <gpxx:DisplayMode>SymbolOnly</gpxx:DisplayMode>
      </gpxx:WaypointExtension>
      <wptx1:WaypointExtension>
        <wptx1:DisplayMode>SymbolOnly</wptx1:DisplayMode>
      </wptx1:WaypointExtension>
      <ctx:CreationTimeExtension>
        <ctx:CreationTime>2022-05-01T06:11:03Z</ctx:CreationTime>
      </ctx:CreationTimeExtension>
    </extensions>
  </wpt>

  <wpt lat="52.129440307617188" lon="-106.6602087020874">
    <time>2022-04-21T00:23:42Z</time>
    <name>Saskatoon Public Library (Frances Morrison Central Library)</name>
    <cmt>Public Library (Main Branch)</cmt>
    <desc>Public Library (Main Branch)</desc>
    <sym>Library</sym>
    <type>user</type>
    <extensions>
      <gpxx:WaypointExtension>
        <gpxx:DisplayMode>SymbolOnly</gpxx:DisplayMode>
      </gpxx:WaypointExtension>
      <wptx1:WaypointExtension>
        <wptx1:DisplayMode>SymbolOnly</wptx1:DisplayMode>
      </wptx1:WaypointExtension>
      <ctx:CreationTimeExtension>
        <ctx:CreationTime>2022-04-21T00:23:42Z</ctx:CreationTime>
      </ctx:CreationTimeExtension>
    </extensions>
  </wpt>

  <wpt lat="46.534425476565957" lon="-84.325800994411111">
    <time>2022-04-21T00:49:17Z</time>
    <name>Sault Ste. Marie Public Library - North Branch</name>
    <cmt>area</cmt>
    <desc>area</desc>
    <sym>Library</sym>
    <type>user</type>
    <extensions>
      <gpxx:WaypointExtension>
        <gpxx:DisplayMode>SymbolOnly</gpxx:DisplayMode>
      </gpxx:WaypointExtension>
      <wptx1:WaypointExtension>
        <wptx1:DisplayMode>SymbolOnly</wptx1:DisplayMode>
      </wptx1:WaypointExtension>
      <ctx:CreationTimeExtension>
        <ctx:CreationTime>2022-04-21T00:49:17Z</ctx:CreationTime>
      </ctx:CreationTimeExtension>
    </extensions>
  </wpt>

  <wpt lat="48.807849660515785" lon="-87.267623282968998">
    <time>2022-06-02T06:40:32Z</time>
    <name>Schreiber Public Library</name>
    <cmt>residential area</cmt>
    <desc>residential area</desc>
    <sym>Library</sym>
    <type>user</type>
    <extensions>
      <gpxx:WaypointExtension>
        <gpxx:DisplayMode>SymbolOnly</gpxx:DisplayMode>
      </gpxx:WaypointExtension>
      <wptx1:WaypointExtension>
        <wptx1:DisplayMode>SymbolOnly</wptx1:DisplayMode>
      </wptx1:WaypointExtension>
      <ctx:CreationTimeExtension>
        <ctx:CreationTime>2022-06-02T06:40:32Z</ctx:CreationTime>
      </ctx:CreationTimeExtension>
    </extensions>
  </wpt>

  <wpt lat="50.437968811020255" lon="-100.5912175308913">
    <time>2022-04-21T00:53:59Z</time>
    <name>Shoal Lake Community Library</name>
    <cmt>residential area</cmt>
    <desc>residential area</desc>
    <sym>Library</sym>
    <type>user</type>
    <extensions>
      <gpxx:WaypointExtension>
        <gpxx:DisplayMode>SymbolOnly</gpxx:DisplayMode>
      </gpxx:WaypointExtension>
      <wptx1:WaypointExtension>
        <wptx1:DisplayMode>SymbolOnly</wptx1:DisplayMode>
      </wptx1:WaypointExtension>
      <ctx:CreationTimeExtension>
        <ctx:CreationTime>2022-04-21T00:53:59Z</ctx:CreationTime>
      </ctx:CreationTimeExtension>
    </extensions>
  </wpt>

  <wpt lat="50.836849920451641" lon="-118.98252652958035">
    <time>2022-04-21T09:15:11Z</time>
    <name>Sicamous Library | ORL Branch</name>
    <cmt>area</cmt>
    <desc>area</desc>
    <sym>Library</sym>
    <type>user</type>
    <extensions>
      <gpxx:WaypointExtension>
        <gpxx:DisplayMode>SymbolOnly</gpxx:DisplayMode>
      </gpxx:WaypointExtension>
      <wptx1:WaypointExtension>
        <wptx1:DisplayMode>SymbolOnly</wptx1:DisplayMode>
      </wptx1:WaypointExtension>
      <ctx:CreationTimeExtension>
        <ctx:CreationTime>2022-04-21T09:15:11Z</ctx:CreationTime>
      </ctx:CreationTimeExtension>
    </extensions>
  </wpt>

  <wpt lat="49.190576076507568" lon="-122.84948587417603">
    <time>2022-04-21T00:41:41Z</time>
    <name>Surrey Libraries - City Centre Branch</name>
    <cmt>City Centre Library</cmt>
    <desc>City Centre Library</desc>
    <sym>Library</sym>
    <type>user</type>
    <extensions>
      <gpxx:WaypointExtension>
        <gpxx:DisplayMode>SymbolOnly</gpxx:DisplayMode>
      </gpxx:WaypointExtension>
      <wptx1:WaypointExtension>
        <wptx1:DisplayMode>SymbolOnly</wptx1:DisplayMode>
      </wptx1:WaypointExtension>
      <ctx:CreationTimeExtension>
        <ctx:CreationTime>2022-04-21T00:41:41Z</ctx:CreationTime>
      </ctx:CreationTimeExtension>
    </extensions>
  </wpt>

  <wpt lat="46.256851796060801" lon="-83.556544287130237">
    <time>2022-09-27T16:46:01Z</time>
    <name>Thessalon Public Library</name>
    <cmt>residential area</cmt>
    <desc>residential area</desc>
    <sym>Library</sym>
    <type>user</type>
    <extensions>
      <gpxx:WaypointExtension>
        <gpxx:DisplayMode>SymbolOnly</gpxx:DisplayMode>
      </gpxx:WaypointExtension>
      <wptx1:WaypointExtension>
        <wptx1:DisplayMode>SymbolOnly</wptx1:DisplayMode>
      </wptx1:WaypointExtension>
      <ctx:CreationTimeExtension>
        <ctx:CreationTime>2022-09-27T16:46:01Z</ctx:CreationTime>
      </ctx:CreationTimeExtension>
    </extensions>
  </wpt>

  <wpt lat="48.43623161315918" lon="-89.224004661664367">
    <time>2022-04-21T00:02:22Z</time>
    <name>Thunder Bay Public Library</name>
    <cmt>Thunder Bay Public Library</cmt>
    <desc>Thunder Bay Public Library</desc>
    <sym>Library</sym>
    <type>user</type>
    <extensions>
      <gpxx:WaypointExtension>
        <gpxx:DisplayMode>SymbolOnly</gpxx:DisplayMode>
      </gpxx:WaypointExtension>
      <wptx1:WaypointExtension>
        <wptx1:DisplayMode>SymbolOnly</wptx1:DisplayMode>
      </wptx1:WaypointExtension>
      <ctx:CreationTimeExtension>
        <ctx:CreationTime>2022-04-21T00:02:22Z</ctx:CreationTime>
      </ctx:CreationTimeExtension>
    </extensions>
  </wpt>

  <wpt lat="49.15381908416748" lon="-125.90752601623535">
    <time>2022-04-21T09:16:16Z</time>
    <name>Tofino - Vancouver Island Regional Library</name>
    <cmt>Vancouver Island Regional Library</cmt>
    <desc>Vancouver Island Regional Library</desc>
    <sym>Library</sym>
    <type>user</type>
    <extensions>
      <gpxx:WaypointExtension>
        <gpxx:DisplayMode>SymbolOnly</gpxx:DisplayMode>
      </gpxx:WaypointExtension>
      <wptx1:WaypointExtension>
        <wptx1:DisplayMode>SymbolOnly</wptx1:DisplayMode>
      </wptx1:WaypointExtension>
      <ctx:CreationTimeExtension>
        <ctx:CreationTime>2022-04-21T09:16:16Z</ctx:CreationTime>
      </ctx:CreationTimeExtension>
    </extensions>
  </wpt>

  <wpt lat="43.639218807220459" lon="-79.400381958112121">
    <time>2022-04-20T03:23:25Z</time>
    <name>Toronto Public Library - Fort York</name>
    <cmt>Toronto Public Library - Fort York</cmt>
    <desc>Toronto Public Library - Fort York</desc>
    <sym>Library</sym>
    <type>user</type>
    <extensions>
      <gpxx:WaypointExtension>
        <gpxx:DisplayMode>SymbolOnly</gpxx:DisplayMode>
      </gpxx:WaypointExtension>
      <wptx1:WaypointExtension>
        <wptx1:DisplayMode>SymbolOnly</wptx1:DisplayMode>
      </wptx1:WaypointExtension>
      <ctx:CreationTimeExtension>
        <ctx:CreationTime>2022-04-20T03:23:25Z</ctx:CreationTime>
      </ctx:CreationTimeExtension>
    </extensions>
  </wpt>

  <wpt lat="45.364458560943604" lon="-63.27850341796875">
    <time>2022-04-24T05:46:24Z</time>
    <name>Truro Library</name>
    <cmt>library</cmt>
    <desc>library</desc>
    <sym>Library</sym>
    <type>user</type>
    <extensions>
      <gpxx:WaypointExtension>
        <gpxx:DisplayMode>SymbolOnly</gpxx:DisplayMode>
      </gpxx:WaypointExtension>
      <wptx1:WaypointExtension>
        <wptx1:DisplayMode>SymbolOnly</wptx1:DisplayMode>
      </wptx1:WaypointExtension>
      <ctx:CreationTimeExtension>
        <ctx:CreationTime>2022-04-24T05:46:24Z</ctx:CreationTime>
      </ctx:CreationTimeExtension>
    </extensions>
  </wpt>

  <wpt lat="49.165277481079102" lon="-123.93635988235474">
    <time>2022-04-20T02:49:44Z</time>
    <name>Vancouver Island Regional Library - Nanaimo Harbourfront Branch</name>
    <cmt>Vancouver Island Regional Library - Nanaimo Harbourfront Branch</cmt>
    <desc>Vancouver Island Regional Library - Nanaimo Harbourfront Branch</desc>
    <sym>Library</sym>
    <type>user</type>
    <extensions>
      <gpxx:WaypointExtension>
        <gpxx:DisplayMode>SymbolOnly</gpxx:DisplayMode>
      </gpxx:WaypointExtension>
      <wptx1:WaypointExtension>
        <wptx1:DisplayMode>SymbolOnly</wptx1:DisplayMode>
      </wptx1:WaypointExtension>
      <ctx:CreationTimeExtension>
        <ctx:CreationTime>2022-04-20T02:49:44Z</ctx:CreationTime>
      </ctx:CreationTimeExtension>
    </extensions>
  </wpt>

  <wpt lat="49.279646873474121" lon="-123.11558246612549">
    <time>2022-04-20T02:46:14Z</time>
    <name>Vancouver Public Library</name>
    <cmt>Vancouver Public Library</cmt>
    <desc>Vancouver Public Library</desc>
    <sym>Library</sym>
    <type>user</type>
    <extensions>
      <gpxx:WaypointExtension>
        <gpxx:DisplayMode>SymbolOnly</gpxx:DisplayMode>
      </gpxx:WaypointExtension>
      <wptx1:WaypointExtension>
        <wptx1:DisplayMode>SymbolOnly</wptx1:DisplayMode>
      </wptx1:WaypointExtension>
      <ctx:CreationTimeExtension>
        <ctx:CreationTime>2022-04-20T02:46:14Z</ctx:CreationTime>
      </ctx:CreationTimeExtension>
    </extensions>
  </wpt>

  <wpt lat="51.529161930084229" lon="-111.20683193206787">
    <time>2022-08-12T04:17:19Z</time>
    <name>Youngstown Municipal Library</name>
    <cmt>Youngstown Public Library</cmt>
    <desc>Youngstown Public Library</desc>
    <sym>Library</sym>
    <type>user</type>
    <extensions>
      <gpxx:WaypointExtension>
        <gpxx:DisplayMode>SymbolOnly</gpxx:DisplayMode>
      </gpxx:WaypointExtension>
      <wptx1:WaypointExtension>
        <wptx1:DisplayMode>SymbolOnly</wptx1:DisplayMode>
      </wptx1:WaypointExtension>
      <ctx:CreationTimeExtension>
        <ctx:CreationTime>2022-08-12T04:17:19Z</ctx:CreationTime>
      </ctx:CreationTimeExtension>
    </extensions>
  </wpt>

</gpx>